{
"type": "FeatureCollection",
"lastupdate": "2020-07-26T00:31:07Z",
"features": [
	{"geometry":{"coordinates":[-0.835913,51.724075],"type":"Point"},"properties":{"amenity":"recycling","osm_id":"314948954","tag":{"recycling:batteries":"no","recycling:books":"yes","recycling:cans":"yes","recycling:cardboard":"yes","recycling:cartons":"no","recycling:clothes":"no","recycling:electrical_appliances":"no","recycling:glass":"yes","recycling:glass_bottles":"yes","recycling:magazines":"yes","recycling:newspaper":"yes","recycling:paper":"yes","recycling:paper_packaging":"no","recycling:plastic":"no","recycling:plastic_bottles":"no","recycling:plastic_packaging":"no","recycling:scrap_metal":"no","recycling:small_appliances":"no","recycling:waste":"no","recycling:wood":"no","recycling_type":"container"}},"type":"Feature"},
	{"geometry":{"coordinates":[-0.829117,51.722862],"type":"Point"},"properties":{"amenity":"recycling","osm_id":"356933603"},"type":"Feature"},
	{"geometry":{"coordinates":[-0.83077,51.723326],"type":"Point"},"properties":{"amenity":"waste_basket","osm_id":"5532121725","tag":{"waste":"trash"}},"type":"Feature"},
	{"geometry":{"coordinates":[-0.833387,51.724247],"type":"Point"},"properties":{"amenity":"waste_basket","osm_id":"5532121788","tag":{"waste":"trash"}},"type":"Feature"},
	{"geometry":{"coordinates":[-0.833512,51.724304],"type":"Point"},"properties":{"amenity":"waste_basket","osm_id":"5532121789","tag":{"waste":"trash"}},"type":"Feature"},
	{"geometry":{"coordinates":[-0.833443,51.725611],"type":"Point"},"properties":{"amenity":"waste_basket","osm_id":"5532121794","tag":{"waste":"trash"}},"type":"Feature"},
	{"geometry":{"coordinates":[-0.833131,51.721637],"type":"Point"},"properties":{"amenity":"waste_basket","osm_id":"5532121798","tag":{"waste":"trash"}},"type":"Feature"},
	{"geometry":{"coordinates":[-0.836444,51.724038],"type":"Point"},"properties":{"amenity":"waste_basket","osm_id":"5532121802","tag":{"waste":"trash"}},"type":"Feature"},
	{"geometry":{"coordinates":[-0.835547,51.723665],"type":"Point"},"properties":{"amenity":"waste_basket","osm_id":"5532121803","tag":{"waste":"trash"}},"type":"Feature"},
	{"geometry":{"coordinates":[-0.834462,51.723122],"type":"Point"},"properties":{"amenity":"waste_basket","osm_id":"5532121804","tag":{"waste":"trash"}},"type":"Feature"},
	{"geometry":{"coordinates":[-0.832153,51.721872],"type":"Point"},"properties":{"amenity":"waste_basket","osm_id":"5532121868","tag":{"waste":"trash"}},"type":"Feature"},
	{"geometry":{"coordinates":[-0.83197,51.721888],"type":"Point"},"properties":{"amenity":"waste_basket","osm_id":"5532121869","tag":{"waste":"trash"}},"type":"Feature"},
	{"geometry":{"coordinates":[-0.831855,51.721782],"type":"Point"},"properties":{"amenity":"waste_basket","osm_id":"5532121870","tag":{"waste":"trash"}},"type":"Feature"},
	{"geometry":{"coordinates":[-0.831449,51.722162],"type":"Point"},"properties":{"amenity":"waste_basket","osm_id":"5532121889","tag":{"waste":"trash"}},"type":"Feature"},
	{"geometry":{"coordinates":[-0.832253,51.724651],"type":"Point"},"properties":{"amenity":"waste_basket","osm_id":"5532121893","tag":{"waste":"trash"}},"type":"Feature"},
	{"geometry":{"coordinates":[-0.832394,51.724807],"type":"Point"},"properties":{"amenity":"waste_basket","osm_id":"5532121894","tag":{"waste":"trash"}},"type":"Feature"},
	{"geometry":{"coordinates":[-0.832329,51.724982],"type":"Point"},"properties":{"amenity":"waste_basket","osm_id":"5532121895","tag":{"waste":"trash"}},"type":"Feature"},
	{"geometry":{"coordinates":[-0.832567,51.725418],"type":"Point"},"properties":{"amenity":"waste_basket","osm_id":"5532121916","tag":{"waste":"trash"}},"type":"Feature"},
	{"geometry":{"coordinates":[-0.832227,51.725257],"type":"Point"},"properties":{"amenity":"waste_basket","osm_id":"5532121917","tag":{"waste":"trash"}},"type":"Feature"},
	{"geometry":{"coordinates":[-0.832865,51.726249],"type":"Point"},"properties":{"amenity":"waste_basket","osm_id":"5532121920","tag":{"waste":"trash"}},"type":"Feature"},
	{"geometry":{"coordinates":[-0.831521,51.72654],"type":"Point"},"properties":{"amenity":"waste_basket","osm_id":"5532122029","tag":{"waste":"trash"}},"type":"Feature"},
	{"geometry":{"coordinates":[-0.831089,51.726772],"type":"Point"},"properties":{"amenity":"waste_basket","osm_id":"5532122038","tag":{"waste":"trash"}},"type":"Feature"},
	{"geometry":{"coordinates":[-0.829542,51.72316],"type":"Point"},"properties":{"amenity":"waste_basket","osm_id":"5532122087","tag":{"waste":"trash"}},"type":"Feature"},
	{"geometry":{"coordinates":[-0.8297,51.723328],"type":"Point"},"properties":{"amenity":"waste_basket","osm_id":"5532122088","tag":{"waste":"trash"}},"type":"Feature"},
	{"geometry":{"coordinates":[-0.829302,51.723281],"type":"Point"},"properties":{"amenity":"waste_basket","osm_id":"5532122093","tag":{"waste":"trash"}},"type":"Feature"},
	{"geometry":{"coordinates":[-0.829803,51.72311],"type":"Point"},"properties":{"amenity":"waste_basket","osm_id":"5532122094","tag":{"waste":"trash"}},"type":"Feature"},
	{"geometry":{"coordinates":[-0.830196,51.722836],"type":"Point"},"properties":{"amenity":"waste_basket","osm_id":"5532122095","tag":{"waste":"trash"}},"type":"Feature"},
	{"geometry":{"coordinates":[-0.830255,51.72311],"type":"Point"},"properties":{"amenity":"waste_basket","osm_id":"5532122116","tag":{"waste":"trash"}},"type":"Feature"},
	{"geometry":{"coordinates":[-0.831009,51.723634],"type":"Point"},"properties":{"amenity":"waste_basket","osm_id":"5532122119","tag":{"waste":"trash"}},"type":"Feature"},
	{"geometry":{"coordinates":[-0.830972,51.723475],"type":"Point"},"properties":{"amenity":"waste_basket","osm_id":"5532122321","tag":{"waste":"trash"}},"type":"Feature"},
	{"geometry":{"coordinates":[-0.831443,51.723829],"type":"Point"},"properties":{"amenity":"waste_basket","osm_id":"5532122331","tag":{"waste":"trash"}},"type":"Feature"},
	{"geometry":{"coordinates":[-0.831613,51.723832],"type":"Point"},"properties":{"amenity":"waste_basket","osm_id":"5532122332","tag":{"waste":"trash"}},"type":"Feature"},
	{"geometry":{"coordinates":[-0.831881,51.724134],"type":"Point"},"properties":{"amenity":"waste_basket","osm_id":"5532122341","tag":{"waste":"trash"}},"type":"Feature"},
	{"geometry":{"coordinates":[-0.83221,51.72424],"type":"Point"},"properties":{"amenity":"waste_basket","osm_id":"5532122356","tag":{"waste":"trash"}},"type":"Feature"},
	{"geometry":{"coordinates":[-0.83228,51.724239],"type":"Point"},"properties":{"amenity":"waste_basket","osm_id":"5532122358","tag":{"waste":"trash"}},"type":"Feature"},
	{"geometry":{"coordinates":[-0.832109,51.724318],"type":"Point"},"properties":{"amenity":"waste_basket","osm_id":"5532122360","tag":{"waste":"trash"}},"type":"Feature"},
	{"geometry":{"coordinates":[-0.832207,51.724505],"type":"Point"},"properties":{"amenity":"waste_basket","osm_id":"5532122366","tag":{"waste":"trash"}},"type":"Feature"},
	{"geometry":{"coordinates":[-0.832368,51.724404],"type":"Point"},"properties":{"amenity":"waste_basket","osm_id":"5532122368","tag":{"covered":"yes","waste":"trash"}},"type":"Feature"},
	{"geometry":{"coordinates":[-0.83264,51.724368],"type":"Point"},"properties":{"amenity":"waste_basket","osm_id":"5532122372","tag":{"waste":"trash"}},"type":"Feature"},
	{"geometry":{"coordinates":[-0.832573,51.722105],"type":"Point"},"properties":{"amenity":"waste_basket","osm_id":"5534653742","tag":{"waste":"trash"}},"type":"Feature"},
	{"geometry":{"coordinates":[-0.831336,51.723677],"type":"Point"},"properties":{"amenity":"waste_basket","osm_id":"5538850379","tag":{"waste":"trash"}},"type":"Feature"},
	{"geometry":{"coordinates":[-0.832706,51.724206],"type":"Point"},"properties":{"amenity":"waste_basket","osm_id":"5538850399","tag":{"waste":"trash"}},"type":"Feature"},
	{"geometry":{"coordinates":[-0.83512,51.723994],"type":"Point"},"properties":{"amenity":"waste_basket","osm_id":"5538850400","tag":{"waste":"trash"}},"type":"Feature"},
	{"geometry":{"coordinates":[-0.825233,51.726121],"type":"Point"},"properties":{"amenity":"waste_basket","osm_id":"5567531393","tag":{"waste":"trash"}},"type":"Feature"},
	{"geometry":{"coordinates":[-0.841745,51.718567],"type":"Point"},"properties":{"amenity":"waste_basket","osm_id":"5567532191","tag":{"waste":"trash"}},"type":"Feature"},
	{"geometry":{"coordinates":[-0.836603,51.724137],"type":"Point"},"properties":{"amenity":"waste_basket","osm_id":"5567532207","tag":{"waste":"trash"}},"type":"Feature"},
	{"geometry":{"coordinates":[-0.835301,51.724104],"type":"Point"},"properties":{"amenity":"waste_basket","osm_id":"5567532229","tag":{"waste":"trash"}},"type":"Feature"},
	{"geometry":{"coordinates":[-0.843857,51.71796],"type":"Point"},"properties":{"amenity":"recycling","osm_id":"5567532529","tag":{"recycling:cardboard":"yes","recycling:glass":"yes","recycling:paper":"yes","recycling:plastic":"yes","recycling:scrap_metal":"yes","recycling_type":"container"}},"type":"Feature"},
	{"geometry":{"coordinates":[-0.843857,51.717966],"type":"Point"},"properties":{"amenity":"waste_basket","osm_id":"5567532530","tag":{"waste":"trash"}},"type":"Feature"},
	{"geometry":{"coordinates":[-0.836268,51.720098],"type":"Point"},"properties":{"amenity":"waste_basket","osm_id":"5567532633","tag":{"waste":"trash"}},"type":"Feature"},
	{"geometry":{"coordinates":[-0.834381,51.721037],"type":"Point"},"properties":{"amenity":"waste_basket","osm_id":"5567532635","tag":{"waste":"trash"}},"type":"Feature"},
	{"geometry":{"coordinates":[-0.832836,51.721773],"type":"Point"},"properties":{"amenity":"waste_basket","osm_id":"5567532636","tag":{"waste":"trash"}},"type":"Feature"},
	{"geometry":{"coordinates":[-0.833108,51.721493],"type":"Point"},"properties":{"amenity":"waste_basket","osm_id":"5567532638","tag":{"waste":"trash"}},"type":"Feature"},
	{"geometry":{"coordinates":[-0.836944,51.724148],"type":"Point"},"properties":{"amenity":"waste_basket","osm_id":"5576844910","tag":{"waste":"trash"}},"type":"Feature"},
	{"geometry":{"coordinates":[-0.838351,51.724197],"type":"Point"},"properties":{"amenity":"waste_basket","osm_id":"5576844916","tag":{"waste":"dog_excrement"}},"type":"Feature"},
	{"geometry":{"coordinates":[-0.838526,51.725066],"type":"Point"},"properties":{"amenity":"waste_basket","osm_id":"5576844918","tag":{"waste":"dog_excrement"}},"type":"Feature"},
	{"geometry":{"coordinates":[-0.837615,51.726134],"type":"Point"},"properties":{"amenity":"waste_basket","osm_id":"5580117115","tag":{"waste":"dog_excrement"}},"type":"Feature"},
	{"geometry":{"coordinates":[-0.837679,51.725131],"type":"Point"},"properties":{"amenity":"waste_basket","osm_id":"5580117120","tag":{"waste":"trash"}},"type":"Feature"},
	{"geometry":{"coordinates":[-0.837811,51.725037],"type":"Point"},"properties":{"amenity":"waste_basket","osm_id":"5580117124","tag":{"waste":"trash"}},"type":"Feature"},
	{"geometry":{"coordinates":[-0.834364,51.724615],"type":"Point"},"properties":{"amenity":"waste_basket","osm_id":"5580117125","tag":{"waste":"trash"}},"type":"Feature"},
	{"geometry":{"coordinates":[-0.835738,51.725411],"type":"Point"},"properties":{"amenity":"waste_basket","osm_id":"5580117128","tag":{"waste":"dog_excrement"}},"type":"Feature"},
	{"geometry":{"coordinates":[-0.835826,51.725252],"type":"Point"},"properties":{"amenity":"waste_basket","osm_id":"5580117130","tag":{"waste":"trash"}},"type":"Feature"},
	{"geometry":{"coordinates":[-0.836992,51.724895],"type":"Point"},"properties":{"amenity":"waste_basket","osm_id":"5580117145","tag":{"waste":"trash"}},"type":"Feature"},
	{"geometry":{"coordinates":[-0.836986,51.717535],"type":"Point"},"properties":{"amenity":"waste_basket","osm_id":"5580117165","tag":{"waste":"trash"}},"type":"Feature"},
	{"geometry":{"coordinates":[-0.836642,51.717136],"type":"Point"},"properties":{"amenity":"waste_basket","osm_id":"5580117168","tag":{"waste":"trash"}},"type":"Feature"},
	{"geometry":{"coordinates":[-0.840491,51.718111],"type":"Point"},"properties":{"amenity":"waste_basket","osm_id":"5580117175","tag":{"waste":"dog_excrement"}},"type":"Feature"},
	{"geometry":{"coordinates":[-0.821425,51.724993],"type":"Point"},"properties":{"amenity":"waste_basket","osm_id":"5589116523","tag":{"waste":"dog_excrement"}},"type":"Feature"},
	{"geometry":{"coordinates":[-0.821856,51.7253],"type":"Point"},"properties":{"amenity":"waste_basket","osm_id":"5589116524","tag":{"waste":"trash"}},"type":"Feature"},
	{"geometry":{"coordinates":[-0.822431,51.725583],"type":"Point"},"properties":{"amenity":"waste_basket","osm_id":"5589116526","tag":{"waste":"dog_excrement"}},"type":"Feature"},
	{"geometry":{"coordinates":[-0.821574,51.722343],"type":"Point"},"properties":{"amenity":"waste_basket","osm_id":"5589116533","tag":{"waste":"trash"}},"type":"Feature"},
	{"geometry":{"coordinates":[-0.821261,51.722514],"type":"Point"},"properties":{"amenity":"waste_basket","osm_id":"5589116534","tag":{"waste":"trash"}},"type":"Feature"},
	{"geometry":{"coordinates":[-0.821551,51.722346],"type":"Point"},"properties":{"amenity":"waste_basket","osm_id":"5589116537","tag":{"waste":"dog_excrement"}},"type":"Feature"},
	{"geometry":{"coordinates":[-0.825967,51.722826],"type":"Point"},"properties":{"amenity":"waste_basket","osm_id":"5589116552","tag":{"waste":"dog_excrement"}},"type":"Feature"},
	{"geometry":{"coordinates":[-0.826835,51.723137],"type":"Point"},"properties":{"amenity":"waste_basket","osm_id":"5589116553","tag":{"waste":"dog_excrement"}},"type":"Feature"},
	{"geometry":{"coordinates":[-0.826851,51.72321],"type":"Point"},"properties":{"amenity":"waste_basket","osm_id":"5589116556","tag":{"waste":"trash"}},"type":"Feature"},
	{"geometry":{"coordinates":[-0.827118,51.723059],"type":"Point"},"properties":{"amenity":"waste_basket","osm_id":"5589116569","tag":{"waste":"trash"}},"type":"Feature"},
	{"geometry":{"coordinates":[-0.827695,51.722624],"type":"Point"},"properties":{"amenity":"waste_basket","osm_id":"5589116572","tag":{"waste":"dog_excrement"}},"type":"Feature"},
	{"geometry":{"coordinates":[-0.827704,51.722151],"type":"Point"},"properties":{"amenity":"waste_basket","osm_id":"5589116573","tag":{"waste":"trash"}},"type":"Feature"},
	{"geometry":{"coordinates":[-0.827774,51.722193],"type":"Point"},"properties":{"amenity":"waste_basket","osm_id":"5589116574","tag":{"waste":"dog_excrement"}},"type":"Feature"},
	{"geometry":{"coordinates":[-0.828267,51.72267],"type":"Point"},"properties":{"amenity":"waste_basket","osm_id":"5589116576","tag":{"waste":"trash"}},"type":"Feature"},
	{"geometry":{"coordinates":[-0.828036,51.722905],"type":"Point"},"properties":{"amenity":"waste_basket","osm_id":"5589116577","tag":{"waste":"trash"}},"type":"Feature"},
	{"geometry":{"coordinates":[-0.828083,51.722858],"type":"Point"},"properties":{"amenity":"waste_basket","osm_id":"5589116578","tag":{"waste":"trash"}},"type":"Feature"},
	{"geometry":{"coordinates":[-0.83167,51.726376],"type":"Point"},"properties":{"amenity":"waste_basket","osm_id":"5589116756","tag":{"waste":"dog_excrement"}},"type":"Feature"},
	{"geometry":{"coordinates":[-0.837206,51.724957],"type":"Point"},"properties":{"amenity":"waste_basket","osm_id":"5599414278","tag":{"waste":"trash"}},"type":"Feature"},
	{"geometry":{"coordinates":[-0.827863,51.723892],"type":"Point"},"properties":{"amenity":"waste_basket","osm_id":"5599414290","tag":{"waste":"trash"}},"type":"Feature"},
	{"geometry":{"coordinates":[-0.826863,51.724313],"type":"Point"},"properties":{"amenity":"waste_basket","osm_id":"5599414291","tag":{"waste":"trash"}},"type":"Feature"},
	{"geometry":{"coordinates":[-0.826396,51.724698],"type":"Point"},"properties":{"amenity":"waste_basket","osm_id":"5599414292","tag":{"waste":"trash"}},"type":"Feature"},
	{"geometry":{"coordinates":[-0.828175,51.721103],"type":"Point"},"properties":{"amenity":"waste_basket","osm_id":"5612608542","tag":{"waste":"dog_excrement"}},"type":"Feature"},
	{"geometry":{"coordinates":[-0.826126,51.721185],"type":"Point"},"properties":{"amenity":"waste_basket","osm_id":"5612608543","tag":{"waste":"trash"}},"type":"Feature"},
	{"geometry":{"coordinates":[-0.826066,51.721359],"type":"Point"},"properties":{"amenity":"waste_basket","osm_id":"5612608544","tag":{"waste":"dog_excrement"}},"type":"Feature"},
	{"geometry":{"coordinates":[-0.826628,51.721907],"type":"Point"},"properties":{"amenity":"waste_basket","osm_id":"5612608545","tag":{"waste":"dog_excrement"}},"type":"Feature"},
	{"geometry":{"coordinates":[-0.833828,51.725989],"type":"Point"},"properties":{"amenity":"recycling","osm_id":"5638563357","tag":{"recycling:clothes":"yes","recycling_type":"container"}},"type":"Feature"},
	{"geometry":{"coordinates":[-0.830153,51.721378],"type":"Point"},"properties":{"amenity":"waste_basket","osm_id":"5638563390","tag":{"waste":"trash"}},"type":"Feature"},
	{"geometry":{"coordinates":[-0.82688,51.71956],"type":"Point"},"properties":{"amenity":"waste_basket","osm_id":"5638563439","tag":{"waste":"trash"}},"type":"Feature"},
	{"geometry":{"coordinates":[-0.82268,51.722578],"type":"Point"},"properties":{"amenity":"waste_basket","osm_id":"5638563442","tag":{"waste":"dog_excrement"}},"type":"Feature"},
	{"geometry":{"coordinates":[-0.86243,51.681885],"type":"Point"},"properties":{"amenity":"waste_basket","osm_id":"5644690838","tag":{"waste":"trash"}},"type":"Feature"},
	{"geometry":{"coordinates":[-0.87817,51.711902],"type":"Point"},"properties":{"amenity":"waste_basket","osm_id":"5644691177","tag":{"waste":"trash"}},"type":"Feature"},
	{"geometry":{"coordinates":[-0.844245,51.71773],"type":"Point"},"properties":{"amenity":"waste_basket","osm_id":"5654728710","tag":{"waste":"trash"}},"type":"Feature"},
	{"geometry":{"coordinates":[-0.866708,51.68853],"type":"Point"},"properties":{"amenity":"recycling","osm_id":"5695511042","tag":{"recycling:bulky_waste":"yes","recycling_type":"container"}},"type":"Feature"},
	{"geometry":{"coordinates":[-0.866857,51.6883],"type":"Point"},"properties":{"amenity":"recycling","osm_id":"5695511043","tag":{"recycling:clothes":"yes","recycling_type":"container"}},"type":"Feature"},
	{"geometry":{"coordinates":[-0.86682,51.688367],"type":"Point"},"properties":{"amenity":"recycling","osm_id":"5695511044","tag":{"recycling:cardboard":"yes","recycling_type":"container"}},"type":"Feature"},
	{"geometry":{"coordinates":[-0.866786,51.688425],"type":"Point"},"properties":{"amenity":"recycling","osm_id":"5695511045","tag":{"recycling:paper":"yes","recycling_type":"container"}},"type":"Feature"},
	{"geometry":{"coordinates":[-0.866744,51.688476],"type":"Point"},"properties":{"amenity":"recycling","osm_id":"5695511046","tag":{"recycling:waste":"yes","recycling_type":"container"}},"type":"Feature"},
	{"geometry":{"coordinates":[-0.86667,51.688579],"type":"Point"},"properties":{"amenity":"recycling","osm_id":"5695511047","tag":{"recycling:green_waste":"yes","recycling_type":"container"}},"type":"Feature"},
	{"geometry":{"coordinates":[-0.866536,51.688354],"type":"Point"},"properties":{"amenity":"recycling","osm_id":"5695511048","tag":{"recycling:tv_monitor":"yes","recycling_type":"container"}},"type":"Feature"},
	{"geometry":{"coordinates":[-0.86656,51.68838],"type":"Point"},"properties":{"amenity":"recycling","osm_id":"5695511049","tag":{"recycling:mobile_phones":"yes","recycling_type":"container"}},"type":"Feature"},
	{"geometry":{"coordinates":[-0.866572,51.688365],"type":"Point"},"properties":{"amenity":"recycling","osm_id":"5695511050","tag":{"recycling:printer_cartridges":"yes","recycling_type":"container"}},"type":"Feature"},
	{"geometry":{"coordinates":[-0.866566,51.688322],"type":"Point"},"properties":{"amenity":"recycling","osm_id":"5695511052","tag":{"recycling:soil":"yes","recycling_type":"container"}},"type":"Feature"},
	{"geometry":{"coordinates":[-0.866586,51.688297],"type":"Point"},"properties":{"amenity":"recycling","osm_id":"5695511053","tag":{"recycling:hardcore":"yes","recycling:rubble":"yes","recycling_type":"container"}},"type":"Feature"},
	{"geometry":{"coordinates":[-0.866691,51.688231],"type":"Point"},"properties":{"amenity":"recycling","osm_id":"5695511054","tag":{"recycling:gas_bottles":"yes","recycling_type":"container"}},"type":"Feature"},
	{"geometry":{"coordinates":[-0.866657,51.688244],"type":"Point"},"properties":{"amenity":"recycling","osm_id":"5695511055","tag":{"recycling:car_batteries":"yes","recycling_type":"container"}},"type":"Feature"},
	{"geometry":{"coordinates":[-0.866635,51.688263],"type":"Point"},"properties":{"amenity":"recycling","osm_id":"5695511056","tag":{"recycling:batteries":"yes","recycling_type":"container"}},"type":"Feature"},
	{"geometry":{"coordinates":[-0.866421,51.688514],"type":"Point"},"properties":{"amenity":"recycling","osm_id":"5695511057","tag":{"recycling:cooking_oil":"yes","recycling_type":"container"}},"type":"Feature"},
	{"geometry":{"coordinates":[-0.866415,51.688537],"type":"Point"},"properties":{"amenity":"recycling","osm_id":"5695511058","tag":{"recycling:engine_oil":"yes","recycling_type":"container"}},"type":"Feature"},
	{"geometry":{"coordinates":[-0.86663,51.68864],"type":"Point"},"properties":{"amenity":"recycling","osm_id":"5695511059","tag":{"recycling:man_made_wood":"yes","recycling_type":"container"}},"type":"Feature"},
	{"geometry":{"coordinates":[-0.866592,51.688638],"type":"Point"},"properties":{"amenity":"recycling","osm_id":"5695511060","tag":{"recycling:wood":"yes","recycling_type":"container"}},"type":"Feature"},
	{"geometry":{"coordinates":[-0.866552,51.688637],"type":"Point"},"properties":{"amenity":"recycling","osm_id":"5695511061","tag":{"recycling:cardboard":"yes","recycling_type":"container"}},"type":"Feature"},
	{"geometry":{"coordinates":[-0.866509,51.688638],"type":"Point"},"properties":{"amenity":"recycling","osm_id":"5695511062","tag":{"recycling:scrap_metal":"yes","recycling_type":"container"}},"type":"Feature"},
	{"geometry":{"coordinates":[-0.866466,51.688639],"type":"Point"},"properties":{"amenity":"recycling","osm_id":"5695511063","tag":{"recycling":"white_goods","recycling_type":"container"}},"type":"Feature"},
	{"geometry":{"coordinates":[-0.804222,51.691934],"type":"Point"},"properties":{"amenity":"waste_basket","osm_id":"5797017179","tag":{"waste":"trash"}},"type":"Feature"},
	{"geometry":{"coordinates":[-0.837406,51.708772],"type":"Point"},"properties":{"amenity":"waste_basket","osm_id":"5806927586","tag":{"waste":"trash"}},"type":"Feature"},
	{"geometry":{"coordinates":[-0.83447,51.709848],"type":"Point"},"properties":{"amenity":"waste_basket","osm_id":"5806927593","tag":{"waste":"trash"}},"type":"Feature"},
	{"geometry":{"coordinates":[-0.844251,51.717934],"type":"Point"},"properties":{"amenity":"waste_basket","osm_id":"5926543707","tag":{"waste":"trash"}},"type":"Feature"}
]
}
