{
"type": "FeatureCollection",
"lastupdate": "2020-07-29T00:24:51Z",
"features": [
	{"geometry":{"coordinates":[-0.84268,51.282702],"type":"Point"},"properties":{"amenity":"recycling","osm_id":"153809145"},"type":"Feature"},
	{"geometry":{"coordinates":[-0.853364,51.266082],"type":"Point"},"properties":{"amenity":"waste_basket","osm_id":"851926068"},"type":"Feature"},
	{"geometry":{"coordinates":[-0.860335,51.244063],"type":"Point"},"properties":{"amenity":"recycling","osm_id":"851926294","tag":{"recycling:cans":"no","recycling:glass":"yes"}},"type":"Feature"},
	{"geometry":{"coordinates":[-0.818283,51.282564],"type":"Point"},"properties":{"amenity":"waste_basket","osm_id":"3641423301"},"type":"Feature"},
	{"geometry":{"coordinates":[-0.842459,51.280971],"type":"Point"},"properties":{"amenity":"waste_basket","osm_id":"5744999517"},"type":"Feature"},
	{"geometry":{"coordinates":[-0.843984,51.279729],"type":"Point"},"properties":{"amenity":"waste_basket","osm_id":"5745001350"},"type":"Feature"},
	{"geometry":{"coordinates":[-0.840894,51.282157],"type":"Point"},"properties":{"amenity":"waste_basket","osm_id":"5745858727"},"type":"Feature"},
	{"geometry":{"coordinates":[-0.841256,51.282052],"type":"Point"},"properties":{"amenity":"waste_basket","osm_id":"5745858732"},"type":"Feature"},
	{"geometry":{"coordinates":[-0.841297,51.281998],"type":"Point"},"properties":{"amenity":"waste_basket","osm_id":"5745858734"},"type":"Feature"},
	{"geometry":{"coordinates":[-0.838189,51.28473],"type":"Point"},"properties":{"amenity":"waste_basket","osm_id":"5750321219"},"type":"Feature"},
	{"geometry":{"coordinates":[-0.834821,51.28771],"type":"Point"},"properties":{"amenity":"waste_basket","osm_id":"5750321322"},"type":"Feature"},
	{"geometry":{"coordinates":[-0.8365,51.286109],"type":"Point"},"properties":{"amenity":"waste_basket","osm_id":"5750321323"},"type":"Feature"},
	{"geometry":{"coordinates":[-0.835665,51.286757],"type":"Point"},"properties":{"amenity":"waste_basket","osm_id":"5752712512"},"type":"Feature"},
	{"geometry":{"coordinates":[-0.846219,51.279566],"type":"Point"},"properties":{"amenity":"recycling","name":"Small Electrical Appliances Recycling","osm_id":"5825703779","tag":{"opening_hours":"24/7","recycling:electrical_appliances":"yes","recycling_type":"container"}},"type":"Feature"},
	{"geometry":{"coordinates":[-0.794667,51.237419],"type":"Point"},"properties":{"amenity":"waste_basket","osm_id":"7464026313","tag":{"colour":"black","material":"steel","waste":"cigarettes;litter"}},"type":"Feature"}
]
}
