{
"type": "FeatureCollection",
"lastupdate": "2020-07-26T00:31:07Z",
"features": [
	{"geometry":{"coordinates":[-0.936206,52.766664],"type":"Point"},"properties":{"amenity":"waste_basket","osm_id":"1572554010"},"type":"Feature"},
	{"geometry":{"coordinates":[-0.936442,52.766661],"type":"Point"},"properties":{"amenity":"waste_basket","osm_id":"1572554012"},"type":"Feature"},
	{"geometry":{"coordinates":[-0.881835,52.766379],"type":"Point"},"properties":{"amenity":"waste_basket","osm_id":"3920894790"},"type":"Feature"},
	{"geometry":{"coordinates":[-0.899433,52.77235],"type":"Point"},"properties":{"amenity":"recycling","osm_id":"3920895284","tag":{"recycling:clothes":"yes","recycling:shoes":"yes","recycling_type":"container"}},"type":"Feature"},
	{"geometry":{"coordinates":[-0.886473,52.774277],"type":"Point"},"properties":{"amenity":"waste_basket","osm_id":"3920895549"},"type":"Feature"},
	{"geometry":{"coordinates":[-0.886388,52.779825],"type":"Point"},"properties":{"amenity":"waste_basket","osm_id":"3920895869"},"type":"Feature"},
	{"geometry":{"coordinates":[-0.890558,52.761532],"type":"Point"},"properties":{"amenity":"waste_basket","name":"Litter","osm_id":"3923435476"},"type":"Feature"},
	{"geometry":{"coordinates":[-0.891178,52.760515],"type":"Point"},"properties":{"amenity":"waste_basket","osm_id":"3923436310"},"type":"Feature"},
	{"geometry":{"coordinates":[-0.890086,52.760611],"type":"Point"},"properties":{"amenity":"waste_basket","osm_id":"3923436315"},"type":"Feature"},
	{"geometry":{"coordinates":[-0.889503,52.765235],"type":"Point"},"properties":{"amenity":"waste_basket","osm_id":"3923436426"},"type":"Feature"}
]
}
