{
"type": "FeatureCollection",
"lastupdate": "2020-07-31T01:06:47Z",
"features": [
	{"geometry":{"coordinates":[0.391996,52.242989],"type":"Point"},"properties":{"amenity":"recycling","osm_id":"242588029"},"type":"Feature"},
	{"geometry":{"coordinates":[0.386911,52.261392],"type":"Point"},"properties":{"amenity":"recycling","osm_id":"242588185"},"type":"Feature"},
	{"geometry":{"coordinates":[0.401881,52.245908],"type":"Point"},"properties":{"amenity":"recycling","osm_id":"246524580"},"type":"Feature"},
	{"geometry":{"coordinates":[0.394233,52.256378],"type":"Point"},"properties":{"amenity":"recycling","name":"Suffolk CC Household Wast Recycling Site","osm_id":"246524648"},"type":"Feature"},
	{"geometry":{"coordinates":[0.398759,52.260603],"type":"Point"},"properties":{"amenity":"recycling","osm_id":"246524758"},"type":"Feature"},
	{"geometry":{"coordinates":[0.402251,52.242589],"type":"Point"},"properties":{"amenity":"recycling","osm_id":"248937810"},"type":"Feature"},
	{"geometry":{"coordinates":[0.407371,52.238469],"type":"Point"},"properties":{"amenity":"waste_basket","osm_id":"2006164140"},"type":"Feature"},
	{"geometry":{"coordinates":[0.405526,52.243737],"type":"Point"},"properties":{"amenity":"waste_basket","osm_id":"2006258879"},"type":"Feature"},
	{"geometry":{"coordinates":[0.405443,52.243773],"type":"Point"},"properties":{"amenity":"waste_basket","osm_id":"2006258882"},"type":"Feature"},
	{"geometry":{"coordinates":[0.405249,52.243924],"type":"Point"},"properties":{"amenity":"waste_basket","osm_id":"2006258886"},"type":"Feature"},
	{"geometry":{"coordinates":[0.405019,52.246829],"type":"Point"},"properties":{"amenity":"waste_basket","osm_id":"2006272753"},"type":"Feature"},
	{"geometry":{"coordinates":[0.408133,52.244951],"type":"Point"},"properties":{"amenity":"waste_basket","osm_id":"2156653464"},"type":"Feature"},
	{"geometry":{"coordinates":[0.409118,52.245444],"type":"Point"},"properties":{"amenity":"waste_basket","osm_id":"2156675099"},"type":"Feature"},
	{"geometry":{"coordinates":[0.39857,52.245212],"type":"Point"},"properties":{"amenity":"waste_basket","name":"Dustbin (not dog waste)","osm_id":"4784452061"},"type":"Feature"},
	{"geometry":{"coordinates":[0.398496,52.245001],"type":"Point"},"properties":{"amenity":"waste_basket","name":"Dustbin","osm_id":"4784452062"},"type":"Feature"},
	{"geometry":{"coordinates":[0.399576,52.244963],"type":"Point"},"properties":{"amenity":"waste_basket","name":"Dustbin","osm_id":"4784452063"},"type":"Feature"},
	{"geometry":{"coordinates":[0.402497,52.243564],"type":"Point"},"properties":{"amenity":"waste_basket","osm_id":"4784456588"},"type":"Feature"},
	{"geometry":{"coordinates":[0.401477,52.244095],"type":"Point"},"properties":{"amenity":"waste_basket","osm_id":"4784456702"},"type":"Feature"},
	{"geometry":{"coordinates":[0.402717,52.243431],"type":"Point"},"properties":{"amenity":"waste_basket","osm_id":"4784459258"},"type":"Feature"},
	{"geometry":{"coordinates":[0.398225,52.244309],"type":"Point"},"properties":{"amenity":"waste_basket","name":"Dustbin","osm_id":"4809639158"},"type":"Feature"},
	{"geometry":{"coordinates":[0.401889,52.243803],"type":"Point"},"properties":{"amenity":"waste_basket","name":"Dustbin","osm_id":"4809639159"},"type":"Feature"},
	{"geometry":{"coordinates":[0.396039,52.245037],"type":"Point"},"properties":{"amenity":"waste_basket","name":"Dustbin","osm_id":"4809644996"},"type":"Feature"},
	{"geometry":{"coordinates":[0.403325,52.24506],"type":"Point"},"properties":{"amenity":"waste_basket","name":"Dustbin","osm_id":"4809644998"},"type":"Feature"},
	{"geometry":{"coordinates":[0.403424,52.242921],"type":"Point"},"properties":{"amenity":"waste_basket","name":"Dustbin","osm_id":"4809887693"},"type":"Feature"},
	{"geometry":{"coordinates":[0.4035,52.242854],"type":"Point"},"properties":{"amenity":"waste_basket","name":"Dustbin","osm_id":"4809887694"},"type":"Feature"},
	{"geometry":{"coordinates":[0.404045,52.243152],"type":"Point"},"properties":{"amenity":"waste_basket","name":"Dustbin","osm_id":"4809887695"},"type":"Feature"},
	{"geometry":{"coordinates":[0.407846,52.244825],"type":"Point"},"properties":{"amenity":"waste_basket","name":"Dustbin","osm_id":"4809887696"},"type":"Feature"},
	{"geometry":{"coordinates":[0.408779,52.244415],"type":"Point"},"properties":{"amenity":"waste_basket","name":"Dustbin","osm_id":"4809887697"},"type":"Feature"},
	{"geometry":{"coordinates":[0.396311,52.247515],"type":"Point"},"properties":{"amenity":"waste_basket","name":"Dustbin","osm_id":"4827757445"},"type":"Feature"},
	{"geometry":{"coordinates":[0.408547,52.242779],"type":"Point"},"properties":{"amenity":"recycling","osm_id":"6762899732","tag":{"recycling:glass":"yes","recycling_type":"container"}},"type":"Feature"}
]
}
