{
"type": "FeatureCollection",
"lastupdate": "2020-07-24T00:48:03Z",
"features": [
	{"geometry":{"coordinates":[-3.598534,50.384516],"type":"Point"},"properties":{"amenity":"recycling","osm_id":"472335095"},"type":"Feature"},
	{"geometry":{"coordinates":[-3.570414,50.349655],"type":"Point"},"properties":{"amenity":"recycling","name":"Brixham Road","osm_id":"1687071049","tag":{"recycling:cans":"yes","recycling:cardboard":"yes","recycling:paper":"yes","recycling:paper_packaging":"yes","recycling:plastic_bottles":"yes","recycling_type":"container"}},"type":"Feature"},
	{"geometry":{"coordinates":[-3.570455,50.349858],"type":"Point"},"properties":{"amenity":"recycling","name":"Marina car park","osm_id":"1687072403","tag":{"recycling:glass_bottles":"yes","recycling_type":"container"}},"type":"Feature"},
	{"geometry":{"coordinates":[-3.5739,50.354567],"type":"Point"},"properties":{"amenity":"recycling","name":"Waste Pontoon","osm_id":"3404031406","tag":{"operator":"Dart Harbour and Navigation Authority"}},"type":"Feature"},
	{"geometry":{"coordinates":[-3.577335,50.349679],"type":"Point"},"properties":{"amenity":"waste_basket","osm_id":"5029667375"},"type":"Feature"},
	{"geometry":{"coordinates":[-3.577318,50.349224],"type":"Point"},"properties":{"amenity":"waste_basket","osm_id":"5029667384"},"type":"Feature"},
	{"geometry":{"coordinates":[-3.577734,50.347013],"type":"Point"},"properties":{"amenity":"waste_basket","osm_id":"5030968105","tag":{"waste":"dog_excrement"}},"type":"Feature"},
	{"geometry":{"coordinates":[-3.57774,50.346999],"type":"Point"},"properties":{"amenity":"waste_basket","osm_id":"5030968107"},"type":"Feature"},
	{"geometry":{"coordinates":[-3.577364,50.350724],"type":"Point"},"properties":{"amenity":"waste_basket","osm_id":"5032310934"},"type":"Feature"},
	{"geometry":{"coordinates":[-3.577362,50.350459],"type":"Point"},"properties":{"amenity":"waste_basket","osm_id":"5032310941"},"type":"Feature"},
	{"geometry":{"coordinates":[-3.579209,50.348921],"type":"Point"},"properties":{"amenity":"waste_basket","osm_id":"5036389809","tag":{"waste":"dog_excrement"}},"type":"Feature"},
	{"geometry":{"coordinates":[-3.579815,50.352226],"type":"Point"},"properties":{"amenity":"waste_basket","osm_id":"5044840913"},"type":"Feature"},
	{"geometry":{"coordinates":[-3.579382,50.352583],"type":"Point"},"properties":{"amenity":"waste_basket","osm_id":"5044908810"},"type":"Feature"},
	{"geometry":{"coordinates":[-3.57866,50.352309],"type":"Point"},"properties":{"amenity":"waste_basket","osm_id":"5044908811"},"type":"Feature"},
	{"geometry":{"coordinates":[-3.578445,50.350335],"type":"Point"},"properties":{"amenity":"waste_basket","osm_id":"5047014633"},"type":"Feature"},
	{"geometry":{"coordinates":[-3.579561,50.351809],"type":"Point"},"properties":{"amenity":"waste_basket","osm_id":"5052303477"},"type":"Feature"},
	{"geometry":{"coordinates":[-3.578459,50.351899],"type":"Point"},"properties":{"amenity":"waste_basket","osm_id":"5052303483"},"type":"Feature"},
	{"geometry":{"coordinates":[-3.583939,50.350354],"type":"Point"},"properties":{"amenity":"waste_basket","osm_id":"5058039775","tag":{"waste":"dog_excrement"}},"type":"Feature"},
	{"geometry":{"coordinates":[-3.516956,50.40073],"type":"Point"},"properties":{"amenity":"recycling","osm_id":"7054514254","tag":{"recycling:clothes":"yes","recycling:glass":"yes","recycling:glass_bottles":"yes","recycling:paper":"yes","recycling:shoes":"yes","recycling_type":"container"}},"type":"Feature"},
	{"geometry":{"coordinates":[-3.51685,50.400745],"type":"Point"},"properties":{"amenity":"recycling","osm_id":"7054514257","tag":{"recycling:books":"yes","recycling:clothes":"yes","recycling:paper":"yes","recycling:shoes":"yes","recycling_type":"container"}},"type":"Feature"}
]
}
