{
"type": "FeatureCollection",
"lastupdate": "2020-07-29T00:24:51Z",
"features": [
	{"geometry":{"coordinates":[-0.727065,52.000518],"type":"Point"},"properties":{"amenity":"recycling","name":"Tesco Car Park","osm_id":"456846940"},"type":"Feature"},
	{"geometry":{"coordinates":[-0.708775,52.024003],"type":"Point"},"properties":{"amenity":"recycling","osm_id":"1145376415","tag":{"recycling:glass":"yes"}},"type":"Feature"},
	{"geometry":{"coordinates":[-0.752781,52.02051],"type":"Point"},"properties":{"amenity":"recycling","name":"Council Domestic Waste Recycling Centre","osm_id":"1897656479","tag":{"recycling_type":"centre"}},"type":"Feature"},
	{"geometry":{"coordinates":[-0.704592,52.014412],"type":"Point"},"properties":{"amenity":"waste_basket","osm_id":"3698995340"},"type":"Feature"},
	{"geometry":{"coordinates":[-0.710894,52.015837],"type":"Point"},"properties":{"amenity":"waste_basket","osm_id":"3699030385"},"type":"Feature"},
	{"geometry":{"coordinates":[-0.714679,52.012827],"type":"Point"},"properties":{"amenity":"waste_basket","osm_id":"3699487023"},"type":"Feature"},
	{"geometry":{"coordinates":[-0.70864,52.011411],"type":"Point"},"properties":{"amenity":"waste_basket","osm_id":"3699517566"},"type":"Feature"},
	{"geometry":{"coordinates":[-0.78764,52.038862],"type":"Point"},"properties":{"amenity":"waste_basket","name":"Dog Bin","osm_id":"4346989112"},"type":"Feature"},
	{"geometry":{"coordinates":[-0.779517,52.003278],"type":"Point"},"properties":{"amenity":"waste_basket","osm_id":"4478801090"},"type":"Feature"},
	{"geometry":{"coordinates":[-0.772001,52.003182],"type":"Point"},"properties":{"amenity":"waste_basket","osm_id":"4478803591"},"type":"Feature"},
	{"geometry":{"coordinates":[-0.775652,52.001927],"type":"Point"},"properties":{"amenity":"waste_basket","osm_id":"4478826289"},"type":"Feature"},
	{"geometry":{"coordinates":[-0.779453,52.002247],"type":"Point"},"properties":{"amenity":"waste_basket","osm_id":"4485463589"},"type":"Feature"},
	{"geometry":{"coordinates":[-0.768644,52.016175],"type":"Point"},"properties":{"amenity":"waste_basket","osm_id":"4491990890"},"type":"Feature"},
	{"geometry":{"coordinates":[-0.768481,52.016058],"type":"Point"},"properties":{"amenity":"waste_basket","osm_id":"4491993689"},"type":"Feature"},
	{"geometry":{"coordinates":[-0.774462,52.007174],"type":"Point"},"properties":{"amenity":"waste_basket","osm_id":"4492020192"},"type":"Feature"},
	{"geometry":{"coordinates":[-0.779761,52.005309],"type":"Point"},"properties":{"amenity":"waste_basket","osm_id":"4492035892"},"type":"Feature"},
	{"geometry":{"coordinates":[-0.789732,52.009616],"type":"Point"},"properties":{"amenity":"waste_basket","osm_id":"4935386722"},"type":"Feature"},
	{"geometry":{"coordinates":[-0.78413,52.011753],"type":"Point"},"properties":{"amenity":"waste_basket","osm_id":"4935390729"},"type":"Feature"},
	{"geometry":{"coordinates":[-0.784103,52.011768],"type":"Point"},"properties":{"amenity":"waste_basket","osm_id":"4935390730","tag":{"waste":"dog_excrement"}},"type":"Feature"},
	{"geometry":{"coordinates":[-0.788994,52.010226],"type":"Point"},"properties":{"amenity":"waste_basket","osm_id":"4935414221","tag":{"waste":"dog_excrement"}},"type":"Feature"},
	{"geometry":{"coordinates":[-0.790444,52.010404],"type":"Point"},"properties":{"amenity":"waste_basket","osm_id":"4962651523","tag":{"waste":"dog_excrement"}},"type":"Feature"},
	{"geometry":{"coordinates":[-0.779274,52.012275],"type":"Point"},"properties":{"amenity":"waste_basket","osm_id":"4962651525","tag":{"waste":"dog_excrement"}},"type":"Feature"},
	{"geometry":{"coordinates":[-0.789515,52.010527],"type":"Point"},"properties":{"amenity":"waste_basket","osm_id":"4962652521"},"type":"Feature"},
	{"geometry":{"coordinates":[-0.708622,52.011374],"type":"Point"},"properties":{"amenity":"waste_basket","osm_id":"7609698197","tag":{"waste":"dog_excrement"}},"type":"Feature"},
	{"geometry":{"coordinates":[-0.767066,52.005952],"type":"Point"},"properties":{"amenity":"waste_basket","osm_id":"7612649887","tag":{"waste":"dog_excrement"}},"type":"Feature"},
	{"geometry":{"coordinates":[-0.763972,52.008257],"type":"Point"},"properties":{"amenity":"waste_basket","osm_id":"7612649888","tag":{"waste":"dog_excrement"}},"type":"Feature"},
	{"geometry":{"coordinates":[-0.772933,52.003038],"type":"Point"},"properties":{"amenity":"waste_basket","osm_id":"7612649892","tag":{"waste":"dog_excrement"}},"type":"Feature"},
	{"geometry":{"coordinates":[-0.761059,52.015263],"type":"Point"},"properties":{"amenity":"waste_basket","osm_id":"7612649894","tag":{"waste":"dog_excrement"}},"type":"Feature"},
	{"geometry":{"coordinates":[-0.770016,52.004017],"type":"Point"},"properties":{"amenity":"waste_basket","osm_id":"7612649897","tag":{"waste":"dog_excrement"}},"type":"Feature"},
	{"geometry":{"coordinates":[-0.761028,52.010854],"type":"Point"},"properties":{"amenity":"waste_basket","osm_id":"7612649898","tag":{"waste":"dog_excrement"}},"type":"Feature"},
	{"geometry":{"coordinates":[-0.763897,52.008529],"type":"Point"},"properties":{"amenity":"waste_basket","osm_id":"7612649900","tag":{"waste":"dog_excrement"}},"type":"Feature"},
	{"geometry":{"coordinates":[-0.760984,52.015272],"type":"Point"},"properties":{"amenity":"waste_basket","osm_id":"7612649908"},"type":"Feature"},
	{"geometry":{"coordinates":[-0.776014,52.001293],"type":"Point"},"properties":{"amenity":"waste_basket","osm_id":"7612649909","tag":{"waste":"dog_excrement"}},"type":"Feature"}
]
}
