{
"type": "FeatureCollection",
"lastupdate": "2020-07-29T00:24:51Z",
"features": [
	{"geometry":{"coordinates":[-0.758327,50.815627],"type":"Point"},"properties":{"amenity":"recycling","osm_id":"277027077"},"type":"Feature"},
	{"geometry":{"coordinates":[-0.790303,50.841869],"type":"Point"},"properties":{"amenity":"recycling","osm_id":"287055515"},"type":"Feature"},
	{"geometry":{"coordinates":[-0.757854,50.843999],"type":"Point"},"properties":{"amenity":"recycling","osm_id":"287055560","tag":{"location":"overground","recycling_type":"container"}},"type":"Feature"},
	{"geometry":{"coordinates":[-0.751888,50.846088],"type":"Point"},"properties":{"amenity":"recycling","osm_id":"287055673","tag":{"recycling_type":"centre"}},"type":"Feature"},
	{"geometry":{"coordinates":[-0.785725,50.832304],"type":"Point"},"properties":{"amenity":"recycling","osm_id":"2511704381","tag":{"location":"overground","recycling_type":"container"}},"type":"Feature"},
	{"geometry":{"coordinates":[-0.778049,50.84086],"type":"Point"},"properties":{"amenity":"waste_basket","osm_id":"5018223549"},"type":"Feature"},
	{"geometry":{"coordinates":[-0.761572,50.833545],"type":"Point"},"properties":{"amenity":"waste_basket","osm_id":"5159772430"},"type":"Feature"},
	{"geometry":{"coordinates":[-0.729996,50.823013],"type":"Point"},"properties":{"amenity":"waste_basket","osm_id":"5159772455"},"type":"Feature"}
]
}
