{
"type": "FeatureCollection",
"lastupdate": "2020-07-24T09:40:17Z",
"features": [
	{"geometry":{"coordinates":[-1.478056,53.805071],"type":"Point"},"properties":{"amenity":"recycling","osm_id":"4465587452","tag":{"recycling_type":"container"}},"type":"Feature"},
	{"geometry":{"coordinates":[-1.460119,53.819776],"type":"Point"},"properties":{"amenity":"waste_basket","osm_id":"6185928523"},"type":"Feature"},
	{"geometry":{"coordinates":[-1.458915,53.819601],"type":"Point"},"properties":{"amenity":"waste_basket","osm_id":"6185928549"},"type":"Feature"},
	{"geometry":{"coordinates":[-1.458935,53.818773],"type":"Point"},"properties":{"amenity":"waste_basket","osm_id":"6185928550"},"type":"Feature"},
	{"geometry":{"coordinates":[-1.459948,53.819016],"type":"Point"},"properties":{"amenity":"waste_basket","osm_id":"6185928551"},"type":"Feature"},
	{"geometry":{"coordinates":[-1.446384,53.806412],"type":"Point"},"properties":{"amenity":"recycling","osm_id":"6206065607","tag":{"recycling:glass":"yes","recycling_type":"container"}},"type":"Feature"},
	{"geometry":{"coordinates":[-1.446383,53.806394],"type":"Point"},"properties":{"amenity":"recycling","osm_id":"6206065608","tag":{"recycling:glass":"yes","recycling_type":"container"}},"type":"Feature"},
	{"geometry":{"coordinates":[-1.446382,53.806375],"type":"Point"},"properties":{"amenity":"recycling","osm_id":"6206065609","tag":{"recycling:glass":"yes","recycling_type":"container"}},"type":"Feature"},
	{"geometry":{"coordinates":[-1.455652,53.806045],"type":"Point"},"properties":{"amenity":"recycling","osm_id":"6218913017","tag":{"recycling:glass_bottles":"yes","recycling:glass_brown":"yes","recycling:glass_clear":"yes","recycling:glass_green":"yes","recycling:glass_jars":"yes","recycling:glass_white":"yes","recycling_type":"container"}},"type":"Feature"},
	{"geometry":{"coordinates":[-1.455628,53.806045],"type":"Point"},"properties":{"amenity":"recycling","osm_id":"6218913018","tag":{"recycling:glass_bottles":"yes","recycling:glass_brown":"yes","recycling:glass_clear":"yes","recycling:glass_green":"yes","recycling:glass_jars":"yes","recycling:glass_white":"yes","recycling_type":"container"}},"type":"Feature"},
	{"geometry":{"coordinates":[-1.459026,53.821769],"type":"Point"},"properties":{"amenity":"recycling","osm_id":"6311830379","tag":{"recycling:clothes":"yes","recycling:glass":"yes","recycling:glass_bottles":"yes","recycling:magazines":"yes","recycling:newspaper":"yes","recycling_type":"container"}},"type":"Feature"},
	{"geometry":{"coordinates":[-1.441895,53.824436],"type":"Point"},"properties":{"amenity":"waste_basket","osm_id":"6484408043"},"type":"Feature"},
	{"geometry":{"coordinates":[-1.45888,53.819135],"type":"Point"},"properties":{"amenity":"waste_basket","osm_id":"7429085378","tag":{"ref:UK:leedscc:bin":"3774"}},"type":"Feature"},
	{"geometry":{"coordinates":[-1.460659,53.819169],"type":"Point"},"properties":{"amenity":"waste_basket","osm_id":"7429087893","tag":{"ref:UK:leedscc:bin":"3772"}},"type":"Feature"},
	{"geometry":{"coordinates":[-1.459621,53.818089],"type":"Point"},"properties":{"amenity":"waste_basket","osm_id":"7429087987","tag":{"ref:UK:leedscc:bin":"3775"}},"type":"Feature"},
	{"geometry":{"coordinates":[-1.442074,53.82342],"type":"Point"},"properties":{"amenity":"waste_basket","osm_id":"7429088069","tag":{"ref:UK:leedscc:bin":"3007"}},"type":"Feature"},
	{"geometry":{"coordinates":[-1.442646,53.823298],"type":"Point"},"properties":{"amenity":"waste_basket","osm_id":"7429088136","tag":{"ref:UK:leedscc:bin":"1702"}},"type":"Feature"},
	{"geometry":{"coordinates":[-1.462403,53.819914],"type":"Point"},"properties":{"amenity":"waste_basket","osm_id":"7429088182","tag":{"ref:UK:leedscc:bin":"4564"}},"type":"Feature"},
	{"geometry":{"coordinates":[-1.442796,53.823004],"type":"Point"},"properties":{"amenity":"waste_basket","osm_id":"7429088235","tag":{"ref:UK:leedscc:bin":"1703"}},"type":"Feature"},
	{"geometry":{"coordinates":[-1.444749,53.824709],"type":"Point"},"properties":{"amenity":"waste_basket","osm_id":"7429088279","tag":{"ref:UK:leedscc:bin":"3004"}},"type":"Feature"},
	{"geometry":{"coordinates":[-1.441881,53.822489],"type":"Point"},"properties":{"amenity":"waste_basket","osm_id":"7429088348","tag":{"ref:UK:leedscc:bin":"3148"}},"type":"Feature"},
	{"geometry":{"coordinates":[-1.44359,53.822722],"type":"Point"},"properties":{"amenity":"waste_basket","osm_id":"7429088360","tag":{"ref:UK:leedscc:bin":"1704"}},"type":"Feature"},
	{"geometry":{"coordinates":[-1.458006,53.816824],"type":"Point"},"properties":{"amenity":"waste_basket","osm_id":"7429088372","tag":{"ref:UK:leedscc:bin":"2927"}},"type":"Feature"},
	{"geometry":{"coordinates":[-1.461367,53.821693],"type":"Point"},"properties":{"amenity":"waste_basket","osm_id":"7429088377","tag":{"ref:UK:leedscc:bin":"4567"}},"type":"Feature"},
	{"geometry":{"coordinates":[-1.445446,53.82462],"type":"Point"},"properties":{"amenity":"waste_basket","osm_id":"7429088391","tag":{"ref:UK:leedscc:bin":"3003"}},"type":"Feature"},
	{"geometry":{"coordinates":[-1.463455,53.820618],"type":"Point"},"properties":{"amenity":"waste_basket","osm_id":"7429088403","tag":{"ref:UK:leedscc:bin":"4565"}},"type":"Feature"},
	{"geometry":{"coordinates":[-1.443791,53.822474],"type":"Point"},"properties":{"amenity":"waste_basket","osm_id":"7429088429","tag":{"ref:UK:leedscc:bin":"1700"}},"type":"Feature"},
	{"geometry":{"coordinates":[-1.443946,53.822377],"type":"Point"},"properties":{"amenity":"waste_basket","osm_id":"7429088472","tag":{"ref:UK:leedscc:bin":"1701"}},"type":"Feature"},
	{"geometry":{"coordinates":[-1.442604,53.82206],"type":"Point"},"properties":{"amenity":"waste_basket","osm_id":"7429088480","tag":{"ref:UK:leedscc:bin":"3147"}},"type":"Feature"},
	{"geometry":{"coordinates":[-1.461006,53.816578],"type":"Point"},"properties":{"amenity":"waste_basket","osm_id":"7429088510","tag":{"ref:UK:leedscc:bin":"2924"}},"type":"Feature"},
	{"geometry":{"coordinates":[-1.460509,53.816208],"type":"Point"},"properties":{"amenity":"waste_basket","osm_id":"7429088552","tag":{"ref:UK:leedscc:bin":"2926"}},"type":"Feature"},
	{"geometry":{"coordinates":[-1.464726,53.819197],"type":"Point"},"properties":{"amenity":"waste_basket","osm_id":"7429088572","tag":{"ref:UK:leedscc:bin":"4566"}},"type":"Feature"},
	{"geometry":{"coordinates":[-1.461916,53.816073],"type":"Point"},"properties":{"amenity":"waste_basket","osm_id":"7429088662","tag":{"ref:UK:leedscc:bin":"2925"}},"type":"Feature"},
	{"geometry":{"coordinates":[-1.459202,53.823153],"type":"Point"},"properties":{"amenity":"waste_basket","osm_id":"7429088702","tag":{"ref:UK:leedscc:bin":"4540"}},"type":"Feature"},
	{"geometry":{"coordinates":[-1.458719,53.823222],"type":"Point"},"properties":{"amenity":"waste_basket","osm_id":"7429088732","tag":{"ref:UK:leedscc:bin":"4541"}},"type":"Feature"},
	{"geometry":{"coordinates":[-1.464437,53.816501],"type":"Point"},"properties":{"amenity":"waste_basket","osm_id":"7429088745","tag":{"ref:UK:leedscc:bin":"2923"}},"type":"Feature"},
	{"geometry":{"coordinates":[-1.460235,53.823457],"type":"Point"},"properties":{"amenity":"waste_basket","osm_id":"7429088750","tag":{"ref:UK:leedscc:bin":"4539"}},"type":"Feature"},
	{"geometry":{"coordinates":[-1.464766,53.81652],"type":"Point"},"properties":{"amenity":"waste_basket","osm_id":"7429088763","tag":{"ref:UK:leedscc:bin":"2922"}},"type":"Feature"},
	{"geometry":{"coordinates":[-1.445191,53.821137],"type":"Point"},"properties":{"amenity":"waste_basket","osm_id":"7429088771","tag":{"ref:UK:leedscc:bin":"3146"}},"type":"Feature"},
	{"geometry":{"coordinates":[-1.452004,53.818981],"type":"Point"},"properties":{"amenity":"waste_basket","osm_id":"7429088818","tag":{"ref:UK:leedscc:bin":"3151"}},"type":"Feature"},
	{"geometry":{"coordinates":[-1.45483,53.815452],"type":"Point"},"properties":{"amenity":"waste_basket","osm_id":"7429088822","tag":{"ref:UK:leedscc:bin":"3785"}},"type":"Feature"},
	{"geometry":{"coordinates":[-1.448948,53.82449],"type":"Point"},"properties":{"amenity":"waste_basket","osm_id":"7429088829","tag":{"ref:UK:leedscc:bin":"3002"}},"type":"Feature"},
	{"geometry":{"coordinates":[-1.457554,53.823774],"type":"Point"},"properties":{"amenity":"waste_basket","osm_id":"7429088847","tag":{"ref:UK:leedscc:bin":"4538"}},"type":"Feature"},
	{"geometry":{"coordinates":[-1.462545,53.823882],"type":"Point"},"properties":{"amenity":"waste_basket","osm_id":"7429088861","tag":{"ref:UK:leedscc:bin":"4542"}},"type":"Feature"},
	{"geometry":{"coordinates":[-1.464119,53.823786],"type":"Point"},"properties":{"amenity":"waste_basket","osm_id":"7429088918","tag":{"ref:UK:leedscc:bin":"2333"}},"type":"Feature"},
	{"geometry":{"coordinates":[-1.44627,53.820267],"type":"Point"},"properties":{"amenity":"waste_basket","osm_id":"7429088973","tag":{"ref:UK:leedscc:bin":"3145"}},"type":"Feature"},
	{"geometry":{"coordinates":[-1.458309,53.81386],"type":"Point"},"properties":{"amenity":"waste_basket","osm_id":"7429088977","tag":{"ref:UK:leedscc:bin":"4563"}},"type":"Feature"},
	{"geometry":{"coordinates":[-1.437922,53.820084],"type":"Point"},"properties":{"amenity":"waste_basket","osm_id":"7429088983","tag":{"ref:UK:leedscc:bin":"3005"}},"type":"Feature"},
	{"geometry":{"coordinates":[-1.464308,53.824087],"type":"Point"},"properties":{"amenity":"waste_basket","osm_id":"7429088987","tag":{"ref:UK:leedscc:bin":"2334"}},"type":"Feature"},
	{"geometry":{"coordinates":[-1.450678,53.817395],"type":"Point"},"properties":{"amenity":"waste_basket","osm_id":"7429089010","tag":{"ref:UK:leedscc:bin":"3150"}},"type":"Feature"},
	{"geometry":{"coordinates":[-1.450597,53.825347],"type":"Point"},"properties":{"amenity":"waste_basket","osm_id":"7429089045","tag":{"ref:UK:leedscc:bin":"2888"}},"type":"Feature"},
	{"geometry":{"coordinates":[-1.449807,53.818267],"type":"Point"},"properties":{"amenity":"waste_basket","osm_id":"7429089086","tag":{"ref:UK:leedscc:bin":"3143"}},"type":"Feature"},
	{"geometry":{"coordinates":[-1.467436,53.823186],"type":"Point"},"properties":{"amenity":"waste_basket","osm_id":"7429089106","tag":{"ref:UK:leedscc:bin":"2332"}},"type":"Feature"},
	{"geometry":{"coordinates":[-1.45017,53.816782],"type":"Point"},"properties":{"amenity":"waste_basket","osm_id":"7429089115","tag":{"ref:UK:leedscc:bin":"3149"}},"type":"Feature"},
	{"geometry":{"coordinates":[-1.456846,53.813268],"type":"Point"},"properties":{"amenity":"waste_basket","osm_id":"7429089137","tag":{"ref:UK:leedscc:bin":"4562"}},"type":"Feature"},
	{"geometry":{"coordinates":[-1.437618,53.819339],"type":"Point"},"properties":{"amenity":"waste_basket","osm_id":"7429089143","tag":{"ref:UK:leedscc:bin":"3006"}},"type":"Feature"},
	{"geometry":{"coordinates":[-1.468731,53.816342],"type":"Point"},"properties":{"amenity":"waste_basket","osm_id":"7429089170","tag":{"ref:UK:leedscc:bin":"1579"}},"type":"Feature"},
	{"geometry":{"coordinates":[-1.469744,53.822253],"type":"Point"},"properties":{"amenity":"waste_basket","osm_id":"7429089235","tag":{"ref:UK:leedscc:bin":"2331"}},"type":"Feature"},
	{"geometry":{"coordinates":[-1.469247,53.816129],"type":"Point"},"properties":{"amenity":"waste_basket","osm_id":"7429089237","tag":{"ref:UK:leedscc:bin":"1578"}},"type":"Feature"},
	{"geometry":{"coordinates":[-1.448349,53.819065],"type":"Point"},"properties":{"amenity":"waste_basket","osm_id":"7429089244","tag":{"ref:UK:leedscc:bin":"3144"}},"type":"Feature"},
	{"geometry":{"coordinates":[-1.452264,53.825817],"type":"Point"},"properties":{"amenity":"waste_basket","osm_id":"7429089248","tag":{"ref:UK:leedscc:bin":"3787"}},"type":"Feature"},
	{"geometry":{"coordinates":[-1.4536,53.825039],"type":"Point"},"properties":{"amenity":"waste_basket","osm_id":"7429089250","tag":{"ref:UK:leedscc:bin":"3788"}},"type":"Feature"},
	{"geometry":{"coordinates":[-1.453893,53.813229],"type":"Point"},"properties":{"amenity":"waste_basket","osm_id":"7429089251","tag":{"ref:UK:leedscc:bin":"837"}},"type":"Feature"},
	{"geometry":{"coordinates":[-1.469746,53.822701],"type":"Point"},"properties":{"amenity":"waste_basket","osm_id":"7429089271","tag":{"ref:UK:leedscc:bin":"4571"}},"type":"Feature"},
	{"geometry":{"coordinates":[-1.467668,53.814479],"type":"Point"},"properties":{"amenity":"waste_basket","osm_id":"7429089280","tag":{"ref:UK:leedscc:bin":"1540"}},"type":"Feature"},
	{"geometry":{"coordinates":[-1.470266,53.822999],"type":"Point"},"properties":{"amenity":"waste_basket","osm_id":"7429089333","tag":{"ref:UK:leedscc:bin":"1574"}},"type":"Feature"},
	{"geometry":{"coordinates":[-1.455658,53.826127],"type":"Point"},"properties":{"amenity":"waste_basket","osm_id":"7429089334","tag":{"ref:UK:leedscc:bin":"1412"}},"type":"Feature"},
	{"geometry":{"coordinates":[-1.470517,53.82279],"type":"Point"},"properties":{"amenity":"waste_basket","osm_id":"7429089340","tag":{"ref:UK:leedscc:bin":"4572"}},"type":"Feature"},
	{"geometry":{"coordinates":[-1.464496,53.812675],"type":"Point"},"properties":{"amenity":"waste_basket","osm_id":"7429089346","tag":{"ref:UK:leedscc:bin":"4570"}},"type":"Feature"},
	{"geometry":{"coordinates":[-1.45307,53.826726],"type":"Point"},"properties":{"amenity":"waste_basket","osm_id":"7429089358","tag":{"ref:UK:leedscc:bin":"2889"}},"type":"Feature"},
	{"geometry":{"coordinates":[-1.46686,53.825927],"type":"Point"},"properties":{"amenity":"waste_basket","osm_id":"7429089414","tag":{"ref:UK:leedscc:bin":"4543"}},"type":"Feature"},
	{"geometry":{"coordinates":[-1.469747,53.824527],"type":"Point"},"properties":{"amenity":"waste_basket","osm_id":"7429089430","tag":{"ref:UK:leedscc:bin":"4558"}},"type":"Feature"},
	{"geometry":{"coordinates":[-1.429549,53.826772],"type":"Point"},"properties":{"amenity":"waste_basket","osm_id":"7429089478","tag":{"ref:UK:leedscc:bin":"3052"}},"type":"Feature"},
	{"geometry":{"coordinates":[-1.4294,53.826713],"type":"Point"},"properties":{"amenity":"waste_basket","osm_id":"7429089479","tag":{"ref:UK:leedscc:bin":"3045"}},"type":"Feature"},
	{"geometry":{"coordinates":[-1.470146,53.824814],"type":"Point"},"properties":{"amenity":"waste_basket","osm_id":"7429089490","tag":{"ref:UK:leedscc:bin":"1573"}},"type":"Feature"},
	{"geometry":{"coordinates":[-1.461457,53.810892],"type":"Point"},"properties":{"amenity":"waste_basket","osm_id":"7429089526","tag":{"ref:UK:leedscc:bin":"4582"}},"type":"Feature"},
	{"geometry":{"coordinates":[-1.427147,53.823943],"type":"Point"},"properties":{"amenity":"waste_basket","osm_id":"7429089560","tag":{"ref:UK:leedscc:bin":"3053"}},"type":"Feature"},
	{"geometry":{"coordinates":[-1.427839,53.824086],"type":"Point"},"properties":{"amenity":"waste_basket","osm_id":"7429089561","tag":{"ref:UK:leedscc:bin":"3046"}},"type":"Feature"},
	{"geometry":{"coordinates":[-1.436036,53.816783],"type":"Point"},"properties":{"amenity":"waste_basket","osm_id":"7429089579","tag":{"ref:UK:leedscc:bin":"184"}},"type":"Feature"},
	{"geometry":{"coordinates":[-1.445972,53.815302],"type":"Point"},"properties":{"amenity":"waste_basket","osm_id":"7429089580","tag":{"ref:UK:leedscc:bin":"183"}},"type":"Feature"},
	{"geometry":{"coordinates":[-1.470756,53.813345],"type":"Point"},"properties":{"amenity":"waste_basket","osm_id":"7429089600","tag":{"ref:UK:leedscc:bin":"4569"}},"type":"Feature"},
	{"geometry":{"coordinates":[-1.435183,53.816818],"type":"Point"},"properties":{"amenity":"waste_basket","osm_id":"7429089610","tag":{"ref:UK:leedscc:bin":"185"}},"type":"Feature"},
	{"geometry":{"coordinates":[-1.468593,53.812011],"type":"Point"},"properties":{"amenity":"waste_basket","osm_id":"7429089623","tag":{"ref:UK:leedscc:bin":"1539"}},"type":"Feature"},
	{"geometry":{"coordinates":[-1.440134,53.815713],"type":"Point"},"properties":{"amenity":"waste_basket","osm_id":"7429089644","tag":{"ref:UK:leedscc:bin":"182"}},"type":"Feature"},
	{"geometry":{"coordinates":[-1.430141,53.829943],"type":"Point"},"properties":{"amenity":"waste_basket","osm_id":"7429089654","tag":{"ref:UK:leedscc:bin":"2682"}},"type":"Feature"},
	{"geometry":{"coordinates":[-1.430357,53.829981],"type":"Point"},"properties":{"amenity":"waste_basket","osm_id":"7429089655","tag":{"ref:UK:leedscc:bin":"2684"}},"type":"Feature"},
	{"geometry":{"coordinates":[-1.491912,53.829871],"type":"Point"},"properties":{"amenity":"waste_basket","osm_id":"7429089657","tag":{"collection_times":"We; Su","ref:UK:leedscc:bin":"3597"}},"type":"Feature"},
	{"geometry":{"coordinates":[-1.463903,53.810376],"type":"Point"},"properties":{"amenity":"waste_basket","osm_id":"7429089663","tag":{"ref:UK:leedscc:bin":"932"}},"type":"Feature"},
	{"geometry":{"coordinates":[-1.469637,53.826884],"type":"Point"},"properties":{"amenity":"waste_basket","osm_id":"7429089686","tag":{"ref:UK:leedscc:bin":"1576"}},"type":"Feature"},
	{"geometry":{"coordinates":[-1.469927,53.8269],"type":"Point"},"properties":{"amenity":"waste_basket","osm_id":"7429089699","tag":{"ref:UK:leedscc:bin":"1575"}},"type":"Feature"},
	{"geometry":{"coordinates":[-1.469561,53.827113],"type":"Point"},"properties":{"amenity":"waste_basket","osm_id":"7429089714","tag":{"ref:UK:leedscc:bin":"276"}},"type":"Feature"},
	{"geometry":{"coordinates":[-1.461226,53.828984],"type":"Point"},"properties":{"amenity":"waste_basket","osm_id":"7429089719","tag":{"ref:UK:leedscc:bin":"4537"}},"type":"Feature"},
	{"geometry":{"coordinates":[-1.474944,53.814723],"type":"Point"},"properties":{"amenity":"waste_basket","osm_id":"7429089801","tag":{"ref:UK:leedscc:bin":"2920"}},"type":"Feature"},
	{"geometry":{"coordinates":[-1.474597,53.814108],"type":"Point"},"properties":{"amenity":"waste_basket","osm_id":"7429089815","tag":{"ref:UK:leedscc:bin":"2919"}},"type":"Feature"},
	{"geometry":{"coordinates":[-1.466167,53.829234],"type":"Point"},"properties":{"amenity":"waste_basket","osm_id":"7429089839","tag":{"ref:UK:leedscc:bin":"4559"}},"type":"Feature"},
	{"geometry":{"coordinates":[-1.424895,53.822951],"type":"Point"},"properties":{"amenity":"waste_basket","osm_id":"7429089846","tag":{"ref:UK:leedscc:bin":"1982"}},"type":"Feature"},
	{"geometry":{"coordinates":[-1.468296,53.82873],"type":"Point"},"properties":{"amenity":"waste_basket","osm_id":"7429089851","tag":{"ref:UK:leedscc:bin":"4544"}},"type":"Feature"},
	{"geometry":{"coordinates":[-1.424722,53.823222],"type":"Point"},"properties":{"amenity":"waste_basket","osm_id":"7429089855","tag":{"ref:UK:leedscc:bin":"1988"}},"type":"Feature"},
	{"geometry":{"coordinates":[-1.453763,53.808973],"type":"Point"},"properties":{"amenity":"waste_basket","osm_id":"7429089862","tag":{"ref:UK:leedscc:bin":"2712"}},"type":"Feature"},
	{"geometry":{"coordinates":[-1.460101,53.80847],"type":"Point"},"properties":{"amenity":"waste_basket","osm_id":"7429089873","tag":{"ref:UK:leedscc:bin":"840"}},"type":"Feature"},
	{"geometry":{"coordinates":[-1.467571,53.809707],"type":"Point"},"properties":{"amenity":"waste_basket","osm_id":"7429089876","tag":{"ref:UK:leedscc:bin":"4581"}},"type":"Feature"},
	{"geometry":{"coordinates":[-1.43791,53.81423],"type":"Point"},"properties":{"amenity":"waste_basket","osm_id":"7429089893","tag":{"ref:UK:leedscc:bin":"2544"}},"type":"Feature"},
	{"geometry":{"coordinates":[-1.472858,53.811745],"type":"Point"},"properties":{"amenity":"waste_basket","osm_id":"7429089897","tag":{"ref:UK:leedscc:bin":"2204"}},"type":"Feature"},
	{"geometry":{"coordinates":[-1.471101,53.810792],"type":"Point"},"properties":{"amenity":"waste_basket","osm_id":"7429089898","tag":{"ref:UK:leedscc:bin":"4580"}},"type":"Feature"},
	{"geometry":{"coordinates":[-1.459379,53.808148],"type":"Point"},"properties":{"amenity":"waste_basket","osm_id":"7429089905","tag":{"ref:UK:leedscc:bin":"850"}},"type":"Feature"},
	{"geometry":{"coordinates":[-1.469246,53.809897],"type":"Point"},"properties":{"amenity":"waste_basket","osm_id":"7429089907","tag":{"ref:UK:leedscc:bin":"1053"}},"type":"Feature"},
	{"geometry":{"coordinates":[-1.453978,53.808488],"type":"Point"},"properties":{"amenity":"waste_basket","osm_id":"7429089913","tag":{"ref:UK:leedscc:bin":"852"}},"type":"Feature"},
	{"geometry":{"coordinates":[-1.461735,53.808199],"type":"Point"},"properties":{"amenity":"waste_basket","osm_id":"7429089916","tag":{"ref:UK:leedscc:bin":"849"}},"type":"Feature"},
	{"geometry":{"coordinates":[-1.464228,53.808519],"type":"Point"},"properties":{"amenity":"waste_basket","osm_id":"7429089919","tag":{"ref:UK:leedscc:bin":"848"}},"type":"Feature"},
	{"geometry":{"coordinates":[-1.488665,53.829578],"type":"Point"},"properties":{"amenity":"waste_basket","osm_id":"7429089932","tag":{"collection_times":"We; Su","ref:UK:leedscc:bin":"3596"}},"type":"Feature"},
	{"geometry":{"coordinates":[-1.474083,53.826847],"type":"Point"},"properties":{"amenity":"waste_basket","osm_id":"7429089940","tag":{"ref:UK:leedscc:bin":"277"}},"type":"Feature"},
	{"geometry":{"coordinates":[-1.424822,53.828762],"type":"Point"},"properties":{"amenity":"waste_basket","osm_id":"7429089955","tag":{"ref:UK:leedscc:bin":"3040"}},"type":"Feature"},
	{"geometry":{"coordinates":[-1.424833,53.828762],"type":"Point"},"properties":{"amenity":"waste_basket","osm_id":"7429089956","tag":{"ref:UK:leedscc:bin":"3047"}},"type":"Feature"},
	{"geometry":{"coordinates":[-1.454188,53.808106],"type":"Point"},"properties":{"amenity":"waste_basket","osm_id":"7429089970","tag":{"ref:UK:leedscc:bin":"4579"}},"type":"Feature"},
	{"geometry":{"coordinates":[-1.459549,53.807615],"type":"Point"},"properties":{"amenity":"waste_basket","osm_id":"7429089987","tag":{"ref:UK:leedscc:bin":"2563"}},"type":"Feature"},
	{"geometry":{"coordinates":[-1.473737,53.827584],"type":"Point"},"properties":{"amenity":"waste_basket","osm_id":"7429089993","tag":{"ref:UK:leedscc:bin":"4548"}},"type":"Feature"},
	{"geometry":{"coordinates":[-1.437748,53.813251],"type":"Point"},"properties":{"amenity":"waste_basket","osm_id":"7429090024","tag":{"ref:UK:leedscc:bin":"2543"}},"type":"Feature"},
	{"geometry":{"coordinates":[-1.466828,53.808285],"type":"Point"},"properties":{"amenity":"waste_basket","osm_id":"7429090027","tag":{"ref:UK:leedscc:bin":"3776"}},"type":"Feature"},
	{"geometry":{"coordinates":[-1.456129,53.832305],"type":"Point"},"properties":{"amenity":"waste_basket","osm_id":"7429090030","tag":{"ref:UK:leedscc:bin":"4607"}},"type":"Feature"},
	{"geometry":{"coordinates":[-1.475628,53.826793],"type":"Point"},"properties":{"amenity":"waste_basket","osm_id":"7429090034","tag":{"ref:UK:leedscc:bin":"4556"}},"type":"Feature"},
	{"geometry":{"coordinates":[-1.479828,53.820604],"type":"Point"},"properties":{"amenity":"waste_basket","osm_id":"7429090048","tag":{"ref:UK:leedscc:bin":"4568"}},"type":"Feature"},
	{"geometry":{"coordinates":[-1.467211,53.808139],"type":"Point"},"properties":{"amenity":"waste_basket","osm_id":"7429090056","tag":{"ref:UK:leedscc:bin":"3777"}},"type":"Feature"},
	{"geometry":{"coordinates":[-1.467555,53.80807],"type":"Point"},"properties":{"amenity":"waste_basket","osm_id":"7429090080","tag":{"ref:UK:leedscc:bin":"3747"}},"type":"Feature"},
	{"geometry":{"coordinates":[-1.452053,53.807604],"type":"Point"},"properties":{"amenity":"waste_basket","osm_id":"7429090083","tag":{"ref:UK:leedscc:bin":"142"}},"type":"Feature"},
	{"geometry":{"coordinates":[-1.473069,53.828879],"type":"Point"},"properties":{"amenity":"waste_basket","osm_id":"7429090084","tag":{"ref:UK:leedscc:bin":"4549"}},"type":"Feature"},
	{"geometry":{"coordinates":[-1.471638,53.829572],"type":"Point"},"properties":{"amenity":"waste_basket","osm_id":"7429090091","tag":{"ref:UK:leedscc:bin":"4545"}},"type":"Feature"},
	{"geometry":{"coordinates":[-1.47652,53.826811],"type":"Point"},"properties":{"amenity":"waste_basket","osm_id":"7429090099","tag":{"ref:UK:leedscc:bin":"4555"}},"type":"Feature"},
	{"geometry":{"coordinates":[-1.46786,53.807897],"type":"Point"},"properties":{"amenity":"waste_basket","osm_id":"7429090108","tag":{"ref:UK:leedscc:bin":"3778"}},"type":"Feature"},
	{"geometry":{"coordinates":[-1.451952,53.807417],"type":"Point"},"properties":{"amenity":"waste_basket","osm_id":"7429090109","tag":{"ref:UK:leedscc:bin":"122"}},"type":"Feature"},
	{"geometry":{"coordinates":[-1.472085,53.809241],"type":"Point"},"properties":{"amenity":"waste_basket","osm_id":"7429090114","tag":{"ref:UK:leedscc:bin":"4588"}},"type":"Feature"},
	{"geometry":{"coordinates":[-1.468077,53.807865],"type":"Point"},"properties":{"amenity":"waste_basket","osm_id":"7429090119","tag":{"ref:UK:leedscc:bin":"3746"}},"type":"Feature"},
	{"geometry":{"coordinates":[-1.486013,53.829222],"type":"Point"},"properties":{"amenity":"waste_basket","osm_id":"7429090123","tag":{"collection_times":"We; Su","ref:UK:leedscc:bin":"3595"}},"type":"Feature"},
	{"geometry":{"coordinates":[-1.422223,53.820805],"type":"Point"},"properties":{"amenity":"waste_basket","osm_id":"7429090127","tag":{"ref:UK:leedscc:bin":"1757"}},"type":"Feature"},
	{"geometry":{"coordinates":[-1.42224,53.820943],"type":"Point"},"properties":{"amenity":"waste_basket","osm_id":"7429090128","tag":{"ref:UK:leedscc:bin":"1764"}},"type":"Feature"},
	{"geometry":{"coordinates":[-1.476886,53.826859],"type":"Point"},"properties":{"amenity":"waste_basket","osm_id":"7429090129","tag":{"ref:UK:leedscc:bin":"278"}},"type":"Feature"},
	{"geometry":{"coordinates":[-1.468093,53.807829],"type":"Point"},"properties":{"amenity":"waste_basket","osm_id":"7429090130","tag":{"ref:UK:leedscc:bin":"3779"}},"type":"Feature"},
	{"geometry":{"coordinates":[-1.47618,53.811457],"type":"Point"},"properties":{"amenity":"waste_basket","osm_id":"7429090133","tag":{"ref:UK:leedscc:bin":"4584"}},"type":"Feature"},
	{"geometry":{"coordinates":[-1.438389,53.812345],"type":"Point"},"properties":{"amenity":"waste_basket","osm_id":"7429090139","tag":{"ref:UK:leedscc:bin":"2542"}},"type":"Feature"},
	{"geometry":{"coordinates":[-1.476999,53.826937],"type":"Point"},"properties":{"amenity":"waste_basket","osm_id":"7429090140","tag":{"ref:UK:leedscc:bin":"279"}},"type":"Feature"},
	{"geometry":{"coordinates":[-1.450763,53.807491],"type":"Point"},"properties":{"amenity":"waste_basket","osm_id":"7429090141","tag":{"ref:UK:leedscc:bin":"123"}},"type":"Feature"},
	{"geometry":{"coordinates":[-1.473427,53.829209],"type":"Point"},"properties":{"amenity":"waste_basket","osm_id":"7429090142","tag":{"ref:UK:leedscc:bin":"4550"}},"type":"Feature"},
	{"geometry":{"coordinates":[-1.456667,53.806561],"type":"Point"},"properties":{"amenity":"waste_basket","osm_id":"7429090144","tag":{"ref:UK:leedscc:bin":"4575"}},"type":"Feature"},
	{"geometry":{"coordinates":[-1.450724,53.807451],"type":"Point"},"properties":{"amenity":"waste_basket","osm_id":"7429090146","tag":{"ref:UK:leedscc:bin":"141"}},"type":"Feature"},
	{"geometry":{"coordinates":[-1.478639,53.813532],"type":"Point"},"properties":{"amenity":"waste_basket","osm_id":"7429090147","tag":{"ref:UK:leedscc:bin":"2918"}},"type":"Feature"},
	{"geometry":{"coordinates":[-1.422754,53.830252],"type":"Point"},"properties":{"amenity":"waste_basket","osm_id":"7429090163","tag":{"ref:UK:leedscc:bin":"2685"}},"type":"Feature"},
	{"geometry":{"coordinates":[-1.423207,53.830151],"type":"Point"},"properties":{"amenity":"waste_basket","osm_id":"7429090164","tag":{"ref:UK:leedscc:bin":"2683"}},"type":"Feature"},
	{"geometry":{"coordinates":[-1.460936,53.806367],"type":"Point"},"properties":{"amenity":"waste_basket","osm_id":"7429090170","tag":{"ref:UK:leedscc:bin":"4573"}},"type":"Feature"},
	{"geometry":{"coordinates":[-1.485519,53.828983],"type":"Point"},"properties":{"amenity":"waste_basket","osm_id":"7429090177","tag":{"collection_times":"We; Su","ref:UK:leedscc:bin":"3593"}},"type":"Feature"},
	{"geometry":{"coordinates":[-1.468952,53.80768],"type":"Point"},"properties":{"amenity":"waste_basket","osm_id":"7429090179","tag":{"ref:UK:leedscc:bin":"3781"}},"type":"Feature"},
	{"geometry":{"coordinates":[-1.486042,53.827888],"type":"Point"},"properties":{"amenity":"waste_basket","osm_id":"7429090180","tag":{"collection_times":"We; Su","ref:UK:leedscc:bin":"113"}},"type":"Feature"},
	{"geometry":{"coordinates":[-1.47908,53.813559],"type":"Point"},"properties":{"amenity":"waste_basket","osm_id":"7429090185","tag":{"ref:UK:leedscc:bin":"2916"}},"type":"Feature"},
	{"geometry":{"coordinates":[-1.485106,53.829082],"type":"Point"},"properties":{"amenity":"waste_basket","osm_id":"7429090188","tag":{"collection_times":"We; Su","ref:UK:leedscc:bin":"3594"}},"type":"Feature"},
	{"geometry":{"coordinates":[-1.450316,53.807293],"type":"Point"},"properties":{"amenity":"waste_basket","osm_id":"7429090190","tag":{"ref:UK:leedscc:bin":"140"}},"type":"Feature"},
	{"geometry":{"coordinates":[-1.452575,53.806695],"type":"Point"},"properties":{"amenity":"waste_basket","osm_id":"7429090200","tag":{"ref:UK:leedscc:bin":"3036"}},"type":"Feature"},
	{"geometry":{"coordinates":[-1.449306,53.807431],"type":"Point"},"properties":{"amenity":"waste_basket","osm_id":"7429090204","tag":{"ref:UK:leedscc:bin":"124"}},"type":"Feature"},
	{"geometry":{"coordinates":[-1.449915,53.807222],"type":"Point"},"properties":{"amenity":"waste_basket","osm_id":"7429090207","tag":{"ref:UK:leedscc:bin":"125"}},"type":"Feature"},
	{"geometry":{"coordinates":[-1.449145,53.8074],"type":"Point"},"properties":{"amenity":"waste_basket","osm_id":"7429090212","tag":{"ref:UK:leedscc:bin":"139"}},"type":"Feature"},
	{"geometry":{"coordinates":[-1.473731,53.82989],"type":"Point"},"properties":{"amenity":"waste_basket","osm_id":"7429090235","tag":{"ref:UK:leedscc:bin":"1577"}},"type":"Feature"},
	{"geometry":{"coordinates":[-1.448342,53.807361],"type":"Point"},"properties":{"amenity":"waste_basket","osm_id":"7429090245","tag":{"ref:UK:leedscc:bin":"126"}},"type":"Feature"},
	{"geometry":{"coordinates":[-1.474919,53.829458],"type":"Point"},"properties":{"amenity":"waste_basket","osm_id":"7429090248","tag":{"ref:UK:leedscc:bin":"4551"}},"type":"Feature"},
	{"geometry":{"coordinates":[-1.487299,53.824049],"type":"Point"},"properties":{"amenity":"waste_basket","osm_id":"7429090249","tag":{"collection_times":"Mo; Th","ref:UK:leedscc:bin":"2311"}},"type":"Feature"},
	{"geometry":{"coordinates":[-1.452015,53.806271],"type":"Point"},"properties":{"amenity":"waste_basket","osm_id":"7429090256","tag":{"ref:UK:leedscc:bin":"3061"}},"type":"Feature"},
	{"geometry":{"coordinates":[-1.459909,53.80562],"type":"Point"},"properties":{"amenity":"waste_basket","osm_id":"7429090258","tag":{"ref:UK:leedscc:bin":"4574"}},"type":"Feature"},
	{"geometry":{"coordinates":[-1.452623,53.806115],"type":"Point"},"properties":{"amenity":"waste_basket","osm_id":"7429090259","tag":{"ref:UK:leedscc:bin":"4578"}},"type":"Feature"},
	{"geometry":{"coordinates":[-1.419452,53.823454],"type":"Point"},"properties":{"amenity":"waste_basket","osm_id":"7429090270","tag":{"ref:UK:leedscc:bin":"1758"}},"type":"Feature"},
	{"geometry":{"coordinates":[-1.447641,53.807246],"type":"Point"},"properties":{"amenity":"waste_basket","osm_id":"7429090275","tag":{"ref:UK:leedscc:bin":"138"}},"type":"Feature"},
	{"geometry":{"coordinates":[-1.486927,53.823757],"type":"Point"},"properties":{"amenity":"waste_basket","osm_id":"7429090285","tag":{"ref:UK:leedscc:bin":"3603"}},"type":"Feature"},
	{"geometry":{"coordinates":[-1.478925,53.827364],"type":"Point"},"properties":{"amenity":"waste_basket","osm_id":"7429090296","tag":{"ref:UK:leedscc:bin":"4554"}},"type":"Feature"},
	{"geometry":{"coordinates":[-1.438757,53.811083],"type":"Point"},"properties":{"amenity":"waste_basket","osm_id":"7429090299","tag":{"ref:UK:leedscc:bin":"2541"}},"type":"Feature"},
	{"geometry":{"coordinates":[-1.44711,53.807222],"type":"Point"},"properties":{"amenity":"waste_basket","osm_id":"7429090302","tag":{"ref:UK:leedscc:bin":"127"}},"type":"Feature"},
	{"geometry":{"coordinates":[-1.45625,53.80529],"type":"Point"},"properties":{"amenity":"waste_basket","osm_id":"7429090312","tag":{"ref:UK:leedscc:bin":"4576"}},"type":"Feature"},
	{"geometry":{"coordinates":[-1.486885,53.823199],"type":"Point"},"properties":{"amenity":"waste_basket","osm_id":"7429090321","tag":{"ref:UK:leedscc:bin":"911"}},"type":"Feature"},
	{"geometry":{"coordinates":[-1.487018,53.823051],"type":"Point"},"properties":{"amenity":"waste_basket","osm_id":"7429090322","tag":{"ref:UK:leedscc:bin":"907"}},"type":"Feature"},
	{"geometry":{"coordinates":[-1.486691,53.823359],"type":"Point"},"properties":{"amenity":"waste_basket","osm_id":"7429090325","tag":{"ref:UK:leedscc:bin":"4561"}},"type":"Feature"},
	{"geometry":{"coordinates":[-1.486521,53.823501],"type":"Point"},"properties":{"amenity":"waste_basket","osm_id":"7429090327","tag":{"ref:UK:leedscc:bin":"4560"}},"type":"Feature"},
	{"geometry":{"coordinates":[-1.47814,53.828431],"type":"Point"},"properties":{"amenity":"waste_basket","osm_id":"7429090330","tag":{"ref:UK:leedscc:bin":"4552"}},"type":"Feature"},
	{"geometry":{"coordinates":[-1.418912,53.822367],"type":"Point"},"properties":{"amenity":"waste_basket","osm_id":"7429090331","tag":{"ref:UK:leedscc:bin":"1765"}},"type":"Feature"},
	{"geometry":{"coordinates":[-1.488051,53.822019],"type":"Point"},"properties":{"amenity":"waste_basket","osm_id":"7429090332","tag":{"ref:UK:leedscc:bin":"908"}},"type":"Feature"},
	{"geometry":{"coordinates":[-1.486325,53.823612],"type":"Point"},"properties":{"amenity":"waste_basket","osm_id":"7429090337","tag":{"ref:UK:leedscc:bin":"910"}},"type":"Feature"},
	{"geometry":{"coordinates":[-1.483019,53.852325],"type":"Point"},"properties":{"amenity":"waste_basket","osm_id":"7429090343","tag":{"ref:UK:leedscc:bin":"4458"}},"type":"Feature"},
	{"geometry":{"coordinates":[-1.480014,53.827083],"type":"Point"},"properties":{"amenity":"waste_basket","osm_id":"7429090350","tag":{"ref:UK:leedscc:bin":"4553"}},"type":"Feature"},
	{"geometry":{"coordinates":[-1.44556,53.807414],"type":"Point"},"properties":{"amenity":"waste_basket","osm_id":"7429090352","tag":{"ref:UK:leedscc:bin":"128"}},"type":"Feature"},
	{"geometry":{"coordinates":[-1.479399,53.811194],"type":"Point"},"properties":{"amenity":"waste_basket","osm_id":"7429090356","tag":{"ref:UK:leedscc:bin":"1054"}},"type":"Feature"},
	{"geometry":{"coordinates":[-1.452532,53.805372],"type":"Point"},"properties":{"amenity":"waste_basket","osm_id":"7429090359","tag":{"ref:UK:leedscc:bin":"3037"}},"type":"Feature"},
	{"geometry":{"coordinates":[-1.492197,53.819043],"type":"Point"},"properties":{"amenity":"waste_basket","osm_id":"7429090374","tag":{"collection_times":"We; Sa","ref:UK:leedscc:bin":"2365"}},"type":"Feature"},
	{"geometry":{"coordinates":[-1.48538,53.824124],"type":"Point"},"properties":{"amenity":"waste_basket","osm_id":"7429090376","tag":{"ref:UK:leedscc:bin":"4557"}},"type":"Feature"},
	{"geometry":{"coordinates":[-1.468,53.833052],"type":"Point"},"properties":{"amenity":"waste_basket","osm_id":"7429090379","tag":{"ref:UK:leedscc:bin":"4546"}},"type":"Feature"},
	{"geometry":{"coordinates":[-1.444963,53.807355],"type":"Point"},"properties":{"amenity":"waste_basket","osm_id":"7429090381","tag":{"ref:UK:leedscc:bin":"137"}},"type":"Feature"},
	{"geometry":{"coordinates":[-1.452468,53.805087],"type":"Point"},"properties":{"amenity":"waste_basket","osm_id":"7429090397","tag":{"ref:UK:leedscc:bin":"4577"}},"type":"Feature"},
	{"geometry":{"coordinates":[-1.444665,53.807251],"type":"Point"},"properties":{"amenity":"waste_basket","osm_id":"7429090402","tag":{"ref:UK:leedscc:bin":"129"}},"type":"Feature"},
	{"geometry":{"coordinates":[-1.48985,53.819844],"type":"Point"},"properties":{"amenity":"waste_basket","osm_id":"7429090407","tag":{"ref:UK:leedscc:bin":"909"}},"type":"Feature"},
	{"geometry":{"coordinates":[-1.491542,53.818762],"type":"Point"},"properties":{"amenity":"waste_basket","osm_id":"7429090425","tag":{"ref:UK:leedscc:bin":"4592"}},"type":"Feature"},
	{"geometry":{"coordinates":[-1.44334,53.807377],"type":"Point"},"properties":{"amenity":"waste_basket","osm_id":"7429090444","tag":{"ref:UK:leedscc:bin":"130"}},"type":"Feature"},
	{"geometry":{"coordinates":[-1.481973,53.827781],"type":"Point"},"properties":{"amenity":"waste_basket","osm_id":"7429090445","tag":{"ref:UK:leedscc:bin":"3602"}},"type":"Feature"},
	{"geometry":{"coordinates":[-1.43933,53.809744],"type":"Point"},"properties":{"amenity":"waste_basket","osm_id":"7429090449","tag":{"ref:UK:leedscc:bin":"2540"}},"type":"Feature"},
	{"geometry":{"coordinates":[-1.443223,53.807347],"type":"Point"},"properties":{"amenity":"waste_basket","osm_id":"7429090453","tag":{"ref:UK:leedscc:bin":"136"}},"type":"Feature"},
	{"geometry":{"coordinates":[-1.489582,53.81931],"type":"Point"},"properties":{"amenity":"waste_basket","osm_id":"7429090470","tag":{"ref:UK:leedscc:bin":"4591"}},"type":"Feature"},
	{"geometry":{"coordinates":[-1.442815,53.807215],"type":"Point"},"properties":{"amenity":"waste_basket","osm_id":"7429090482","tag":{"ref:UK:leedscc:bin":"135"}},"type":"Feature"},
	{"geometry":{"coordinates":[-1.442601,53.807268],"type":"Point"},"properties":{"amenity":"waste_basket","osm_id":"7429090487","tag":{"ref:UK:leedscc:bin":"131"}},"type":"Feature"},
	{"geometry":{"coordinates":[-1.455365,53.837253],"type":"Point"},"properties":{"amenity":"waste_basket","osm_id":"7429090491","tag":{"ref:UK:leedscc:bin":"4610"}},"type":"Feature"},
	{"geometry":{"coordinates":[-1.451612,53.804265],"type":"Point"},"properties":{"amenity":"waste_basket","osm_id":"7429090497","tag":{"ref:UK:leedscc:bin":"3062"}},"type":"Feature"},
	{"geometry":{"coordinates":[-1.455849,53.837141],"type":"Point"},"properties":{"amenity":"waste_basket","osm_id":"7429090498","tag":{"ref:UK:leedscc:bin":"4609"}},"type":"Feature"},
	{"geometry":{"coordinates":[-1.440581,53.808079],"type":"Point"},"properties":{"amenity":"waste_basket","osm_id":"7429090511","tag":{"ref:UK:leedscc:bin":"2539"}},"type":"Feature"},
	{"geometry":{"coordinates":[-1.454902,53.837593],"type":"Point"},"properties":{"amenity":"waste_basket","osm_id":"7429090513","tag":{"ref:UK:leedscc:bin":"4611"}},"type":"Feature"},
	{"geometry":{"coordinates":[-1.474388,53.806377],"type":"Point"},"properties":{"amenity":"waste_basket","osm_id":"7429090516","tag":{"ref:UK:leedscc:bin":"3782"}},"type":"Feature"},
	{"geometry":{"coordinates":[-1.452439,53.803921],"type":"Point"},"properties":{"amenity":"waste_basket","osm_id":"7429090520","tag":{"ref:UK:leedscc:bin":"1162"}},"type":"Feature"},
	{"geometry":{"coordinates":[-1.456055,53.803441],"type":"Point"},"properties":{"amenity":"waste_basket","osm_id":"7429090535","tag":{"ref:UK:leedscc:bin":"1163"}},"type":"Feature"},
	{"geometry":{"coordinates":[-1.47231,53.833486],"type":"Point"},"properties":{"amenity":"waste_basket","osm_id":"7429090540","tag":{"ref:UK:leedscc:bin":"2167"}},"type":"Feature"},
	{"geometry":{"coordinates":[-1.441277,53.807328],"type":"Point"},"properties":{"amenity":"waste_basket","osm_id":"7429090542","tag":{"ref:UK:leedscc:bin":"132"}},"type":"Feature"},
	{"geometry":{"coordinates":[-1.45311,53.803671],"type":"Point"},"properties":{"amenity":"waste_basket","osm_id":"7429090543","tag":{"ref:UK:leedscc:bin":"1164"}},"type":"Feature"},
	{"geometry":{"coordinates":[-1.440759,53.807498],"type":"Point"},"properties":{"amenity":"waste_basket","osm_id":"7429090554","tag":{"ref:UK:leedscc:bin":"133"}},"type":"Feature"},
	{"geometry":{"coordinates":[-1.451955,53.803729],"type":"Point"},"properties":{"amenity":"waste_basket","osm_id":"7429090559","tag":{"ref:UK:leedscc:bin":"4590"}},"type":"Feature"},
	{"geometry":{"coordinates":[-1.440794,53.807414],"type":"Point"},"properties":{"amenity":"waste_basket","osm_id":"7429090563","tag":{"ref:UK:leedscc:bin":"134"}},"type":"Feature"},
	{"geometry":{"coordinates":[-1.461201,53.835524],"type":"Point"},"properties":{"amenity":"waste_basket","osm_id":"7429090583","tag":{"ref:UK:leedscc:bin":"4615"}},"type":"Feature"},
	{"geometry":{"coordinates":[-1.470516,53.83439],"type":"Point"},"properties":{"amenity":"waste_basket","osm_id":"7429090592","tag":{"ref:UK:leedscc:bin":"4547"}},"type":"Feature"},
	{"geometry":{"coordinates":[-1.479023,53.807673],"type":"Point"},"properties":{"amenity":"waste_basket","osm_id":"7429090608","tag":{"ref:UK:leedscc:bin":"4587"}},"type":"Feature"},
	{"geometry":{"coordinates":[-1.461608,53.835754],"type":"Point"},"properties":{"amenity":"waste_basket","osm_id":"7429090611","tag":{"ref:UK:leedscc:bin":"4614"}},"type":"Feature"},
	{"geometry":{"coordinates":[-1.475724,53.805476],"type":"Point"},"properties":{"amenity":"waste_basket","osm_id":"7429090659","tag":{"ref:UK:leedscc:bin":"4583"}},"type":"Feature"},
	{"geometry":{"coordinates":[-1.444986,53.804533],"type":"Point"},"properties":{"amenity":"waste_basket","osm_id":"7429090660","tag":{"ref:UK:leedscc:bin":"1568"}},"type":"Feature"},
	{"geometry":{"coordinates":[-1.491482,53.816075],"type":"Point"},"properties":{"amenity":"waste_basket","osm_id":"7429090676","tag":{"collection_times":"Mo-Fr","ref:UK:leedscc:bin":"2361"}},"type":"Feature"},
	{"geometry":{"coordinates":[-1.491822,53.815702],"type":"Point"},"properties":{"amenity":"waste_basket","osm_id":"7429090694","tag":{"collection_times":"Mo-Fr","ref:UK:leedscc:bin":"4319"}},"type":"Feature"},
	{"geometry":{"coordinates":[-1.485708,53.811177],"type":"Point"},"properties":{"amenity":"waste_basket","osm_id":"7429090707","tag":{"collection_times":"We; Su","ref:UK:leedscc:bin":"3741"}},"type":"Feature"},
	{"geometry":{"coordinates":[-1.45749,53.838932],"type":"Point"},"properties":{"amenity":"waste_basket","osm_id":"7429090713","tag":{"ref:UK:leedscc:bin":"4612"}},"type":"Feature"},
	{"geometry":{"coordinates":[-1.477281,53.804814],"type":"Point"},"properties":{"amenity":"waste_basket","osm_id":"7429090742","tag":{"ref:UK:leedscc:bin":"3744"}},"type":"Feature"},
	{"geometry":{"coordinates":[-1.493678,53.813755],"type":"Point"},"properties":{"amenity":"waste_basket","osm_id":"7429090779","tag":{"collection_times":"We; Su","ref:UK:leedscc:bin":"4317"}},"type":"Feature"},
	{"geometry":{"coordinates":[-1.461527,53.838308],"type":"Point"},"properties":{"amenity":"waste_basket","osm_id":"7429090783","tag":{"ref:UK:leedscc:bin":"4613"}},"type":"Feature"},
	{"geometry":{"coordinates":[-1.44617,53.802332],"type":"Point"},"properties":{"amenity":"waste_basket","osm_id":"7429090786","tag":{"ref:UK:leedscc:bin":"1625"}},"type":"Feature"},
	{"geometry":{"coordinates":[-1.47852,53.804481],"type":"Point"},"properties":{"amenity":"waste_basket","osm_id":"7429090797","tag":{"ref:UK:leedscc:bin":"3745"}},"type":"Feature"},
	{"geometry":{"coordinates":[-1.477463,53.803258],"type":"Point"},"properties":{"amenity":"waste_basket","osm_id":"7429090839","tag":{"ref:UK:leedscc:bin":"4589"}},"type":"Feature"},
	{"geometry":{"coordinates":[-1.490081,53.812014],"type":"Point"},"properties":{"amenity":"waste_basket","osm_id":"7429090854","tag":{"collection_times":"We; Su","ref:UK:leedscc:bin":"2357"}},"type":"Feature"},
	{"geometry":{"coordinates":[-1.490649,53.812705],"type":"Point"},"properties":{"amenity":"waste_basket","osm_id":"7429090861","tag":{"collection_times":"We; Su","ref:UK:leedscc:bin":"2358"}},"type":"Feature"},
	{"geometry":{"coordinates":[-1.489936,53.810239],"type":"Point"},"properties":{"amenity":"waste_basket","osm_id":"7429090901","tag":{"collection_times":"We; Su","ref:UK:leedscc:bin":"738"}},"type":"Feature"},
	{"geometry":{"coordinates":[-1.491645,53.812419],"type":"Point"},"properties":{"amenity":"waste_basket","osm_id":"7429090904","tag":{"collection_times":"We; Su","ref:UK:leedscc:bin":"4318"}},"type":"Feature"},
	{"geometry":{"coordinates":[-1.488596,53.80795],"type":"Point"},"properties":{"amenity":"waste_basket","osm_id":"7429090925","tag":{"collection_times":"We; Su","ref:UK:leedscc:bin":"3739"}},"type":"Feature"},
	{"geometry":{"coordinates":[-1.488964,53.808164],"type":"Point"},"properties":{"amenity":"waste_basket","osm_id":"7429090928","tag":{"collection_times":"We; Su","ref:UK:leedscc:bin":"3740"}},"type":"Feature"},
	{"geometry":{"coordinates":[-1.48012,53.800948],"type":"Point"},"properties":{"amenity":"waste_basket","osm_id":"7429090988","tag":{"ref:UK:leedscc:bin":"941"}},"type":"Feature"},
	{"geometry":{"coordinates":[-1.492864,53.809264],"type":"Point"},"properties":{"amenity":"waste_basket","osm_id":"7429090994","tag":{"collection_times":"Mo-Fr","ref:UK:leedscc:bin":"4306"}},"type":"Feature"},
	{"geometry":{"coordinates":[-1.48836,53.805174],"type":"Point"},"properties":{"amenity":"waste_basket","osm_id":"7429090996","tag":{"collection_times":"We; Su","ref:UK:leedscc:bin":"1101"}},"type":"Feature"},
	{"geometry":{"coordinates":[-1.484866,53.802929],"type":"Point"},"properties":{"amenity":"waste_basket","osm_id":"7429090999","tag":{"collection_times":"We; Su","ref:UK:leedscc:bin":"3751"}},"type":"Feature"},
	{"geometry":{"coordinates":[-1.492897,53.809102],"type":"Point"},"properties":{"amenity":"waste_basket","osm_id":"7429091000","tag":{"collection_times":"Mo-Fr","ref:UK:leedscc:bin":"4307"}},"type":"Feature"},
	{"geometry":{"coordinates":[-1.494095,53.809513],"type":"Point"},"properties":{"amenity":"waste_basket","osm_id":"7429091001","tag":{"collection_times":"We; Su","ref:UK:leedscc:bin":"741"}},"type":"Feature"},
	{"geometry":{"coordinates":[-1.493014,53.808868],"type":"Point"},"properties":{"amenity":"waste_basket","osm_id":"7429091006","tag":{"collection_times":"Mo-Fr","ref:UK:leedscc:bin":"4308"}},"type":"Feature"},
	{"geometry":{"coordinates":[-1.488388,53.804723],"type":"Point"},"properties":{"amenity":"waste_basket","osm_id":"7429091007","tag":{"collection_times":"We; Su","ref:UK:leedscc:bin":"1100"}},"type":"Feature"},
	{"geometry":{"coordinates":[-1.481425,53.800922],"type":"Point"},"properties":{"amenity":"waste_basket","osm_id":"7429091009","tag":{"ref:UK:leedscc:bin":"942"}},"type":"Feature"},
	{"geometry":{"coordinates":[-1.491036,53.806487],"type":"Point"},"properties":{"amenity":"waste_basket","osm_id":"7429091014","tag":{"collection_times":"We; Su","ref:UK:leedscc:bin":"388"}},"type":"Feature"},
	{"geometry":{"coordinates":[-1.493287,53.808695],"type":"Point"},"properties":{"amenity":"waste_basket","osm_id":"7429091015","tag":{"collection_times":"Mo-Fr","ref:UK:leedscc:bin":"737"}},"type":"Feature"},
	{"geometry":{"coordinates":[-1.485925,53.802548],"type":"Point"},"properties":{"amenity":"waste_basket","osm_id":"7429091025","tag":{"collection_times":"We; Su","ref:UK:leedscc:bin":"3752"}},"type":"Feature"},
	{"geometry":{"coordinates":[-1.49396,53.808558],"type":"Point"},"properties":{"amenity":"waste_basket","osm_id":"7429091033","tag":{"collection_times":"Mo-Fr","ref:UK:leedscc:bin":"4309"}},"type":"Feature"},
	{"geometry":{"coordinates":[-1.489182,53.804192],"type":"Point"},"properties":{"amenity":"waste_basket","osm_id":"7429091036","tag":{"collection_times":"We; Su","ref:UK:leedscc:bin":"1099"}},"type":"Feature"},
	{"geometry":{"coordinates":[-1.493618,53.802526],"type":"Point"},"properties":{"amenity":"waste_basket","osm_id":"7429091046","tag":{"collection_times":"We; Su","ref:UK:leedscc:bin":"1097"}},"type":"Feature"},
	{"geometry":{"coordinates":[-1.490175,53.804284],"type":"Point"},"properties":{"amenity":"waste_basket","osm_id":"7429091050","tag":{"collection_times":"We; Su","ref:UK:leedscc:bin":"1098"}},"type":"Feature"},
	{"geometry":{"coordinates":[-1.493354,53.802049],"type":"Point"},"properties":{"amenity":"waste_basket","osm_id":"7429091051","tag":{"collection_times":"Mo-Fr","ref:UK:leedscc:bin":"1096"}},"type":"Feature"},
	{"geometry":{"coordinates":[-1.493216,53.801809],"type":"Point"},"properties":{"amenity":"waste_basket","osm_id":"7429091053","tag":{"collection_times":"Mo-Fr","ref:UK:leedscc:bin":"1095"}},"type":"Feature"},
	{"geometry":{"coordinates":[-1.492438,53.802577],"type":"Point"},"properties":{"amenity":"waste_basket","osm_id":"7429091067","tag":{"collection_times":"We; Su","ref:UK:leedscc:bin":"4325"}},"type":"Feature"},
	{"geometry":{"coordinates":[-1.49199,53.801733],"type":"Point"},"properties":{"amenity":"waste_basket","osm_id":"7429091072","tag":{"collection_times":"We; Su","ref:UK:leedscc:bin":"4326"}},"type":"Feature"},
	{"geometry":{"coordinates":[-1.409419,53.84716],"type":"Point"},"properties":{"amenity":"waste_basket","osm_id":"7429091203","tag":{"ref:UK:leedscc:bin":"4491"}},"type":"Feature"},
	{"geometry":{"coordinates":[-1.408757,53.847524],"type":"Point"},"properties":{"amenity":"waste_basket","osm_id":"7429091216","tag":{"ref:UK:leedscc:bin":"4490"}},"type":"Feature"},
	{"geometry":{"coordinates":[-1.408317,53.847737],"type":"Point"},"properties":{"amenity":"waste_basket","osm_id":"7429091220","tag":{"ref:UK:leedscc:bin":"4489"}},"type":"Feature"},
	{"geometry":{"coordinates":[-1.434634,53.813603],"type":"Point"},"properties":{"amenity":"recycling","osm_id":"7442532271","tag":{"recycling:glass":"yes","recycling:glass_bottles":"yes","recycling:glass_brown":"yes","recycling:glass_clear":"yes","recycling:glass_green":"yes","recycling:glass_jars":"yes","recycling:glass_white":"yes","recycling_type":"container"}},"type":"Feature"},
	{"geometry":{"coordinates":[-1.458863,53.81791],"type":"Point"},"properties":{"amenity":"waste_basket","osm_id":"7511364274"},"type":"Feature"},
	{"geometry":{"coordinates":[-1.459965,53.820029],"type":"Point"},"properties":{"amenity":"recycling","osm_id":"7511364451","tag":{"recycling:glass":"yes","recycling:glass_bottles":"yes","recycling_type":"container"}},"type":"Feature"}
]
}
