{
"type": "FeatureCollection",
"lastupdate": "2020-07-27T00:28:31Z",
"features": [
	{"geometry":{"coordinates":[-2.193256,53.484539],"type":"Point"},"properties":{"amenity":"recycling","osm_id":"307852144"},"type":"Feature"},
	{"geometry":{"coordinates":[-2.189743,53.474607],"type":"Point"},"properties":{"amenity":"recycling","osm_id":"309349351"},"type":"Feature"},
	{"geometry":{"coordinates":[-2.157246,53.484725],"type":"Point"},"properties":{"amenity":"recycling","name":"Droylsden Tip","osm_id":"2093675686","tag":{"addr:city":"Manchester","addr:housename":"Droylsden Recycling Centre","addr:postcode":"M43 6QU","addr:street":"Ash Road","recycling_type":"centre","website":"https://recycleforgreatermanchester.com/recycle-centre/ash-road-recycling-centre/"}},"type":"Feature"},
	{"geometry":{"coordinates":[-2.19645,53.487714],"type":"Point"},"properties":{"amenity":"waste_basket","osm_id":"3065253163"},"type":"Feature"},
	{"geometry":{"coordinates":[-2.195334,53.487586],"type":"Point"},"properties":{"amenity":"waste_basket","osm_id":"3065253164"},"type":"Feature"},
	{"geometry":{"coordinates":[-2.194822,53.487106],"type":"Point"},"properties":{"amenity":"waste_basket","osm_id":"3065253165"},"type":"Feature"},
	{"geometry":{"coordinates":[-2.196064,53.48779],"type":"Point"},"properties":{"amenity":"waste_basket","osm_id":"3065253262"},"type":"Feature"},
	{"geometry":{"coordinates":[-2.196708,53.487305],"type":"Point"},"properties":{"amenity":"waste_basket","osm_id":"3065253554"},"type":"Feature"},
	{"geometry":{"coordinates":[-2.1966,53.486999],"type":"Point"},"properties":{"amenity":"waste_basket","osm_id":"3065262168"},"type":"Feature"},
	{"geometry":{"coordinates":[-2.197103,53.486817],"type":"Point"},"properties":{"amenity":"waste_basket","osm_id":"3065268133"},"type":"Feature"},
	{"geometry":{"coordinates":[-2.112448,53.445699],"type":"Point"},"properties":{"amenity":"recycling","osm_id":"3743418372"},"type":"Feature"},
	{"geometry":{"coordinates":[-2.18513,53.448765],"type":"Point"},"properties":{"amenity":"recycling","osm_id":"4682122816","tag":{"recycling:shoes":"yes","recycling:textiles":"yes","recycling_type":"container"}},"type":"Feature"},
	{"geometry":{"coordinates":[-2.157409,53.443159],"type":"Point"},"properties":{"amenity":"waste_basket","osm_id":"4721883366"},"type":"Feature"},
	{"geometry":{"coordinates":[-2.191795,53.444681],"type":"Point"},"properties":{"amenity":"waste_basket","osm_id":"6747146494","tag":{"material":"metal"}},"type":"Feature"},
	{"geometry":{"coordinates":[-2.19178,53.444725],"type":"Point"},"properties":{"amenity":"waste_basket","osm_id":"6747146495","tag":{"material":"metal"}},"type":"Feature"}
]
}
