{
"type": "FeatureCollection",
"lastupdate": "2020-07-31T01:06:47Z",
"features": [
	{"geometry":{"coordinates":[-2.125237,52.82998],"type":"Point"},"properties":{"amenity":"waste_basket","highway":"bus_stop","name":"Parkside Primary School","osm_id":"533880434","tag":{"naptan:AtcoCode":"3800C711000","naptan:Bearing":"W","naptan:CommonName":"Parkside Primary School","naptan:Indicator":"Adj","naptan:Landmark":"Parkside Primary Sch","naptan:PlusbusZoneRef":"STAFFRD","naptan:Street":"Parkside Avenue","naptan:verified":"yes","shelter":"yes"}},"type":"Feature"},
	{"geometry":{"coordinates":[-2.118993,52.81198],"type":"Point"},"properties":{"amenity":"waste_basket","highway":"bus_stop","name":"Sash Street","osm_id":"533881487","tag":{"naptan:AtcoCode":"3800C739301","naptan:Bearing":"N","naptan:CommonName":"Sash Street","naptan:Indicator":"Adj","naptan:Landmark":"Sash Street","naptan:PlusbusZoneRef":"STAFFRD","naptan:Street":"Gaol Rd","naptan:verified":"yes"}},"type":"Feature"},
	{"geometry":{"coordinates":[-2.112211,52.821488],"type":"Point"},"properties":{"amenity":"waste_basket","osm_id":"701735713"},"type":"Feature"},
	{"geometry":{"coordinates":[-2.113904,52.818282],"type":"Point"},"properties":{"amenity":"waste_basket","osm_id":"701735715","tag":{"waste":"dog_excrement"}},"type":"Feature"},
	{"geometry":{"coordinates":[-2.116249,52.821729],"type":"Point"},"properties":{"amenity":"waste_basket","osm_id":"740412297"},"type":"Feature"},
	{"geometry":{"coordinates":[-2.126753,52.821146],"type":"Point"},"properties":{"amenity":"recycling","osm_id":"1521641195","tag":{"recycling:clothes":"yes"}},"type":"Feature"},
	{"geometry":{"coordinates":[-2.113911,52.818253],"type":"Point"},"properties":{"amenity":"waste_basket","osm_id":"4614017532"},"type":"Feature"},
	{"geometry":{"coordinates":[-2.120548,52.803979],"type":"Point"},"properties":{"amenity":"waste_basket","osm_id":"5314788906"},"type":"Feature"},
	{"geometry":{"coordinates":[-2.121406,52.803889],"type":"Point"},"properties":{"amenity":"waste_basket","osm_id":"5314788911"},"type":"Feature"},
	{"geometry":{"coordinates":[-2.121896,52.804456],"type":"Point"},"properties":{"amenity":"waste_basket","osm_id":"5314788914"},"type":"Feature"},
	{"geometry":{"coordinates":[-2.120464,52.804434],"type":"Point"},"properties":{"amenity":"waste_basket","osm_id":"5314788915"},"type":"Feature"},
	{"geometry":{"coordinates":[-2.120758,52.804684],"type":"Point"},"properties":{"amenity":"waste_basket","osm_id":"5314788916"},"type":"Feature"},
	{"geometry":{"coordinates":[-2.16296,52.803771],"type":"Point"},"properties":{"amenity":"waste_basket","osm_id":"6365557446","tag":{"waste":"dog_excrement"}},"type":"Feature"},
	{"geometry":{"coordinates":[-2.118638,52.81127],"type":"Point"},"properties":{"amenity":"waste_basket","osm_id":"6595967982","tag":{"waste":"trash"}},"type":"Feature"}
]
}
