{
"type": "FeatureCollection",
"lastupdate": "2020-07-30T00:29:16Z",
"features": [
	{"geometry":{"coordinates":[-2.115656,51.866423],"type":"Point"},"properties":{"amenity":"recycling","osm_id":"331970226"},"type":"Feature"},
	{"geometry":{"coordinates":[-2.173815,51.847917],"type":"Point"},"properties":{"amenity":"recycling","osm_id":"550876736","tag":{"operator":"Tesco"}},"type":"Feature"},
	{"geometry":{"coordinates":[-2.167424,51.876685],"type":"Point"},"properties":{"amenity":"recycling","osm_id":"1685973530"},"type":"Feature"},
	{"geometry":{"coordinates":[-2.192706,51.885395],"type":"Point"},"properties":{"amenity":"waste_basket","barrier":"cycle_barrier","osm_id":"2427063688"},"type":"Feature"},
	{"geometry":{"coordinates":[-2.191606,51.884578],"type":"Point"},"properties":{"amenity":"waste_basket","osm_id":"2467710733"},"type":"Feature"},
	{"geometry":{"coordinates":[-2.186709,51.887876],"type":"Point"},"properties":{"amenity":"waste_basket","osm_id":"2467719037"},"type":"Feature"},
	{"geometry":{"coordinates":[-2.185438,51.888707],"type":"Point"},"properties":{"amenity":"waste_basket","osm_id":"2467720751"},"type":"Feature"},
	{"geometry":{"coordinates":[-2.185915,51.888146],"type":"Point"},"properties":{"amenity":"waste_basket","osm_id":"2467722991"},"type":"Feature"},
	{"geometry":{"coordinates":[-2.115774,51.864802],"type":"Point"},"properties":{"amenity":"waste_basket","osm_id":"4368470765"},"type":"Feature"},
	{"geometry":{"coordinates":[-2.112795,51.881972],"type":"Point"},"properties":{"amenity":"waste_basket","osm_id":"6594652705","tag":{"waste":"trash"}},"type":"Feature"},
	{"geometry":{"coordinates":[-2.110069,51.887829],"type":"Point"},"properties":{"amenity":"waste_basket","osm_id":"6594653179","tag":{"waste":"trash"}},"type":"Feature"},
	{"geometry":{"coordinates":[-2.119609,51.889362],"type":"Point"},"properties":{"amenity":"waste_basket","osm_id":"6594653221","tag":{"waste":"trash"}},"type":"Feature"},
	{"geometry":{"coordinates":[-2.125008,51.889118],"type":"Point"},"properties":{"amenity":"waste_basket","osm_id":"6594653244","tag":{"waste":"trash"}},"type":"Feature"},
	{"geometry":{"coordinates":[-2.132829,51.885609],"type":"Point"},"properties":{"amenity":"waste_basket","osm_id":"6594653786","tag":{"waste":"dog_excrement"}},"type":"Feature"}
]
}
