{
"type": "FeatureCollection",
"lastupdate": "2020-07-24T00:48:03Z",
"features": [
	{"geometry":{"coordinates":[-1.815701,54.976512],"type":"Point"},"properties":{"amenity":"recycling","osm_id":"738544107","tag":{"recycling:glass":"yes","recycling:glass_bottles":"yes","recycling_type":"container"}},"type":"Feature"},
	{"geometry":{"coordinates":[-1.791515,54.966397],"type":"Point"},"properties":{"amenity":"waste_basket","osm_id":"3033267430"},"type":"Feature"},
	{"geometry":{"coordinates":[-1.782144,54.936032],"type":"Point"},"properties":{"amenity":"waste_basket","osm_id":"4463497161"},"type":"Feature"},
	{"geometry":{"coordinates":[-1.762419,54.972527],"type":"Point"},"properties":{"amenity":"waste_basket","osm_id":"4466337620"},"type":"Feature"},
	{"geometry":{"coordinates":[-1.758708,54.972518],"type":"Point"},"properties":{"amenity":"recycling","osm_id":"4466337674"},"type":"Feature"},
	{"geometry":{"coordinates":[-1.776439,54.969568],"type":"Point"},"properties":{"amenity":"recycling","osm_id":"4466441984"},"type":"Feature"},
	{"geometry":{"coordinates":[-1.763906,54.972786],"type":"Point"},"properties":{"amenity":"recycling","osm_id":"4466442656"},"type":"Feature"},
	{"geometry":{"coordinates":[-1.788084,54.966912],"type":"Point"},"properties":{"amenity":"recycling","osm_id":"4466483007","tag":{"recycling:glass":"yes","recycling:paper":"yes","recycling:plastic":"yes","recycling_type":"container"}},"type":"Feature"},
	{"geometry":{"coordinates":[-1.786998,54.967219],"type":"Point"},"properties":{"amenity":"waste_basket","osm_id":"4466483039"},"type":"Feature"},
	{"geometry":{"coordinates":[-1.785751,54.967531],"type":"Point"},"properties":{"amenity":"waste_basket","osm_id":"4466503026"},"type":"Feature"},
	{"geometry":{"coordinates":[-1.79111,54.966292],"type":"Point"},"properties":{"amenity":"waste_basket","osm_id":"4467646481"},"type":"Feature"},
	{"geometry":{"coordinates":[-1.791141,54.966241],"type":"Point"},"properties":{"amenity":"waste_basket","osm_id":"4467646482"},"type":"Feature"},
	{"geometry":{"coordinates":[-1.788653,54.966688],"type":"Point"},"properties":{"amenity":"waste_basket","osm_id":"4467705464"},"type":"Feature"},
	{"geometry":{"coordinates":[-1.773428,54.958479],"type":"Point"},"properties":{"amenity":"waste_basket","osm_id":"4467762708"},"type":"Feature"},
	{"geometry":{"coordinates":[-1.839123,54.959179],"type":"Point"},"properties":{"amenity":"waste_basket","osm_id":"6376945600","tag":{"waste":"dog_excrement"}},"type":"Feature"},
	{"geometry":{"coordinates":[-1.82415,54.974948],"type":"Point"},"properties":{"amenity":"waste_basket","osm_id":"6770483893"},"type":"Feature"},
	{"geometry":{"coordinates":[-1.824819,54.977512],"type":"Point"},"properties":{"amenity":"waste_basket","osm_id":"6771258170"},"type":"Feature"},
	{"geometry":{"coordinates":[-1.822084,54.976647],"type":"Point"},"properties":{"amenity":"waste_basket","osm_id":"6772804033"},"type":"Feature"},
	{"geometry":{"coordinates":[-1.822935,54.976359],"type":"Point"},"properties":{"amenity":"waste_basket","osm_id":"6773663611"},"type":"Feature"},
	{"geometry":{"coordinates":[-1.823201,54.976291],"type":"Point"},"properties":{"amenity":"waste_basket","osm_id":"6773668592"},"type":"Feature"}
]
}
