{
"type": "FeatureCollection",
"lastupdate": "2020-07-27T00:28:31Z",
"features": [
	{"geometry":{"coordinates":[-4.501241,54.151217],"type":"Point"},"properties":{"amenity":"recycling","osm_id":"283485770"},"type":"Feature"},
	{"geometry":{"coordinates":[-4.510109,54.152797],"type":"Point"},"properties":{"amenity":"waste_basket","highway":"bus_stop","name":"bin","osm_id":"1830297879","tag":{"shelter":"yes"}},"type":"Feature"},
	{"geometry":{"coordinates":[-4.485485,54.147954],"type":"Point"},"properties":{"amenity":"waste_basket","osm_id":"4144258862"},"type":"Feature"},
	{"geometry":{"coordinates":[-4.485493,54.14809],"type":"Point"},"properties":{"amenity":"waste_basket","osm_id":"4144258901"},"type":"Feature"},
	{"geometry":{"coordinates":[-4.485737,54.153976],"type":"Point"},"properties":{"amenity":"waste_basket","name":"litter bin","osm_id":"4333828717"},"type":"Feature"},
	{"geometry":{"coordinates":[-4.488994,54.151529],"type":"Point"},"properties":{"amenity":"waste_basket","name":"litter bin","osm_id":"4333828718"},"type":"Feature"},
	{"geometry":{"coordinates":[-4.48731,54.152079],"type":"Point"},"properties":{"amenity":"waste_basket","name":"litter bin","osm_id":"4333929341"},"type":"Feature"},
	{"geometry":{"coordinates":[-4.484422,54.150307],"type":"Point"},"properties":{"amenity":"waste_basket","osm_id":"4333930356"},"type":"Feature"},
	{"geometry":{"coordinates":[-4.518799,54.155671],"type":"Point"},"properties":{"amenity":"waste_basket","name":"bin 240l","osm_id":"4391474638"},"type":"Feature"},
	{"geometry":{"coordinates":[-4.519309,54.156084],"type":"Point"},"properties":{"amenity":"waste_basket","name":"bin 240l","osm_id":"4391474639"},"type":"Feature"},
	{"geometry":{"coordinates":[-4.49129,54.157722],"type":"Point"},"properties":{"amenity":"waste_basket","name":"Bin","osm_id":"4391516609"},"type":"Feature"},
	{"geometry":{"coordinates":[-4.489258,54.15847],"type":"Point"},"properties":{"amenity":"waste_basket","name":"bin","osm_id":"4391516610"},"type":"Feature"},
	{"geometry":{"coordinates":[-4.489836,54.156017],"type":"Point"},"properties":{"amenity":"waste_basket","name":"bin","osm_id":"4391516611"},"type":"Feature"},
	{"geometry":{"coordinates":[-4.494021,54.156906],"type":"Point"},"properties":{"amenity":"waste_basket","name":"bin","osm_id":"4391516612"},"type":"Feature"},
	{"geometry":{"coordinates":[-4.492182,54.156123],"type":"Point"},"properties":{"amenity":"waste_basket","name":"bin","osm_id":"4391516613"},"type":"Feature"},
	{"geometry":{"coordinates":[-4.491686,54.155918],"type":"Point"},"properties":{"amenity":"waste_basket","name":"bin","osm_id":"4391516614"},"type":"Feature"},
	{"geometry":{"coordinates":[-4.489323,54.156243],"type":"Point"},"properties":{"amenity":"waste_basket","name":"bin","osm_id":"4391516615"},"type":"Feature"},
	{"geometry":{"coordinates":[-4.499794,54.156763],"type":"Point"},"properties":{"amenity":"waste_basket","name":"bin","osm_id":"4391516616"},"type":"Feature"},
	{"geometry":{"coordinates":[-4.493593,54.159813],"type":"Point"},"properties":{"amenity":"waste_basket","name":"bin","osm_id":"4391516617"},"type":"Feature"},
	{"geometry":{"coordinates":[-4.524584,54.148018],"type":"Point"},"properties":{"amenity":"waste_basket","name":"bin","osm_id":"4391522703"},"type":"Feature"},
	{"geometry":{"coordinates":[-4.523717,54.14761],"type":"Point"},"properties":{"amenity":"waste_basket","name":"bin","osm_id":"4391522704"},"type":"Feature"},
	{"geometry":{"coordinates":[-4.52154,54.150132],"type":"Point"},"properties":{"amenity":"waste_basket","name":"bin","osm_id":"4391522705"},"type":"Feature"},
	{"geometry":{"coordinates":[-4.520025,54.151199],"type":"Point"},"properties":{"amenity":"waste_basket","name":"bin","osm_id":"4391522706"},"type":"Feature"},
	{"geometry":{"coordinates":[-4.520464,54.151089],"type":"Point"},"properties":{"amenity":"waste_basket","name":"bin","osm_id":"4391522707"},"type":"Feature"},
	{"geometry":{"coordinates":[-4.520805,54.15067],"type":"Point"},"properties":{"amenity":"waste_basket","name":"bin","osm_id":"4391522708"},"type":"Feature"},
	{"geometry":{"coordinates":[-4.518194,54.150757],"type":"Point"},"properties":{"amenity":"waste_basket","name":"bin","osm_id":"4391522709"},"type":"Feature"},
	{"geometry":{"coordinates":[-4.518068,54.150715],"type":"Point"},"properties":{"amenity":"waste_basket","name":"bin","osm_id":"4391522710"},"type":"Feature"},
	{"geometry":{"coordinates":[-4.518963,54.14793],"type":"Point"},"properties":{"amenity":"waste_basket","name":"bin","osm_id":"4391530196"},"type":"Feature"},
	{"geometry":{"coordinates":[-4.51722,54.149125],"type":"Point"},"properties":{"amenity":"waste_basket","name":"bin","osm_id":"4391530197"},"type":"Feature"},
	{"geometry":{"coordinates":[-4.51797,54.148447],"type":"Point"},"properties":{"amenity":"waste_basket","name":"bin","osm_id":"4391530198"},"type":"Feature"}
]
}
