{
"type": "FeatureCollection",
"lastupdate": "2020-07-31T01:06:47Z",
"features": [
	{"geometry":{"coordinates":[-1.918827,52.474663],"type":"Point"},"properties":{"amenity":"recycling","osm_id":"245561232"},"type":"Feature"},
	{"geometry":{"coordinates":[-1.869217,52.434287],"type":"Point"},"properties":{"amenity":"recycling","osm_id":"257846775"},"type":"Feature"},
	{"geometry":{"coordinates":[-1.911388,52.445819],"type":"Point"},"properties":{"amenity":"waste_basket","osm_id":"278003962"},"type":"Feature"},
	{"geometry":{"coordinates":[-1.923198,52.430777],"type":"Point"},"properties":{"amenity":"recycling","osm_id":"297977154","tag":{"location":"overground","recycling:batteries":"no","recycling:clothes":"yes","recycling:glass":"yes","recycling_type":"container"}},"type":"Feature"},
	{"geometry":{"coordinates":[-1.912509,52.44801],"type":"Point"},"properties":{"amenity":"recycling","osm_id":"324425663"},"type":"Feature"},
	{"geometry":{"coordinates":[-1.915878,52.432983],"type":"Point"},"properties":{"amenity":"waste_basket","osm_id":"417727550"},"type":"Feature"},
	{"geometry":{"coordinates":[-1.917025,52.435819],"type":"Point"},"properties":{"amenity":"recycling","osm_id":"419309952","tag":{"recycling:cans":"no","recycling:clothes":"yes","recycling:glass":"yes","recycling:paper":"yes"}},"type":"Feature"},
	{"geometry":{"coordinates":[-1.875149,52.463101],"type":"Point"},"properties":{"amenity":"recycling","osm_id":"419923332","tag":{"recycling:glass":"yes"}},"type":"Feature"},
	{"geometry":{"coordinates":[-1.927026,52.438769],"type":"Point"},"properties":{"amenity":"recycling","osm_id":"472754481","tag":{"recycling:clothes":"yes","recycling:glass":"yes","recycling:paper":"yes"}},"type":"Feature"},
	{"geometry":{"coordinates":[-1.854627,52.443336],"type":"Point"},"properties":{"amenity":"recycling","osm_id":"475592048"},"type":"Feature"},
	{"geometry":{"coordinates":[-1.905474,52.457378],"type":"Point"},"properties":{"amenity":"recycling","osm_id":"502552057","tag":{"recycling:clothes":"yes","recycling:glass":"yes","recycling:paper":"yes"}},"type":"Feature"},
	{"geometry":{"coordinates":[-1.914665,52.431019],"type":"Point"},"properties":{"amenity":"waste_basket","osm_id":"550647312"},"type":"Feature"},
	{"geometry":{"coordinates":[-1.900476,52.433238],"type":"Point"},"properties":{"amenity":"recycling","osm_id":"550647364","tag":{"recycling:clothes":"yes"}},"type":"Feature"},
	{"geometry":{"coordinates":[-1.928439,52.437727],"type":"Point"},"properties":{"amenity":"waste_basket","osm_id":"564725636"},"type":"Feature"},
	{"geometry":{"coordinates":[-1.919654,52.431325],"type":"Point"},"properties":{"amenity":"waste_basket","osm_id":"564737038"},"type":"Feature"},
	{"geometry":{"coordinates":[-1.917553,52.429625],"type":"Point"},"properties":{"amenity":"waste_basket","osm_id":"760735847"},"type":"Feature"},
	{"geometry":{"coordinates":[-1.855575,52.44936],"type":"Point"},"properties":{"amenity":"waste_basket","osm_id":"1574405709"},"type":"Feature"},
	{"geometry":{"coordinates":[-1.855983,52.449556],"type":"Point"},"properties":{"amenity":"waste_basket","osm_id":"1574405733"},"type":"Feature"},
	{"geometry":{"coordinates":[-1.907848,52.479609],"type":"Point"},"properties":{"amenity":"waste_basket","osm_id":"2453051032"},"type":"Feature"},
	{"geometry":{"coordinates":[-1.854277,52.443347],"type":"Point"},"properties":{"amenity":"waste_basket","osm_id":"2459837204"},"type":"Feature"},
	{"geometry":{"coordinates":[-1.853528,52.452729],"type":"Point"},"properties":{"amenity":"recycling","osm_id":"2459837217","tag":{"recycling:clothes":"yes","recycling:glass":"yes"}},"type":"Feature"},
	{"geometry":{"coordinates":[-1.902525,52.479577],"type":"Point"},"properties":{"amenity":"waste_basket","osm_id":"2460819491"},"type":"Feature"},
	{"geometry":{"coordinates":[-1.847594,52.435208],"type":"Point"},"properties":{"amenity":"recycling","osm_id":"2460831387","tag":{"recycling:clothes":"yes","recycling:glass":"yes","recycling:shoes":"yes","recycling_type":"container"}},"type":"Feature"},
	{"geometry":{"coordinates":[-1.847373,52.435259],"type":"Point"},"properties":{"amenity":"recycling","osm_id":"2460831398","tag":{"recycling:paper":"yes","recycling_type":"container"}},"type":"Feature"},
	{"geometry":{"coordinates":[-1.87189,52.463373],"type":"Point"},"properties":{"amenity":"waste_basket","osm_id":"2467445871"},"type":"Feature"},
	{"geometry":{"coordinates":[-1.915448,52.477129],"type":"Point"},"properties":{"amenity":"waste_basket","osm_id":"3858790403"},"type":"Feature"},
	{"geometry":{"coordinates":[-1.926664,52.4742],"type":"Point"},"properties":{"amenity":"waste_basket","osm_id":"4231803983"},"type":"Feature"},
	{"geometry":{"coordinates":[-1.926599,52.474173],"type":"Point"},"properties":{"amenity":"waste_basket","osm_id":"4231803984","tag":{"waste":"dog_excrement"}},"type":"Feature"},
	{"geometry":{"coordinates":[-1.900785,52.433579],"type":"Point"},"properties":{"amenity":"recycling","osm_id":"4843526964","tag":{"recycling:clothes":"yes","recycling_type":"container"}},"type":"Feature"},
	{"geometry":{"coordinates":[-1.933504,52.447077],"type":"Point"},"properties":{"amenity":"waste_basket","osm_id":"5323949739"},"type":"Feature"},
	{"geometry":{"coordinates":[-1.932561,52.443035],"type":"Point"},"properties":{"amenity":"recycling","osm_id":"5331479813","tag":{"recycling:clothes":"yes","recycling:shoes":"yes","recycling_type":"container"}},"type":"Feature"},
	{"geometry":{"coordinates":[-1.931562,52.441795],"type":"Point"},"properties":{"amenity":"recycling","osm_id":"5331479814","tag":{"recycling:cans":"yes","recycling:glass":"yes","recycling_type":"container"}},"type":"Feature"},
	{"geometry":{"coordinates":[-1.912575,52.435991],"type":"Point"},"properties":{"amenity":"waste_basket","osm_id":"6150552576"},"type":"Feature"},
	{"geometry":{"coordinates":[-1.911775,52.440203],"type":"Point"},"properties":{"amenity":"waste_basket","osm_id":"6150552580","tag":{"waste":"dog_excrement"}},"type":"Feature"},
	{"geometry":{"coordinates":[-1.91203,52.442608],"type":"Point"},"properties":{"amenity":"waste_basket","osm_id":"6150552584","tag":{"waste":"dog_excrement"}},"type":"Feature"},
	{"geometry":{"coordinates":[-1.912342,52.444686],"type":"Point"},"properties":{"amenity":"waste_basket","osm_id":"6150553888","tag":{"waste":"dog_excrement"}},"type":"Feature"},
	{"geometry":{"coordinates":[-1.910299,52.446968],"type":"Point"},"properties":{"amenity":"waste_basket","osm_id":"6150553890","tag":{"waste":"dog_excrement"}},"type":"Feature"},
	{"geometry":{"coordinates":[-1.931484,52.429589],"type":"Point"},"properties":{"amenity":"waste_basket","osm_id":"6714966413","tag":{"waste":"trash"}},"type":"Feature"},
	{"geometry":{"coordinates":[-1.893787,52.476858],"type":"Point"},"properties":{"amenity":"waste_basket","osm_id":"7279785465"},"type":"Feature"}
]
}
