{
"type": "FeatureCollection",
"lastupdate": "2020-07-27T00:28:31Z",
"features": [
	{"geometry":{"coordinates":[-1.902552,50.723901],"type":"Point"},"properties":{"amenity":"recycling","name":"Milburn Road Recycling Centre","osm_id":"768691494","tag":{"location":"overground","recycling:cans":"yes","recycling:clothes":"yes","recycling:foil":"yes","recycling:glass_bottles":"yes","recycling:paper":"yes","recycling:plastic_bottles":"yes","recycling_type":"container"}},"type":"Feature"},
	{"geometry":{"coordinates":[-1.894232,50.72229],"type":"Point"},"properties":{"amenity":"recycling","osm_id":"789402835","tag":{"location":"overground","recycling_type":"container"}},"type":"Feature"},
	{"geometry":{"coordinates":[-1.879383,50.719626],"type":"Point"},"properties":{"amenity":"waste_basket","osm_id":"1453449370"},"type":"Feature"},
	{"geometry":{"coordinates":[-1.932628,50.726292],"type":"Point"},"properties":{"amenity":"waste_basket","osm_id":"4093167565"},"type":"Feature"},
	{"geometry":{"coordinates":[-1.894945,50.715297],"type":"Point"},"properties":{"amenity":"waste_basket","name":"Bin","osm_id":"6423299928"},"type":"Feature"},
	{"geometry":{"coordinates":[-1.900252,50.722493],"type":"Point"},"properties":{"amenity":"waste_basket","name":"Bin","osm_id":"6423340072"},"type":"Feature"},
	{"geometry":{"coordinates":[-1.899911,50.722339],"type":"Point"},"properties":{"amenity":"waste_basket","name":"Bin","osm_id":"6423360189"},"type":"Feature"},
	{"geometry":{"coordinates":[-1.902655,50.722048],"type":"Point"},"properties":{"amenity":"waste_basket","name":"Bin","osm_id":"6423360190"},"type":"Feature"},
	{"geometry":{"coordinates":[-1.902628,50.722099],"type":"Point"},"properties":{"amenity":"waste_basket","name":"Bin","osm_id":"6423360191"},"type":"Feature"},
	{"geometry":{"coordinates":[-1.898796,50.710712],"type":"Point"},"properties":{"amenity":"waste_basket","osm_id":"7397453176"},"type":"Feature"}
]
}
