{
"type": "FeatureCollection",
"lastupdate": "2020-07-30T00:29:16Z",
"features": [
	{"geometry":{"coordinates":[-1.446046,54.971735],"type":"Point"},"properties":{"amenity":"recycling","name":"Middlefields Recycling Village","osm_id":"1347773590","tag":{"designation":"middlefields ind est recycling village"}},"type":"Feature"},
	{"geometry":{"coordinates":[-1.453356,54.942785],"type":"Point"},"properties":{"amenity":"waste_basket","osm_id":"4290901862"},"type":"Feature"},
	{"geometry":{"coordinates":[-1.443346,54.946858],"type":"Point"},"properties":{"amenity":"waste_basket","osm_id":"4290999713"},"type":"Feature"},
	{"geometry":{"coordinates":[-1.434936,54.945383],"type":"Point"},"properties":{"amenity":"waste_basket","osm_id":"4291010846"},"type":"Feature"},
	{"geometry":{"coordinates":[-1.415509,54.971978],"type":"Point"},"properties":{"amenity":"waste_basket","osm_id":"4296631438"},"type":"Feature"},
	{"geometry":{"coordinates":[-1.412977,54.971855],"type":"Point"},"properties":{"amenity":"waste_basket","osm_id":"4296631806"},"type":"Feature"},
	{"geometry":{"coordinates":[-1.412764,54.971843],"type":"Point"},"properties":{"amenity":"waste_basket","osm_id":"4296631809"},"type":"Feature"},
	{"geometry":{"coordinates":[-1.412273,54.971829],"type":"Point"},"properties":{"amenity":"waste_basket","osm_id":"4296631827"},"type":"Feature"},
	{"geometry":{"coordinates":[-1.411562,54.971868],"type":"Point"},"properties":{"amenity":"waste_basket","osm_id":"4296631832"},"type":"Feature"},
	{"geometry":{"coordinates":[-1.410964,54.971785],"type":"Point"},"properties":{"amenity":"waste_basket","osm_id":"4296638889"},"type":"Feature"},
	{"geometry":{"coordinates":[-1.410557,54.972271],"type":"Point"},"properties":{"amenity":"waste_basket","osm_id":"4296656053"},"type":"Feature"},
	{"geometry":{"coordinates":[-1.410367,54.971853],"type":"Point"},"properties":{"amenity":"waste_basket","osm_id":"4296656068"},"type":"Feature"},
	{"geometry":{"coordinates":[-1.410239,54.971799],"type":"Point"},"properties":{"amenity":"waste_basket","osm_id":"4296656069"},"type":"Feature"},
	{"geometry":{"coordinates":[-1.409967,54.971745],"type":"Point"},"properties":{"amenity":"waste_basket","osm_id":"4296656092"},"type":"Feature"},
	{"geometry":{"coordinates":[-1.409735,54.971758],"type":"Point"},"properties":{"amenity":"waste_basket","osm_id":"4296656093"},"type":"Feature"},
	{"geometry":{"coordinates":[-1.408338,54.971933],"type":"Point"},"properties":{"amenity":"waste_basket","osm_id":"4296666457"},"type":"Feature"},
	{"geometry":{"coordinates":[-1.406812,54.972164],"type":"Point"},"properties":{"amenity":"waste_basket","osm_id":"4296682484"},"type":"Feature"},
	{"geometry":{"coordinates":[-1.406728,54.972179],"type":"Point"},"properties":{"amenity":"waste_basket","osm_id":"4296682485"},"type":"Feature"},
	{"geometry":{"coordinates":[-1.406475,54.972262],"type":"Point"},"properties":{"amenity":"waste_basket","osm_id":"4296682487"},"type":"Feature"},
	{"geometry":{"coordinates":[-1.406276,54.972328],"type":"Point"},"properties":{"amenity":"waste_basket","osm_id":"4296682488"},"type":"Feature"},
	{"geometry":{"coordinates":[-1.460821,54.947765],"type":"Point"},"properties":{"amenity":"waste_basket","osm_id":"4298646170"},"type":"Feature"},
	{"geometry":{"coordinates":[-1.466067,54.953291],"type":"Point"},"properties":{"amenity":"waste_basket","osm_id":"4300471283"},"type":"Feature"},
	{"geometry":{"coordinates":[-1.46697,54.952835],"type":"Point"},"properties":{"amenity":"waste_basket","osm_id":"4300471511"},"type":"Feature"},
	{"geometry":{"coordinates":[-1.430976,54.958231],"type":"Point"},"properties":{"amenity":"waste_basket","osm_id":"4312507255"},"type":"Feature"},
	{"geometry":{"coordinates":[-1.431045,54.95845],"type":"Point"},"properties":{"amenity":"waste_basket","osm_id":"4312507263"},"type":"Feature"},
	{"geometry":{"coordinates":[-1.431088,54.958578],"type":"Point"},"properties":{"amenity":"waste_basket","osm_id":"4312507264"},"type":"Feature"},
	{"geometry":{"coordinates":[-1.431183,54.958861],"type":"Point"},"properties":{"amenity":"waste_basket","osm_id":"4312507956"},"type":"Feature"},
	{"geometry":{"coordinates":[-1.431277,54.959154],"type":"Point"},"properties":{"amenity":"waste_basket","osm_id":"4312507961"},"type":"Feature"},
	{"geometry":{"coordinates":[-1.449204,54.961232],"type":"Point"},"properties":{"amenity":"waste_basket","osm_id":"4313054485"},"type":"Feature"},
	{"geometry":{"coordinates":[-1.466375,54.963766],"type":"Point"},"properties":{"amenity":"waste_basket","osm_id":"4314088603"},"type":"Feature"},
	{"geometry":{"coordinates":[-1.452915,54.969357],"type":"Point"},"properties":{"amenity":"waste_basket","osm_id":"4314423295"},"type":"Feature"},
	{"geometry":{"coordinates":[-1.445515,54.968477],"type":"Point"},"properties":{"amenity":"waste_basket","osm_id":"4315437487"},"type":"Feature"},
	{"geometry":{"coordinates":[-1.439057,54.975303],"type":"Point"},"properties":{"amenity":"waste_basket","osm_id":"4336766557"},"type":"Feature"},
	{"geometry":{"coordinates":[-1.436665,54.976615],"type":"Point"},"properties":{"amenity":"waste_basket","osm_id":"4336766586"},"type":"Feature"},
	{"geometry":{"coordinates":[-1.436448,54.976716],"type":"Point"},"properties":{"amenity":"waste_basket","osm_id":"4336766588"},"type":"Feature"},
	{"geometry":{"coordinates":[-1.435452,54.977262],"type":"Point"},"properties":{"amenity":"waste_basket","osm_id":"4336779568"},"type":"Feature"},
	{"geometry":{"coordinates":[-1.488005,54.964582],"type":"Point"},"properties":{"amenity":"waste_basket","osm_id":"4352432283"},"type":"Feature"},
	{"geometry":{"coordinates":[-1.482051,54.970819],"type":"Point"},"properties":{"amenity":"waste_basket","osm_id":"4352602139"},"type":"Feature"},
	{"geometry":{"coordinates":[-1.476635,54.965117],"type":"Point"},"properties":{"amenity":"waste_basket","osm_id":"4352608377"},"type":"Feature"},
	{"geometry":{"coordinates":[-1.479202,54.959248],"type":"Point"},"properties":{"amenity":"waste_basket","osm_id":"4352644195"},"type":"Feature"},
	{"geometry":{"coordinates":[-1.476162,54.962659],"type":"Point"},"properties":{"amenity":"waste_basket","osm_id":"4352658785"},"type":"Feature"},
	{"geometry":{"coordinates":[-1.478069,54.955045],"type":"Point"},"properties":{"amenity":"waste_basket","osm_id":"4352700044"},"type":"Feature"},
	{"geometry":{"coordinates":[-1.478355,54.954848],"type":"Point"},"properties":{"amenity":"waste_basket","osm_id":"4352700053"},"type":"Feature"},
	{"geometry":{"coordinates":[-1.478124,54.954763],"type":"Point"},"properties":{"amenity":"waste_basket","osm_id":"4352700054"},"type":"Feature"},
	{"geometry":{"coordinates":[-1.47791,54.954895],"type":"Point"},"properties":{"amenity":"waste_basket","osm_id":"4352700055"},"type":"Feature"},
	{"geometry":{"coordinates":[-1.477959,54.954986],"type":"Point"},"properties":{"amenity":"waste_basket","osm_id":"4352700056"},"type":"Feature"},
	{"geometry":{"coordinates":[-1.47789,54.955168],"type":"Point"},"properties":{"amenity":"waste_basket","osm_id":"4352704456"},"type":"Feature"},
	{"geometry":{"coordinates":[-1.477714,54.955266],"type":"Point"},"properties":{"amenity":"waste_basket","osm_id":"4352704457"},"type":"Feature"},
	{"geometry":{"coordinates":[-1.411039,54.97179],"type":"Point"},"properties":{"amenity":"waste_basket","osm_id":"5593627859"},"type":"Feature"}
]
}
