{
"type": "FeatureCollection",
"lastupdate": "2020-07-29T00:24:51Z",
"features": [
	{"geometry":{"coordinates":[-1.434267,54.348586],"type":"Point"},"properties":{"amenity":"recycling","osm_id":"335159432"},"type":"Feature"},
	{"geometry":{"coordinates":[-1.451876,54.346183],"type":"Point"},"properties":{"amenity":"recycling","name":"Yafforth Road Household Waste Recycling Centre (HWRC)","osm_id":"337382473","ref":"Northallerton Waste Recycling Centre","tag":{"recycling_type":"centre"}},"type":"Feature"},
	{"geometry":{"coordinates":[-1.429349,54.360874],"type":"Point"},"properties":{"amenity":"recycling","osm_id":"344603566"},"type":"Feature"},
	{"geometry":{"coordinates":[-1.440017,54.344456],"type":"Point"},"properties":{"amenity":"recycling","osm_id":"344873575"},"type":"Feature"},
	{"geometry":{"coordinates":[-1.431904,54.336859],"type":"Point"},"properties":{"amenity":"recycling","osm_id":"344873681","tag":{"recycling:batteries":"no","recycling:cans":"no","recycling:clothes":"yes","recycling:glass":"no","recycling:glass_bottles":"no","recycling:paper":"no","recycling:plastic":"no","recycling:plastic_bottles":"no","recycling:scrap_metal":"no","recycling:shoes":"yes","recycling:waste":"no"}},"type":"Feature"},
	{"geometry":{"coordinates":[-1.431095,54.337502],"type":"Point"},"properties":{"amenity":"recycling","osm_id":"3927492749"},"type":"Feature"},
	{"geometry":{"coordinates":[-1.446145,54.329393],"type":"Point"},"properties":{"amenity":"waste_basket","osm_id":"4725393628"},"type":"Feature"},
	{"geometry":{"coordinates":[-1.424024,54.335046],"type":"Point"},"properties":{"amenity":"waste_basket","osm_id":"5450329806"},"type":"Feature"},
	{"geometry":{"coordinates":[-1.426365,54.334709],"type":"Point"},"properties":{"amenity":"waste_basket","osm_id":"5450329808"},"type":"Feature"},
	{"geometry":{"coordinates":[-1.42709,54.339664],"type":"Point"},"properties":{"amenity":"waste_basket","osm_id":"5477274360"},"type":"Feature"},
	{"geometry":{"coordinates":[-1.419236,54.342018],"type":"Point"},"properties":{"amenity":"waste_basket","osm_id":"5506145631","tag":{"waste":"dog_excrement"}},"type":"Feature"},
	{"geometry":{"coordinates":[-1.419991,54.33195],"type":"Point"},"properties":{"amenity":"waste_basket","osm_id":"5506154431","tag":{"waste":"dog_excrement"}},"type":"Feature"},
	{"geometry":{"coordinates":[-1.423029,54.332452],"type":"Point"},"properties":{"amenity":"waste_basket","osm_id":"5506154432","tag":{"waste":"dog_excrement"}},"type":"Feature"},
	{"geometry":{"coordinates":[-1.42913,54.332753],"type":"Point"},"properties":{"amenity":"waste_basket","osm_id":"5506201971","tag":{"waste":"dog_excrement"}},"type":"Feature"},
	{"geometry":{"coordinates":[-1.431573,54.335221],"type":"Point"},"properties":{"amenity":"waste_basket","osm_id":"5506201972","tag":{"type":"dog_excrement"}},"type":"Feature"},
	{"geometry":{"coordinates":[-1.427589,54.336484],"type":"Point"},"properties":{"amenity":"waste_basket","osm_id":"5508221982"},"type":"Feature"},
	{"geometry":{"coordinates":[-1.427432,54.335887],"type":"Point"},"properties":{"amenity":"waste_basket","osm_id":"5508232459","tag":{"waste":"dog_excrement"}},"type":"Feature"},
	{"geometry":{"coordinates":[-1.42916,54.337289],"type":"Point"},"properties":{"amenity":"waste_basket","osm_id":"5508342214","tag":{"waste":"dog_excrement"}},"type":"Feature"},
	{"geometry":{"coordinates":[-1.429188,54.337306],"type":"Point"},"properties":{"amenity":"waste_basket","osm_id":"5508342215"},"type":"Feature"},
	{"geometry":{"coordinates":[-1.437729,54.3374],"type":"Point"},"properties":{"amenity":"waste_basket","osm_id":"5508817362"},"type":"Feature"},
	{"geometry":{"coordinates":[-1.42395,54.332761],"type":"Point"},"properties":{"amenity":"waste_basket","osm_id":"5526965856","tag":{"waste":"dog_excrement"}},"type":"Feature"},
	{"geometry":{"coordinates":[-1.434123,54.335217],"type":"Point"},"properties":{"amenity":"waste_basket","osm_id":"5529917816"},"type":"Feature"},
	{"geometry":{"coordinates":[-1.433662,54.336775],"type":"Point"},"properties":{"amenity":"waste_basket","osm_id":"5529917817"},"type":"Feature"},
	{"geometry":{"coordinates":[-1.433659,54.333187],"type":"Point"},"properties":{"amenity":"waste_basket","osm_id":"5529917818"},"type":"Feature"},
	{"geometry":{"coordinates":[-1.43225,54.337547],"type":"Point"},"properties":{"amenity":"waste_basket","osm_id":"5529917819"},"type":"Feature"},
	{"geometry":{"coordinates":[-1.431153,54.336647],"type":"Point"},"properties":{"amenity":"waste_basket","osm_id":"5532638047"},"type":"Feature"},
	{"geometry":{"coordinates":[-1.429886,54.337668],"type":"Point"},"properties":{"amenity":"waste_basket","osm_id":"5532642544"},"type":"Feature"},
	{"geometry":{"coordinates":[-1.433659,54.338733],"type":"Point"},"properties":{"amenity":"waste_basket","osm_id":"5540110249"},"type":"Feature"},
	{"geometry":{"coordinates":[-1.433725,54.338932],"type":"Point"},"properties":{"amenity":"waste_basket","osm_id":"5540114495"},"type":"Feature"},
	{"geometry":{"coordinates":[-1.425355,54.33809],"type":"Point"},"properties":{"amenity":"waste_basket","osm_id":"5568281217","tag":{"waste":"dog_excrement"}},"type":"Feature"},
	{"geometry":{"coordinates":[-1.425327,54.338071],"type":"Point"},"properties":{"amenity":"waste_basket","osm_id":"5568281218"},"type":"Feature"},
	{"geometry":{"coordinates":[-1.425219,54.338284],"type":"Point"},"properties":{"amenity":"waste_basket","osm_id":"5568285051"},"type":"Feature"},
	{"geometry":{"coordinates":[-1.42863,54.336885],"type":"Point"},"properties":{"amenity":"waste_basket","osm_id":"5572773796"},"type":"Feature"},
	{"geometry":{"coordinates":[-1.431947,54.336636],"type":"Point"},"properties":{"amenity":"waste_basket","osm_id":"5589736446"},"type":"Feature"},
	{"geometry":{"coordinates":[-1.431322,54.336603],"type":"Point"},"properties":{"amenity":"waste_basket","osm_id":"5589739417"},"type":"Feature"},
	{"geometry":{"coordinates":[-1.43398,54.338463],"type":"Point"},"properties":{"amenity":"waste_basket","osm_id":"5724807338"},"type":"Feature"},
	{"geometry":{"coordinates":[-1.434011,54.338769],"type":"Point"},"properties":{"amenity":"waste_basket","osm_id":"5724807339"},"type":"Feature"},
	{"geometry":{"coordinates":[-1.433951,54.339466],"type":"Point"},"properties":{"amenity":"waste_basket","osm_id":"5724808521"},"type":"Feature"},
	{"geometry":{"coordinates":[-1.43424,54.339768],"type":"Point"},"properties":{"amenity":"waste_basket","osm_id":"5724820164"},"type":"Feature"},
	{"geometry":{"coordinates":[-1.434093,54.339991],"type":"Point"},"properties":{"amenity":"waste_basket","osm_id":"5724820165"},"type":"Feature"},
	{"geometry":{"coordinates":[-1.434018,54.339753],"type":"Point"},"properties":{"amenity":"waste_basket","osm_id":"5724820166"},"type":"Feature"},
	{"geometry":{"coordinates":[-1.431936,54.336812],"type":"Point"},"properties":{"amenity":"waste_basket","osm_id":"5727402931"},"type":"Feature"},
	{"geometry":{"coordinates":[-1.43751,54.34213],"type":"Point"},"properties":{"amenity":"waste_basket","osm_id":"5749954159","tag":{"waste":"trash"}},"type":"Feature"},
	{"geometry":{"coordinates":[-1.435618,54.338195],"type":"Point"},"properties":{"amenity":"waste_basket","osm_id":"5749970085"},"type":"Feature"},
	{"geometry":{"coordinates":[-1.432861,54.336731],"type":"Point"},"properties":{"amenity":"waste_basket","osm_id":"5805990537"},"type":"Feature"},
	{"geometry":{"coordinates":[-1.424468,54.330073],"type":"Point"},"properties":{"amenity":"waste_basket","osm_id":"6168215399"},"type":"Feature"},
	{"geometry":{"coordinates":[-1.42335,54.330333],"type":"Point"},"properties":{"amenity":"waste_basket","osm_id":"6168215400"},"type":"Feature"},
	{"geometry":{"coordinates":[-1.427956,54.331741],"type":"Point"},"properties":{"amenity":"waste_basket","osm_id":"6421764429","tag":{"waste":"dog_excrement"}},"type":"Feature"},
	{"geometry":{"coordinates":[-1.436212,54.341933],"type":"Point"},"properties":{"amenity":"waste_basket","osm_id":"6426351792","tag":{"waste":"trash"}},"type":"Feature"},
	{"geometry":{"coordinates":[-1.433051,54.336748],"type":"Point"},"properties":{"amenity":"waste_basket","osm_id":"6479972616"},"type":"Feature"},
	{"geometry":{"coordinates":[-1.436869,54.342715],"type":"Point"},"properties":{"amenity":"waste_basket","osm_id":"6597251864"},"type":"Feature"},
	{"geometry":{"coordinates":[-1.435444,54.337493],"type":"Point"},"properties":{"amenity":"waste_basket","osm_id":"6597280271"},"type":"Feature"},
	{"geometry":{"coordinates":[-1.437081,54.342711],"type":"Point"},"properties":{"amenity":"waste_basket","osm_id":"6597287672"},"type":"Feature"},
	{"geometry":{"coordinates":[-1.437372,54.341897],"type":"Point"},"properties":{"amenity":"waste_basket","osm_id":"6597288355","tag":{"waste":"trash"}},"type":"Feature"},
	{"geometry":{"coordinates":[-1.437318,54.341764],"type":"Point"},"properties":{"amenity":"waste_basket","osm_id":"6597288356","tag":{"waste":"dog_excrement"}},"type":"Feature"},
	{"geometry":{"coordinates":[-1.445283,54.343042],"type":"Point"},"properties":{"amenity":"waste_basket","osm_id":"6938860228"},"type":"Feature"},
	{"geometry":{"coordinates":[-1.42647,54.339137],"type":"Point"},"properties":{"amenity":"waste_basket","osm_id":"7069569056"},"type":"Feature"},
	{"geometry":{"coordinates":[-1.430051,54.356679],"type":"Point"},"properties":{"amenity":"waste_basket","osm_id":"7227253936","tag":{"waste":"mixed"}},"type":"Feature"},
	{"geometry":{"coordinates":[-1.43,54.356673],"type":"Point"},"properties":{"amenity":"waste_basket","osm_id":"7227253937","tag":{"waste":"dog_excrement"}},"type":"Feature"},
	{"geometry":{"coordinates":[-1.419369,54.340239],"type":"Point"},"properties":{"amenity":"waste_basket","osm_id":"7227254655"},"type":"Feature"},
	{"geometry":{"coordinates":[-1.419356,54.340167],"type":"Point"},"properties":{"amenity":"waste_basket","osm_id":"7227254656"},"type":"Feature"},
	{"geometry":{"coordinates":[-1.435957,54.339143],"type":"Point"},"properties":{"amenity":"waste_basket","osm_id":"7248362130"},"type":"Feature"},
	{"geometry":{"coordinates":[-1.436209,54.339413],"type":"Point"},"properties":{"amenity":"waste_basket","osm_id":"7248362134"},"type":"Feature"},
	{"geometry":{"coordinates":[-1.436264,54.339505],"type":"Point"},"properties":{"amenity":"waste_basket","osm_id":"7248362135"},"type":"Feature"},
	{"geometry":{"coordinates":[-1.436471,54.339477],"type":"Point"},"properties":{"amenity":"waste_basket","osm_id":"7248362136"},"type":"Feature"},
	{"geometry":{"coordinates":[-1.436598,54.339667],"type":"Point"},"properties":{"amenity":"waste_basket","osm_id":"7248362138"},"type":"Feature"},
	{"geometry":{"coordinates":[-1.437411,54.342917],"type":"Point"},"properties":{"amenity":"waste_basket","osm_id":"7250067613"},"type":"Feature"},
	{"geometry":{"coordinates":[-1.427277,54.32912],"type":"Point"},"properties":{"amenity":"waste_basket","osm_id":"7257588794","tag":{"waste":"dog_excrement"}},"type":"Feature"},
	{"geometry":{"coordinates":[-1.483022,54.320445],"type":"Point"},"properties":{"amenity":"waste_basket","osm_id":"7517813086"},"type":"Feature"},
	{"geometry":{"coordinates":[-1.448147,54.334881],"type":"Point"},"properties":{"amenity":"waste_basket","osm_id":"7579415280"},"type":"Feature"},
	{"geometry":{"coordinates":[-1.44719,54.334563],"type":"Point"},"properties":{"amenity":"waste_basket","osm_id":"7579415283"},"type":"Feature"},
	{"geometry":{"coordinates":[-1.445949,54.328258],"type":"Point"},"properties":{"amenity":"recycling","osm_id":"7599482807","tag":{"recycling:clothes":"yes","recycling:shoes":"yes","recycling_type":"container"}},"type":"Feature"},
	{"geometry":{"coordinates":[-1.437118,54.350822],"type":"Point"},"properties":{"amenity":"waste_basket","osm_id":"7733958428","tag":{"waste":"dog_excrement"}},"type":"Feature"}
]
}
