{
"type": "FeatureCollection",
"lastupdate": "2020-07-31T01:06:47Z",
"features": [
	{"geometry":{"coordinates":[-0.467812,51.755306],"type":"Point"},"properties":{"amenity":"recycling","osm_id":"26468027"},"type":"Feature"},
	{"geometry":{"coordinates":[-0.449998,51.780271],"type":"Point"},"properties":{"amenity":"recycling","osm_id":"26983925","tag":{"location":"overground","recycling_type":"container"}},"type":"Feature"},
	{"geometry":{"coordinates":[-0.45159,51.773953],"type":"Point"},"properties":{"amenity":"recycling","osm_id":"26984027"},"type":"Feature"},
	{"geometry":{"coordinates":[-0.452353,51.774017],"type":"Point"},"properties":{"amenity":"recycling","osm_id":"26984028"},"type":"Feature"},
	{"geometry":{"coordinates":[-0.455556,51.774476],"type":"Point"},"properties":{"amenity":"recycling","osm_id":"26984038"},"type":"Feature"},
	{"geometry":{"coordinates":[-0.464842,51.774648],"type":"Point"},"properties":{"amenity":"recycling","osm_id":"26984114"},"type":"Feature"},
	{"geometry":{"coordinates":[-0.439871,51.778531],"type":"Point"},"properties":{"amenity":"recycling","osm_id":"30860406"},"type":"Feature"},
	{"geometry":{"coordinates":[-0.441549,51.777866],"type":"Point"},"properties":{"amenity":"recycling","osm_id":"30860408"},"type":"Feature"},
	{"geometry":{"coordinates":[-0.445986,51.769726],"type":"Point"},"properties":{"amenity":"recycling","name":"Hemel Hempstead Household Waste Recycling Centre","osm_id":"30871369","tag":{"recycling_type":"centre"}},"type":"Feature"},
	{"geometry":{"coordinates":[-0.460847,51.760195],"type":"Point"},"properties":{"amenity":"recycling","osm_id":"260071771"},"type":"Feature"},
	{"geometry":{"coordinates":[-0.459759,51.76038],"type":"Point"},"properties":{"amenity":"recycling","osm_id":"260071774"},"type":"Feature"},
	{"geometry":{"coordinates":[-0.482321,51.764209],"type":"Point"},"properties":{"amenity":"recycling","osm_id":"262708100"},"type":"Feature"},
	{"geometry":{"coordinates":[-0.482539,51.764663],"type":"Point"},"properties":{"amenity":"recycling","osm_id":"262708101"},"type":"Feature"},
	{"geometry":{"coordinates":[-0.449678,51.766103],"type":"Point"},"properties":{"amenity":"recycling","osm_id":"267785969"},"type":"Feature"},
	{"geometry":{"coordinates":[-0.489404,51.765447],"type":"Point"},"properties":{"amenity":"recycling","osm_id":"268147099"},"type":"Feature"},
	{"geometry":{"coordinates":[-0.500591,51.749523],"type":"Point"},"properties":{"amenity":"recycling","osm_id":"270615080"},"type":"Feature"},
	{"geometry":{"coordinates":[-0.471235,51.754298],"type":"Point"},"properties":{"amenity":"recycling","osm_id":"1658171264"},"type":"Feature"},
	{"geometry":{"coordinates":[-0.465808,51.735012],"type":"Point"},"properties":{"amenity":"recycling","name":"Sainsbury Recycling","osm_id":"1778162434"},"type":"Feature"},
	{"geometry":{"coordinates":[-0.480489,51.744239],"type":"Point"},"properties":{"amenity":"waste_basket","osm_id":"5372329548","tag":{"waste":"dog_excrement"}},"type":"Feature"},
	{"geometry":{"coordinates":[-0.485472,51.745286],"type":"Point"},"properties":{"amenity":"waste_basket","osm_id":"5372329721","tag":{"waste":"dog_excrement"}},"type":"Feature"},
	{"geometry":{"coordinates":[-0.481352,51.745603],"type":"Point"},"properties":{"amenity":"waste_basket","osm_id":"5372330673","tag":{"waste":"dog_excrement"}},"type":"Feature"},
	{"geometry":{"coordinates":[-0.484367,51.745594],"type":"Point"},"properties":{"amenity":"waste_basket","osm_id":"5466569021","tag":{"waste":"dog_excrement"}},"type":"Feature"},
	{"geometry":{"coordinates":[-0.474314,51.751854],"type":"Point"},"properties":{"amenity":"waste_basket","osm_id":"5866463357","tag":{"waste":"trash"}},"type":"Feature"},
	{"geometry":{"coordinates":[-0.474368,51.75237],"type":"Point"},"properties":{"amenity":"waste_basket","osm_id":"5866463358","tag":{"waste":"trash"}},"type":"Feature"},
	{"geometry":{"coordinates":[-0.474343,51.752635],"type":"Point"},"properties":{"amenity":"waste_basket","osm_id":"5866463359","tag":{"waste":"trash"}},"type":"Feature"},
	{"geometry":{"coordinates":[-0.473298,51.758429],"type":"Point"},"properties":{"amenity":"waste_basket","osm_id":"5866464468","tag":{"waste":"trash"}},"type":"Feature"},
	{"geometry":{"coordinates":[-0.47293,51.758479],"type":"Point"},"properties":{"amenity":"waste_basket","osm_id":"5866464471","tag":{"waste":"trash"}},"type":"Feature"},
	{"geometry":{"coordinates":[-0.473066,51.758521],"type":"Point"},"properties":{"amenity":"waste_basket","osm_id":"5866464474","tag":{"waste":"trash"}},"type":"Feature"},
	{"geometry":{"coordinates":[-0.474784,51.75809],"type":"Point"},"properties":{"amenity":"waste_basket","osm_id":"5866464580","tag":{"waste":"trash"}},"type":"Feature"},
	{"geometry":{"coordinates":[-0.471995,51.759072],"type":"Point"},"properties":{"amenity":"waste_basket","osm_id":"5866464684","tag":{"waste":"trash"}},"type":"Feature"},
	{"geometry":{"coordinates":[-0.472712,51.759323],"type":"Point"},"properties":{"amenity":"waste_basket","osm_id":"5866464738","tag":{"waste":"trash"}},"type":"Feature"},
	{"geometry":{"coordinates":[-0.472773,51.758842],"type":"Point"},"properties":{"amenity":"waste_basket","osm_id":"5866464767","tag":{"waste":"trash"}},"type":"Feature"},
	{"geometry":{"coordinates":[-0.472279,51.759277],"type":"Point"},"properties":{"amenity":"waste_basket","osm_id":"5866464795","tag":{"waste":"trash"}},"type":"Feature"},
	{"geometry":{"coordinates":[-0.468209,51.758425],"type":"Point"},"properties":{"amenity":"waste_basket","osm_id":"5866464852","tag":{"waste":"trash"}},"type":"Feature"},
	{"geometry":{"coordinates":[-0.471576,51.757723],"type":"Point"},"properties":{"amenity":"waste_basket","osm_id":"5866464922","tag":{"waste":"trash"}},"type":"Feature"},
	{"geometry":{"coordinates":[-0.474442,51.748435],"type":"Point"},"properties":{"amenity":"waste_basket","osm_id":"5866465171","tag":{"waste":"trash"}},"type":"Feature"},
	{"geometry":{"coordinates":[-0.474306,51.748724],"type":"Point"},"properties":{"amenity":"waste_basket","osm_id":"5866465174","tag":{"waste":"trash"}},"type":"Feature"},
	{"geometry":{"coordinates":[-0.47439,51.749053],"type":"Point"},"properties":{"amenity":"waste_basket","osm_id":"5866465184","tag":{"waste":"trash"}},"type":"Feature"},
	{"geometry":{"coordinates":[-0.474314,51.749723],"type":"Point"},"properties":{"amenity":"waste_basket","osm_id":"5866465224","tag":{"waste":"trash"}},"type":"Feature"},
	{"geometry":{"coordinates":[-0.474314,51.749246],"type":"Point"},"properties":{"amenity":"waste_basket","osm_id":"5866465225","tag":{"waste":"trash"}},"type":"Feature"},
	{"geometry":{"coordinates":[-0.474491,51.749579],"type":"Point"},"properties":{"amenity":"waste_basket","osm_id":"5866465227","tag":{"waste":"trash"}},"type":"Feature"},
	{"geometry":{"coordinates":[-0.474379,51.749462],"type":"Point"},"properties":{"amenity":"waste_basket","osm_id":"5866465230","tag":{"waste":"trash"}},"type":"Feature"},
	{"geometry":{"coordinates":[-0.474635,51.749462],"type":"Point"},"properties":{"amenity":"waste_basket","osm_id":"5866465235","tag":{"waste":"trash"}},"type":"Feature"},
	{"geometry":{"coordinates":[-0.474738,51.749579],"type":"Point"},"properties":{"amenity":"waste_basket","osm_id":"5866465238","tag":{"waste":"trash"}},"type":"Feature"},
	{"geometry":{"coordinates":[-0.473895,51.750905],"type":"Point"},"properties":{"amenity":"waste_basket","osm_id":"5866465335","tag":{"waste":"trash"}},"type":"Feature"},
	{"geometry":{"coordinates":[-0.474802,51.750921],"type":"Point"},"properties":{"amenity":"recycling","osm_id":"5866465361","tag":{"recycling:cans":"yes","recycling:clothes":"yes","recycling:plastic_bottles":"yes","recycling_type":"centre"}},"type":"Feature"},
	{"geometry":{"coordinates":[-0.474209,51.75328],"type":"Point"},"properties":{"amenity":"waste_basket","osm_id":"5866465451","tag":{"waste":"trash"}},"type":"Feature"},
	{"geometry":{"coordinates":[-0.474111,51.753224],"type":"Point"},"properties":{"amenity":"waste_basket","osm_id":"5866465453","tag":{"waste":"trash"}},"type":"Feature"},
	{"geometry":{"coordinates":[-0.474664,51.753334],"type":"Point"},"properties":{"amenity":"waste_basket","osm_id":"5866465454","tag":{"waste":"trash"}},"type":"Feature"},
	{"geometry":{"coordinates":[-0.474693,51.753478],"type":"Point"},"properties":{"amenity":"waste_basket","osm_id":"5866465472","tag":{"waste":"trash"}},"type":"Feature"},
	{"geometry":{"coordinates":[-0.473575,51.747388],"type":"Point"},"properties":{"amenity":"waste_basket","osm_id":"5866465706","tag":{"waste":"trash"}},"type":"Feature"},
	{"geometry":{"coordinates":[-0.473727,51.745242],"type":"Point"},"properties":{"amenity":"waste_basket","osm_id":"5866465813","tag":{"waste":"trash"}},"type":"Feature"},
	{"geometry":{"coordinates":[-0.473841,51.74411],"type":"Point"},"properties":{"amenity":"waste_basket","osm_id":"5866465818","tag":{"waste":"trash"}},"type":"Feature"},
	{"geometry":{"coordinates":[-0.474095,51.7446],"type":"Point"},"properties":{"amenity":"waste_basket","osm_id":"5866465823","tag":{"waste":"trash"}},"type":"Feature"},
	{"geometry":{"coordinates":[-0.4749,51.744678],"type":"Point"},"properties":{"amenity":"waste_basket","osm_id":"5866465831","tag":{"waste":"trash"}},"type":"Feature"},
	{"geometry":{"coordinates":[-0.477338,51.744402],"type":"Point"},"properties":{"amenity":"waste_basket","osm_id":"5866465906","tag":{"waste":"trash"}},"type":"Feature"},
	{"geometry":{"coordinates":[-0.479623,51.74448],"type":"Point"},"properties":{"amenity":"waste_basket","osm_id":"5866465924","tag":{"waste":"trash"}},"type":"Feature"},
	{"geometry":{"coordinates":[-0.48211,51.74395],"type":"Point"},"properties":{"amenity":"waste_basket","osm_id":"5866465929","tag":{"waste":"dog_excrement"}},"type":"Feature"},
	{"geometry":{"coordinates":[-0.49147,51.743707],"type":"Point"},"properties":{"amenity":"waste_basket","osm_id":"5866465962","tag":{"waste":"trash"}},"type":"Feature"},
	{"geometry":{"coordinates":[-0.495464,51.746755],"type":"Point"},"properties":{"amenity":"waste_basket","osm_id":"5866465977","tag":{"waste":"rubbish bin"}},"type":"Feature"},
	{"geometry":{"coordinates":[-0.491734,51.741334],"type":"Point"},"properties":{"amenity":"waste_basket","osm_id":"5866466076","tag":{"waste":"trash"}},"type":"Feature"},
	{"geometry":{"coordinates":[-0.472952,51.760853],"type":"Point"},"properties":{"amenity":"waste_basket","osm_id":"5891232035","tag":{"waste":"trash"}},"type":"Feature"},
	{"geometry":{"coordinates":[-0.472038,51.757881],"type":"Point"},"properties":{"amenity":"waste_basket","osm_id":"5891232039","tag":{"waste":"trash"}},"type":"Feature"},
	{"geometry":{"coordinates":[-0.47199,51.758121],"type":"Point"},"properties":{"amenity":"waste_basket","osm_id":"5891232040","tag":{"waste":"trash"}},"type":"Feature"},
	{"geometry":{"coordinates":[-0.500633,51.749486],"type":"Point"},"properties":{"amenity":"recycling","osm_id":"6025360049"},"type":"Feature"},
	{"geometry":{"coordinates":[-0.447795,51.76473],"type":"Point"},"properties":{"amenity":"waste_basket","osm_id":"6429278854"},"type":"Feature"}
]
}
