{
"type": "FeatureCollection",
"lastupdate": "2020-07-29T00:24:51Z",
"features": [
	{"geometry":{"coordinates":[1.105018,52.569902],"type":"Point"},"properties":{"amenity":"waste_basket","osm_id":"821791117"},"type":"Feature"},
	{"geometry":{"coordinates":[1.108662,52.568706],"type":"Point"},"properties":{"amenity":"waste_basket","osm_id":"821791131"},"type":"Feature"},
	{"geometry":{"coordinates":[1.108353,52.573284],"type":"Point"},"properties":{"amenity":"recycling","osm_id":"821791285","tag":{"operator":"South Norfolk Council"}},"type":"Feature"},
	{"geometry":{"coordinates":[1.106638,52.575632],"type":"Point"},"properties":{"amenity":"waste_basket","osm_id":"821791341"},"type":"Feature"},
	{"geometry":{"coordinates":[1.114104,52.566482],"type":"Point"},"properties":{"amenity":"waste_basket","osm_id":"821791631"},"type":"Feature"},
	{"geometry":{"coordinates":[1.10487,52.570212],"type":"Point"},"properties":{"amenity":"waste_basket","osm_id":"821791695"},"type":"Feature"},
	{"geometry":{"coordinates":[1.058213,52.556579],"type":"Point"},"properties":{"amenity":"recycling","osm_id":"2286051827","tag":{"recycling:clothes":"yes","recycling:glass":"yes","recycling_type":"container"}},"type":"Feature"},
	{"geometry":{"coordinates":[1.13219,52.560853],"type":"Point"},"properties":{"amenity":"waste_basket","osm_id":"2860936827","tag":{"waste_basket":"dog_waste"}},"type":"Feature"},
	{"geometry":{"coordinates":[1.112512,52.56596],"type":"Point"},"properties":{"amenity":"waste_basket","osm_id":"2860936880","tag":{"waste_basket":"dog_waste"}},"type":"Feature"},
	{"geometry":{"coordinates":[1.123393,52.566655],"type":"Point"},"properties":{"amenity":"waste_basket","osm_id":"2860937003","tag":{"waste_basket":"dog_waste"}},"type":"Feature"},
	{"geometry":{"coordinates":[1.121187,52.566722],"type":"Point"},"properties":{"amenity":"waste_basket","osm_id":"2860937006"},"type":"Feature"},
	{"geometry":{"coordinates":[1.106892,52.578915],"type":"Point"},"properties":{"amenity":"waste_basket","osm_id":"3599641689","tag":{"waste":"dog_excrement"}},"type":"Feature"},
	{"geometry":{"coordinates":[1.105053,52.569924],"type":"Point"},"properties":{"amenity":"waste_basket","osm_id":"3599642504","tag":{"waste":"dog_excrement"}},"type":"Feature"},
	{"geometry":{"coordinates":[1.089223,52.581154],"type":"Point"},"properties":{"amenity":"waste_basket","osm_id":"3599642535","tag":{"waste":"dog_excrement"}},"type":"Feature"},
	{"geometry":{"coordinates":[1.106546,52.580537],"type":"Point"},"properties":{"amenity":"waste_basket","osm_id":"3599642554","tag":{"waste":"dog_excrement"}},"type":"Feature"},
	{"geometry":{"coordinates":[1.106483,52.580538],"type":"Point"},"properties":{"amenity":"waste_basket","osm_id":"3599642563"},"type":"Feature"},
	{"geometry":{"coordinates":[1.105844,52.57677],"type":"Point"},"properties":{"amenity":"waste_basket","osm_id":"3599642597","tag":{"waste":"dog_excrement"}},"type":"Feature"},
	{"geometry":{"coordinates":[1.063439,52.579248],"type":"Point"},"properties":{"amenity":"recycling","osm_id":"4356695064","tag":{"recycling:clothes":"yes","recycling:glass":"yes"}},"type":"Feature"},
	{"geometry":{"coordinates":[1.104138,52.564866],"type":"Point"},"properties":{"amenity":"waste_basket","osm_id":"4382093988","tag":{"waste":"dog_excrement"}},"type":"Feature"},
	{"geometry":{"coordinates":[1.109556,52.567352],"type":"Point"},"properties":{"amenity":"waste_basket","osm_id":"4382094149","tag":{"waste":"litter"}},"type":"Feature"},
	{"geometry":{"coordinates":[1.10956,52.567359],"type":"Point"},"properties":{"amenity":"waste_basket","osm_id":"4382094150","tag":{"waste":"dog_excrement"}},"type":"Feature"},
	{"geometry":{"coordinates":[1.133824,52.573387],"type":"Point"},"properties":{"amenity":"waste_basket","osm_id":"4874405177","tag":{"waste":"general"}},"type":"Feature"},
	{"geometry":{"coordinates":[1.13575,52.579087],"type":"Point"},"properties":{"amenity":"waste_basket","osm_id":"4936837153"},"type":"Feature"},
	{"geometry":{"coordinates":[1.120152,52.570244],"type":"Point"},"properties":{"amenity":"waste_basket","osm_id":"5536513390"},"type":"Feature"},
	{"geometry":{"coordinates":[1.121717,52.570365],"type":"Point"},"properties":{"amenity":"waste_basket","osm_id":"5536513400","tag":{"waste":"dog_excrement"}},"type":"Feature"},
	{"geometry":{"coordinates":[1.11025,52.571734],"type":"Point"},"properties":{"amenity":"waste_basket","osm_id":"6456509785"},"type":"Feature"},
	{"geometry":{"coordinates":[1.110625,52.571785],"type":"Point"},"properties":{"amenity":"waste_basket","osm_id":"6456509787"},"type":"Feature"},
	{"geometry":{"coordinates":[1.110696,52.57198],"type":"Point"},"properties":{"amenity":"waste_basket","osm_id":"6456509888"},"type":"Feature"},
	{"geometry":{"coordinates":[1.118831,52.571423],"type":"Point"},"properties":{"amenity":"recycling","osm_id":"7684524163","tag":{"indoor":"yes","recycling:plastic_bags":"yes","recycling_type":"container"}},"type":"Feature"},
	{"geometry":{"coordinates":[1.118837,52.571026],"type":"Point"},"properties":{"amenity":"recycling","osm_id":"7684524168","tag":{"opening_hours":"24/7","recycling:clothes":"yes","recycling:shoes":"yes","recycling_type":"container"}},"type":"Feature"}
]
}
