{
"type": "FeatureCollection",
"lastupdate": "2020-07-26T00:31:07Z",
"features": [
	{"geometry":{"coordinates":[1.134657,52.339821],"type":"Point"},"properties":{"amenity":"recycling","osm_id":"283304290","tag":{"recycling_type":"centre"}},"type":"Feature"},
	{"geometry":{"coordinates":[1.112121,52.372235],"type":"Point"},"properties":{"amenity":"recycling","osm_id":"2003683003","tag":{"location":"overground","recycling:clothes":"yes","recycling:glass_bottles":"yes","recycling:paper":"yes","recycling:shoes":"yes","recycling_type":"container"}},"type":"Feature"},
	{"geometry":{"coordinates":[1.055583,52.35604],"type":"Point"},"properties":{"amenity":"recycling","osm_id":"3509002561","tag":{"recycling:clothes":"yes","recycling:glass":"yes","recycling:paper":"yes","recycling:shoes":"yes"}},"type":"Feature"},
	{"geometry":{"coordinates":[1.096968,52.37389],"type":"Point"},"properties":{"amenity":"waste_basket","osm_id":"3761315513","tag":{"waste":"dog_excrement"}},"type":"Feature"},
	{"geometry":{"coordinates":[1.112171,52.371982],"type":"Point"},"properties":{"amenity":"waste_basket","osm_id":"3763441361"},"type":"Feature"},
	{"geometry":{"coordinates":[1.112209,52.372017],"type":"Point"},"properties":{"amenity":"waste_basket","osm_id":"3763441432","tag":{"waste":"dog_excrement"}},"type":"Feature"},
	{"geometry":{"coordinates":[1.107838,52.36501],"type":"Point"},"properties":{"amenity":"recycling","osm_id":"3763441444","tag":{"location":"overground","recycling:glass":"yes","recycling_type":"container"}},"type":"Feature"},
	{"geometry":{"coordinates":[1.123401,52.367872],"type":"Point"},"properties":{"amenity":"recycling","osm_id":"3763441519","tag":{"operator":"South Norfolk Council","recycling:clothes":"yes","recycling:glass":"yes","recycling_type":"container"}},"type":"Feature"},
	{"geometry":{"coordinates":[1.079085,52.32945],"type":"Point"},"properties":{"amenity":"waste_basket","osm_id":"4118886938","tag":{"waste":"dog_excrement"}},"type":"Feature"},
	{"geometry":{"coordinates":[1.126248,52.367966],"type":"Point"},"properties":{"amenity":"waste_basket","osm_id":"6657740164"},"type":"Feature"},
	{"geometry":{"coordinates":[1.124666,52.371479],"type":"Point"},"properties":{"amenity":"waste_basket","osm_id":"6670312032","tag":{"waste":"dog_excrement"}},"type":"Feature"},
	{"geometry":{"coordinates":[1.123655,52.371948],"type":"Point"},"properties":{"amenity":"waste_basket","osm_id":"6718635109","tag":{"waste":"dog_excrement"}},"type":"Feature"},
	{"geometry":{"coordinates":[1.12309,52.370722],"type":"Point"},"properties":{"amenity":"waste_basket","osm_id":"6718635110","tag":{"waste":"trash"}},"type":"Feature"},
	{"geometry":{"coordinates":[1.12307,52.370685],"type":"Point"},"properties":{"amenity":"waste_basket","osm_id":"6718635111","tag":{"waste":"dog_excrement"}},"type":"Feature"},
	{"geometry":{"coordinates":[1.121839,52.375437],"type":"Point"},"properties":{"amenity":"waste_basket","osm_id":"6718681429","tag":{"waste":"dog_excrement"}},"type":"Feature"},
	{"geometry":{"coordinates":[1.118656,52.371252],"type":"Point"},"properties":{"amenity":"waste_basket","osm_id":"6906985608","tag":{"waste":"trash"}},"type":"Feature"},
	{"geometry":{"coordinates":[1.123445,52.373665],"type":"Point"},"properties":{"amenity":"waste_basket","osm_id":"6906985613","tag":{"waste":"trash"}},"type":"Feature"},
	{"geometry":{"coordinates":[1.119658,52.371748],"type":"Point"},"properties":{"amenity":"recycling","osm_id":"6906995752","tag":{"operator":"South Norfolk Council","recycling:clothes":"yes","recycling:glass":"yes","recycling_type":"container"}},"type":"Feature"},
	{"geometry":{"coordinates":[1.117681,52.371582],"type":"Point"},"properties":{"amenity":"waste_basket","osm_id":"6906995756","tag":{"waste":"dog_excrement"}},"type":"Feature"},
	{"geometry":{"coordinates":[1.118964,52.371172],"type":"Point"},"properties":{"amenity":"waste_basket","osm_id":"6906995757","tag":{"waste":"dog_excrement"}},"type":"Feature"},
	{"geometry":{"coordinates":[1.116639,52.372585],"type":"Point"},"properties":{"amenity":"waste_basket","osm_id":"6918348961","tag":{"waste":"trash"}},"type":"Feature"},
	{"geometry":{"coordinates":[1.115475,52.372728],"type":"Point"},"properties":{"amenity":"waste_basket","osm_id":"6918348965","tag":{"waste":"trash"}},"type":"Feature"},
	{"geometry":{"coordinates":[1.114173,52.374934],"type":"Point"},"properties":{"amenity":"waste_basket","osm_id":"6925197243","tag":{"waste":"trash"}},"type":"Feature"},
	{"geometry":{"coordinates":[1.113366,52.372993],"type":"Point"},"properties":{"amenity":"waste_basket","osm_id":"6925520544","tag":{"waste":"trash"}},"type":"Feature"},
	{"geometry":{"coordinates":[1.117502,52.373575],"type":"Point"},"properties":{"amenity":"waste_basket","osm_id":"6967182141","tag":{"waste":"trash"}},"type":"Feature"},
	{"geometry":{"coordinates":[1.118804,52.37451],"type":"Point"},"properties":{"amenity":"waste_basket","osm_id":"6982830016","tag":{"waste":"trash"}},"type":"Feature"},
	{"geometry":{"coordinates":[1.116955,52.375026],"type":"Point"},"properties":{"amenity":"waste_basket","osm_id":"7004233935","tag":{"waste":"trash"}},"type":"Feature"},
	{"geometry":{"coordinates":[1.112172,52.375495],"type":"Point"},"properties":{"amenity":"waste_basket","osm_id":"7009207572","tag":{"waste":"dog_excrement"}},"type":"Feature"},
	{"geometry":{"coordinates":[1.10958,52.375264],"type":"Point"},"properties":{"amenity":"waste_basket","osm_id":"7034016418","tag":{"waste":"trash"}},"type":"Feature"},
	{"geometry":{"coordinates":[1.109577,52.375055],"type":"Point"},"properties":{"amenity":"waste_basket","osm_id":"7034016419","tag":{"waste":"trash"}},"type":"Feature"},
	{"geometry":{"coordinates":[1.109218,52.37371],"type":"Point"},"properties":{"amenity":"waste_basket","osm_id":"7034016420","tag":{"waste":"trash"}},"type":"Feature"},
	{"geometry":{"coordinates":[1.108779,52.374108],"type":"Point"},"properties":{"amenity":"waste_basket","osm_id":"7099705105","tag":{"waste":"trash"}},"type":"Feature"},
	{"geometry":{"coordinates":[1.105334,52.375547],"type":"Point"},"properties":{"amenity":"waste_basket","osm_id":"7253159970","tag":{"waste":"dog_excrement"}},"type":"Feature"},
	{"geometry":{"coordinates":[1.105488,52.375524],"type":"Point"},"properties":{"amenity":"waste_basket","osm_id":"7253159973","tag":{"waste":"trash"}},"type":"Feature"},
	{"geometry":{"coordinates":[1.10517,52.374046],"type":"Point"},"properties":{"amenity":"waste_basket","osm_id":"7253159974","tag":{"waste":"trash"}},"type":"Feature"},
	{"geometry":{"coordinates":[1.105106,52.374715],"type":"Point"},"properties":{"amenity":"waste_basket","osm_id":"7253159976","tag":{"waste":"trash"}},"type":"Feature"},
	{"geometry":{"coordinates":[1.129641,52.364661],"type":"Point"},"properties":{"amenity":"recycling","osm_id":"7323803120","tag":{"recycling:glass":"yes","recycling_type":"container"}},"type":"Feature"},
	{"geometry":{"coordinates":[1.129826,52.365742],"type":"Point"},"properties":{"amenity":"waste_basket","osm_id":"7323803122","tag":{"waste":"trash"}},"type":"Feature"},
	{"geometry":{"coordinates":[1.111222,52.364613],"type":"Point"},"properties":{"amenity":"waste_basket","osm_id":"7435037720","tag":{"waste":"dog_excrement"}},"type":"Feature"},
	{"geometry":{"coordinates":[1.105031,52.36132],"type":"Point"},"properties":{"amenity":"waste_basket","osm_id":"7435037721","tag":{"waste":"dog_excrement"}},"type":"Feature"},
	{"geometry":{"coordinates":[1.101461,52.365267],"type":"Point"},"properties":{"amenity":"waste_basket","osm_id":"7435037737","tag":{"waste":"dog_excrement"}},"type":"Feature"},
	{"geometry":{"coordinates":[1.107782,52.366623],"type":"Point"},"properties":{"amenity":"waste_basket","osm_id":"7435037746","tag":{"waste":"dog_excrement"}},"type":"Feature"},
	{"geometry":{"coordinates":[1.108717,52.374397],"type":"Point"},"properties":{"amenity":"waste_basket","osm_id":"7454441586","tag":{"waste":"trash"}},"type":"Feature"},
	{"geometry":{"coordinates":[1.056567,52.3516],"type":"Point"},"properties":{"amenity":"recycling","osm_id":"7500688175","tag":{"recycling:glass":"yes","recycling_type":"container"}},"type":"Feature"},
	{"geometry":{"coordinates":[1.100284,52.374454],"type":"Point"},"properties":{"amenity":"waste_basket","osm_id":"7537322771","tag":{"waste":"dog_excrement"}},"type":"Feature"},
	{"geometry":{"coordinates":[1.106605,52.373754],"type":"Point"},"properties":{"amenity":"waste_basket","osm_id":"7658972837","tag":{"waste":"trash"}},"type":"Feature"},
	{"geometry":{"coordinates":[1.107655,52.373314],"type":"Point"},"properties":{"amenity":"recycling","osm_id":"7658984683","tag":{"location":"overground","recycling:clothes":"yes","recycling:glass_bottles":"yes","recycling:paper":"yes","recycling_type":"container"}},"type":"Feature"},
	{"geometry":{"coordinates":[1.108459,52.374801],"type":"Point"},"properties":{"amenity":"waste_basket","osm_id":"7744350582"},"type":"Feature"},
	{"geometry":{"coordinates":[1.108238,52.374595],"type":"Point"},"properties":{"amenity":"waste_basket","osm_id":"7744421587"},"type":"Feature"},
	{"geometry":{"coordinates":[1.10887,52.374955],"type":"Point"},"properties":{"amenity":"waste_basket","osm_id":"7744421589"},"type":"Feature"}
]
}
