{
"type": "FeatureCollection",
"lastupdate": "2020-07-31T01:06:47Z",
"features": [
	{"geometry":{"coordinates":[-0.319784,54.181983],"type":"Point"},"properties":{"amenity":"recycling","osm_id":"1250656361"},"type":"Feature"},
	{"geometry":{"coordinates":[-0.291448,54.209662],"type":"Point"},"properties":{"amenity":"recycling","name":"Tesco Recycling Centre","osm_id":"1914715842","tag":{"recycling:clothes":"yes","recycling_type":"container"}},"type":"Feature"},
	{"geometry":{"coordinates":[-0.300191,54.211479],"type":"Point"},"properties":{"amenity":"waste_basket","osm_id":"3727757994"},"type":"Feature"},
	{"geometry":{"coordinates":[-0.289887,54.206153],"type":"Point"},"properties":{"amenity":"waste_basket","osm_id":"3727845251"},"type":"Feature"},
	{"geometry":{"coordinates":[-0.286408,54.206495],"type":"Point"},"properties":{"amenity":"waste_basket","osm_id":"3727845253"},"type":"Feature"},
	{"geometry":{"coordinates":[-0.286397,54.206313],"type":"Point"},"properties":{"amenity":"waste_basket","osm_id":"3727845254"},"type":"Feature"},
	{"geometry":{"coordinates":[-0.286143,54.20818],"type":"Point"},"properties":{"amenity":"waste_basket","osm_id":"3727845283"},"type":"Feature"},
	{"geometry":{"coordinates":[-0.286151,54.208461],"type":"Point"},"properties":{"amenity":"waste_basket","osm_id":"3727845284"},"type":"Feature"},
	{"geometry":{"coordinates":[-0.289026,54.208684],"type":"Point"},"properties":{"amenity":"waste_basket","osm_id":"3727845310"},"type":"Feature"},
	{"geometry":{"coordinates":[-0.288285,54.208582],"type":"Point"},"properties":{"amenity":"waste_basket","osm_id":"3727845324"},"type":"Feature"},
	{"geometry":{"coordinates":[-0.287003,54.208897],"type":"Point"},"properties":{"amenity":"waste_basket","osm_id":"3727864726"},"type":"Feature"},
	{"geometry":{"coordinates":[-0.287076,54.209041],"type":"Point"},"properties":{"amenity":"waste_basket","osm_id":"3727870372"},"type":"Feature"},
	{"geometry":{"coordinates":[-0.288794,54.209582],"type":"Point"},"properties":{"amenity":"waste_basket","osm_id":"3727878820"},"type":"Feature"},
	{"geometry":{"coordinates":[-0.288696,54.209661],"type":"Point"},"properties":{"amenity":"waste_basket","osm_id":"3727878821"},"type":"Feature"},
	{"geometry":{"coordinates":[-0.28929,54.208464],"type":"Point"},"properties":{"amenity":"waste_basket","osm_id":"3727890244"},"type":"Feature"},
	{"geometry":{"coordinates":[-0.289112,54.209638],"type":"Point"},"properties":{"amenity":"waste_basket","osm_id":"3727893258"},"type":"Feature"},
	{"geometry":{"coordinates":[-0.287445,54.210398],"type":"Point"},"properties":{"amenity":"waste_basket","osm_id":"3727894260"},"type":"Feature"},
	{"geometry":{"coordinates":[-0.292066,54.210118],"type":"Point"},"properties":{"amenity":"waste_basket","osm_id":"3727917422"},"type":"Feature"},
	{"geometry":{"coordinates":[-0.293096,54.210493],"type":"Point"},"properties":{"amenity":"waste_basket","osm_id":"3727930452"},"type":"Feature"},
	{"geometry":{"coordinates":[-0.297174,54.205421],"type":"Point"},"properties":{"amenity":"waste_basket","osm_id":"4985140129"},"type":"Feature"},
	{"geometry":{"coordinates":[-0.294925,54.206554],"type":"Point"},"properties":{"amenity":"waste_basket","osm_id":"4985140130"},"type":"Feature"},
	{"geometry":{"coordinates":[-0.291591,54.206349],"type":"Point"},"properties":{"amenity":"waste_basket","osm_id":"4985140131"},"type":"Feature"},
	{"geometry":{"coordinates":[-0.287836,54.209378],"type":"Point"},"properties":{"amenity":"waste_basket","osm_id":"5489523837"},"type":"Feature"},
	{"geometry":{"coordinates":[-0.289803,54.211347],"type":"Point"},"properties":{"amenity":"recycling","osm_id":"5489523839","tag":{"operator":"The Fire Fighters Charity","recycling:clothes":"yes","recycling:handbags":"yes","recycling:linen":"yes","recycling:shoes":"yes","recycling_type":"container"}},"type":"Feature"},
	{"geometry":{"coordinates":[-0.2835,54.210633],"type":"Point"},"properties":{"amenity":"waste_basket","osm_id":"5490986969"},"type":"Feature"},
	{"geometry":{"coordinates":[-0.283474,54.210897],"type":"Point"},"properties":{"amenity":"waste_basket","osm_id":"5490986974"},"type":"Feature"},
	{"geometry":{"coordinates":[-0.290099,54.202681],"type":"Point"},"properties":{"amenity":"recycling","osm_id":"5493740685","tag":{"recycling_type":"container"}},"type":"Feature"},
	{"geometry":{"coordinates":[-0.283052,54.185646],"type":"Point"},"properties":{"amenity":"recycling","osm_id":"5695159748","tag":{"recycling:glass":"yes","recycling_type":"container"}},"type":"Feature"},
	{"geometry":{"coordinates":[-0.284994,54.188052],"type":"Point"},"properties":{"amenity":"recycling","osm_id":"5695159768","tag":{"recycling:glass":"yes","recycling_type":"container"}},"type":"Feature"},
	{"geometry":{"coordinates":[-0.281793,54.189377],"type":"Point"},"properties":{"amenity":"recycling","osm_id":"5695159774","tag":{"recycling:glass":"yes","recycling_type":"container"}},"type":"Feature"},
	{"geometry":{"coordinates":[-0.281695,54.18224],"type":"Point"},"properties":{"amenity":"recycling","osm_id":"5696633750","tag":{"recycling:glass":"yes","recycling_type":"container"}},"type":"Feature"},
	{"geometry":{"coordinates":[-0.281358,54.183249],"type":"Point"},"properties":{"amenity":"recycling","osm_id":"5696633751","tag":{"recycling:glass":"yes","recycling_type":"container"}},"type":"Feature"},
	{"geometry":{"coordinates":[-0.281276,54.183921],"type":"Point"},"properties":{"amenity":"recycling","osm_id":"5696633752","tag":{"recycling:glass":"yes","recycling_type":"container"}},"type":"Feature"},
	{"geometry":{"coordinates":[-0.282361,54.184164],"type":"Point"},"properties":{"amenity":"recycling","osm_id":"5696633753","tag":{"recycling:glass":"yes","recycling_type":"container"}},"type":"Feature"},
	{"geometry":{"coordinates":[-0.283628,54.183296],"type":"Point"},"properties":{"amenity":"recycling","osm_id":"5696633754","tag":{"recycling:glass":"yes","recycling_type":"container"}},"type":"Feature"},
	{"geometry":{"coordinates":[-0.304621,54.21003],"type":"Point"},"properties":{"amenity":"waste_basket","osm_id":"5831872525"},"type":"Feature"},
	{"geometry":{"coordinates":[-0.295581,54.209898],"type":"Point"},"properties":{"amenity":"waste_basket","osm_id":"7019656940"},"type":"Feature"}
]
}
