{
"type": "FeatureCollection",
"lastupdate": "2020-07-27T00:28:31Z",
"features": [
	{"geometry":{"coordinates":[-0.317318,51.559811],"type":"Point"},"properties":{"amenity":"recycling","osm_id":"31472891","tag":{"recycling:clothes":"yes","recycling:glass":"yes","recycling:glass_bottles":"yes"}},"type":"Feature"},
	{"geometry":{"coordinates":[-0.35074,51.523857],"type":"Point"},"properties":{"amenity":"recycling","name":"Greenford Re-use and Recycling Centre","osm_id":"32546337","tag":{"addr:postcode":"UB6 9AP","recycling:batteries":"yes","recycling:cans":"yes","recycling:engine_oil":"yes","recycling:glass_bottles":"yes","recycling:green_waste":"yes","recycling:white_goods":"yes"}},"type":"Feature"},
	{"geometry":{"coordinates":[-0.278626,51.537126],"type":"Point"},"properties":{"amenity":"recycling","name":"Brent Re-use and Recycling Centre","osm_id":"304639041"},"type":"Feature"},
	{"geometry":{"coordinates":[-0.285709,51.542916],"type":"Point"},"properties":{"amenity":"recycling","osm_id":"304687761"},"type":"Feature"},
	{"geometry":{"coordinates":[-0.297056,51.541817],"type":"Point"},"properties":{"amenity":"recycling","osm_id":"304691902"},"type":"Feature"},
	{"geometry":{"coordinates":[-0.296821,51.542293],"type":"Point"},"properties":{"amenity":"recycling","osm_id":"304695437"},"type":"Feature"},
	{"geometry":{"coordinates":[-0.280389,51.517678],"type":"Point"},"properties":{"amenity":"recycling","osm_id":"304696324"},"type":"Feature"},
	{"geometry":{"coordinates":[-0.2844,51.527083],"type":"Point"},"properties":{"amenity":"recycling","osm_id":"304745931","tag":{"recycling:paper":"yes"}},"type":"Feature"},
	{"geometry":{"coordinates":[-0.277626,51.561539],"type":"Point"},"properties":{"amenity":"recycling","osm_id":"305084447"},"type":"Feature"},
	{"geometry":{"coordinates":[-0.286469,51.553912],"type":"Point"},"properties":{"amenity":"recycling","osm_id":"305084542"},"type":"Feature"},
	{"geometry":{"coordinates":[-0.302058,51.544577],"type":"Point"},"properties":{"amenity":"recycling","osm_id":"305386887","tag":{"recycling:clothes":"yes","recycling:shoes":"yes"}},"type":"Feature"},
	{"geometry":{"coordinates":[-0.298171,51.541212],"type":"Point"},"properties":{"amenity":"recycling","osm_id":"305394860","tag":{"operator":"traid","recycling:clothes":"yes","recycling:shoes":"yes"}},"type":"Feature"},
	{"geometry":{"coordinates":[-0.302451,51.552401],"type":"Point"},"properties":{"amenity":"recycling","osm_id":"305399271","tag":{"operator":"traid","recycling:clothes":"yes","recycling:shoes":"yes"}},"type":"Feature"},
	{"geometry":{"coordinates":[-0.2894,51.553596],"type":"Point"},"properties":{"amenity":"recycling","osm_id":"305417288","tag":{"operator":"Brent Council","recycling:cans":"yes","recycling:glass":"yes","recycling:paper":"yes","recycling:plastic_bottles":"yes"}},"type":"Feature"},
	{"geometry":{"coordinates":[-0.289511,51.553609],"type":"Point"},"properties":{"amenity":"recycling","osm_id":"305417299","tag":{"operator":"traid","recycling:clothes":"yes","recycling:shoes":"yes"}},"type":"Feature"},
	{"geometry":{"coordinates":[-0.297644,51.549363],"type":"Point"},"properties":{"amenity":"recycling","osm_id":"305808458"},"type":"Feature"},
	{"geometry":{"coordinates":[-0.297113,51.551772],"type":"Point"},"properties":{"amenity":"recycling","osm_id":"305808485"},"type":"Feature"},
	{"geometry":{"coordinates":[-0.297477,51.523978],"type":"Point"},"properties":{"amenity":"recycling","osm_id":"324012873","tag":{"recycling:glass":"yes","recycling:paper":"yes","recycling:shoes":"yes"}},"type":"Feature"},
	{"geometry":{"coordinates":[-0.280955,51.561925],"type":"Point"},"properties":{"amenity":"waste_basket","osm_id":"548802805"},"type":"Feature"},
	{"geometry":{"coordinates":[-0.322283,51.512637],"type":"Point"},"properties":{"amenity":"recycling","osm_id":"2181300778","tag":{"recycling:PET":"yes","recycling:cans":"yes","recycling:cardboard":"yes","recycling:clothes":"yes","recycling:glass":"yes","recycling:glass_bottles":"yes","recycling:paper":"yes","recycling:plastic":"yes","recycling:plastic_bottles":"yes","recycling:plastic_packaging":"yes","recycling:shoes":"yes","recycling:small_appliances":"yes","recycling_type":"container"}},"type":"Feature"},
	{"geometry":{"coordinates":[-0.338754,51.550851],"type":"Point"},"properties":{"amenity":"recycling","osm_id":"2294068872"},"type":"Feature"},
	{"geometry":{"coordinates":[-0.336244,51.556245],"type":"Point"},"properties":{"amenity":"recycling","osm_id":"2296364747","tag":{"recycling:cans":"yes","recycling:clothes":"yes","recycling:glass":"yes"}},"type":"Feature"},
	{"geometry":{"coordinates":[-0.32845,51.528903],"type":"Point"},"properties":{"amenity":"recycling","osm_id":"2309879420"},"type":"Feature"},
	{"geometry":{"coordinates":[-0.292273,51.553712],"type":"Point"},"properties":{"amenity":"waste_basket","osm_id":"2547657947"},"type":"Feature"},
	{"geometry":{"coordinates":[-0.292318,51.553746],"type":"Point"},"properties":{"amenity":"waste_basket","osm_id":"2547657966"},"type":"Feature"},
	{"geometry":{"coordinates":[-0.336385,51.556007],"type":"Point"},"properties":{"amenity":"waste_basket","osm_id":"2582823973"},"type":"Feature"},
	{"geometry":{"coordinates":[-0.336259,51.556202],"type":"Point"},"properties":{"amenity":"waste_basket","osm_id":"2582823986"},"type":"Feature"},
	{"geometry":{"coordinates":[-0.347772,51.562368],"type":"Point"},"properties":{"amenity":"waste_basket","osm_id":"2771231226"},"type":"Feature"},
	{"geometry":{"coordinates":[-0.319528,51.534634],"type":"Point"},"properties":{"amenity":"recycling","osm_id":"3146836856"},"type":"Feature"},
	{"geometry":{"coordinates":[-0.327301,51.552936],"type":"Point"},"properties":{"amenity":"waste_basket","osm_id":"3306180676"},"type":"Feature"},
	{"geometry":{"coordinates":[-0.327679,51.543634],"type":"Point"},"properties":{"amenity":"waste_basket","osm_id":"3306197589"},"type":"Feature"},
	{"geometry":{"coordinates":[-0.326051,51.542717],"type":"Point"},"properties":{"amenity":"waste_basket","osm_id":"3306197590"},"type":"Feature"},
	{"geometry":{"coordinates":[-0.328894,51.546835],"type":"Point"},"properties":{"amenity":"waste_basket","osm_id":"3306197591"},"type":"Feature"},
	{"geometry":{"coordinates":[-0.329841,51.54848],"type":"Point"},"properties":{"amenity":"waste_basket","osm_id":"3306197592"},"type":"Feature"},
	{"geometry":{"coordinates":[-0.327275,51.548008],"type":"Point"},"properties":{"amenity":"waste_basket","osm_id":"3306197593"},"type":"Feature"},
	{"geometry":{"coordinates":[-0.33034,51.548955],"type":"Point"},"properties":{"amenity":"waste_basket","osm_id":"3306200845"},"type":"Feature"},
	{"geometry":{"coordinates":[-0.327873,51.547491],"type":"Point"},"properties":{"amenity":"waste_basket","osm_id":"3337968572"},"type":"Feature"},
	{"geometry":{"coordinates":[-0.328525,51.547089],"type":"Point"},"properties":{"amenity":"waste_basket","osm_id":"3337968573"},"type":"Feature"},
	{"geometry":{"coordinates":[-0.326248,51.5471],"type":"Point"},"properties":{"amenity":"waste_basket","osm_id":"3338195279"},"type":"Feature"},
	{"geometry":{"coordinates":[-0.348702,51.560681],"type":"Point"},"properties":{"amenity":"waste_basket","osm_id":"3566761781","tag":{"waste":"dog_excrement"}},"type":"Feature"},
	{"geometry":{"coordinates":[-0.309419,51.526959],"type":"Point"},"properties":{"amenity":"waste_basket","osm_id":"5940198825","tag":{"waste":"trash"}},"type":"Feature"},
	{"geometry":{"coordinates":[-0.324389,51.545086],"type":"Point"},"properties":{"amenity":"waste_basket","osm_id":"5954791083"},"type":"Feature"},
	{"geometry":{"coordinates":[-0.277042,51.541825],"type":"Point"},"properties":{"amenity":"waste_basket","osm_id":"6283076775"},"type":"Feature"},
	{"geometry":{"coordinates":[-0.308971,51.509467],"type":"Point"},"properties":{"amenity":"waste_basket","osm_id":"6516677064"},"type":"Feature"},
	{"geometry":{"coordinates":[-0.308766,51.509603],"type":"Point"},"properties":{"amenity":"waste_basket","osm_id":"6516677066"},"type":"Feature"},
	{"geometry":{"coordinates":[-0.308821,51.509846],"type":"Point"},"properties":{"amenity":"waste_basket","osm_id":"6516677067"},"type":"Feature"},
	{"geometry":{"coordinates":[-0.307684,51.510586],"type":"Point"},"properties":{"amenity":"waste_basket","osm_id":"6516677071"},"type":"Feature"},
	{"geometry":{"coordinates":[-0.308608,51.511036],"type":"Point"},"properties":{"amenity":"waste_basket","osm_id":"6516677078"},"type":"Feature"},
	{"geometry":{"coordinates":[-0.309579,51.510913],"type":"Point"},"properties":{"amenity":"waste_basket","osm_id":"6516677081"},"type":"Feature"},
	{"geometry":{"coordinates":[-0.311019,51.510709],"type":"Point"},"properties":{"amenity":"waste_basket","osm_id":"6516677084"},"type":"Feature"},
	{"geometry":{"coordinates":[-0.310137,51.509942],"type":"Point"},"properties":{"amenity":"waste_basket","osm_id":"6516684428"},"type":"Feature"},
	{"geometry":{"coordinates":[-0.31188,51.510548],"type":"Point"},"properties":{"amenity":"waste_basket","osm_id":"6516700086"},"type":"Feature"},
	{"geometry":{"coordinates":[-0.312383,51.509619],"type":"Point"},"properties":{"amenity":"waste_basket","osm_id":"6516700090"},"type":"Feature"},
	{"geometry":{"coordinates":[-0.311944,51.508891],"type":"Point"},"properties":{"amenity":"waste_basket","osm_id":"6516700091"},"type":"Feature"},
	{"geometry":{"coordinates":[-0.305547,51.510454],"type":"Point"},"properties":{"amenity":"waste_basket","osm_id":"6535288634","tag":{"waste":"trash"}},"type":"Feature"},
	{"geometry":{"coordinates":[-0.305574,51.510492],"type":"Point"},"properties":{"amenity":"recycling","osm_id":"6535288637","tag":{"recycling_type":"container"}},"type":"Feature"},
	{"geometry":{"coordinates":[-0.30522,51.508878],"type":"Point"},"properties":{"amenity":"waste_basket","osm_id":"6535290105","tag":{"waste":"trash"}},"type":"Feature"},
	{"geometry":{"coordinates":[-0.305425,51.509233],"type":"Point"},"properties":{"amenity":"waste_basket","osm_id":"6535290108","tag":{"waste":"trash"}},"type":"Feature"},
	{"geometry":{"coordinates":[-0.315269,51.510105],"type":"Point"},"properties":{"amenity":"waste_basket","osm_id":"6535305545","tag":{"waste":"trash"}},"type":"Feature"},
	{"geometry":{"coordinates":[-0.311834,51.510582],"type":"Point"},"properties":{"amenity":"waste_basket","osm_id":"6535358396","tag":{"waste":"trash"}},"type":"Feature"},
	{"geometry":{"coordinates":[-0.311878,51.510525],"type":"Point"},"properties":{"amenity":"recycling","osm_id":"6535358397","tag":{"recycling_type":"container"}},"type":"Feature"},
	{"geometry":{"coordinates":[-0.311814,51.510585],"type":"Point"},"properties":{"amenity":"recycling","osm_id":"6535358398","tag":{"recycling_type":"container"}},"type":"Feature"},
	{"geometry":{"coordinates":[-0.325909,51.546055],"type":"Point"},"properties":{"amenity":"waste_basket","osm_id":"7640490481"},"type":"Feature"},
	{"geometry":{"coordinates":[-0.322345,51.527113],"type":"Point"},"properties":{"amenity":"waste_basket","osm_id":"7653496213","tag":{"backrest":"yes","waste":"trash"}},"type":"Feature"},
	{"geometry":{"coordinates":[-0.319495,51.514818],"type":"Point"},"properties":{"amenity":"waste_basket","osm_id":"7653535886","tag":{"waste":"trash"}},"type":"Feature"},
	{"geometry":{"coordinates":[-0.329994,51.549366],"type":"Point"},"properties":{"amenity":"waste_basket","osm_id":"7657123342"},"type":"Feature"},
	{"geometry":{"coordinates":[-0.324945,51.550367],"type":"Point"},"properties":{"amenity":"waste_basket","osm_id":"7657123343"},"type":"Feature"},
	{"geometry":{"coordinates":[-0.318275,51.509817],"type":"Point"},"properties":{"amenity":"waste_basket","osm_id":"7702639713","tag":{"waste":"trash"}},"type":"Feature"}
]
}
