{
"type": "FeatureCollection",
"lastupdate": "2020-07-30T00:29:16Z",
"features": [
	{"geometry":{"coordinates":[-3.24304,55.956822],"type":"Point"},"properties":{"amenity":"recycling","osm_id":"27295061","tag":{"location":"overground","recycling_type":"container"}},"type":"Feature"},
	{"geometry":{"coordinates":[-3.248283,55.924753],"type":"Point"},"properties":{"amenity":"recycling","osm_id":"29433835","tag":{"recycling_type":"container"}},"type":"Feature"},
	{"geometry":{"coordinates":[-3.213739,55.933917],"type":"Point"},"properties":{"amenity":"recycling","osm_id":"33834482"},"type":"Feature"},
	{"geometry":{"coordinates":[-3.243226,55.956989],"type":"Point"},"properties":{"amenity":"recycling","osm_id":"36982374","tag":{"location":"overground","recycling_type":"container"}},"type":"Feature"},
	{"geometry":{"coordinates":[-3.230777,55.970186],"type":"Point"},"properties":{"amenity":"recycling","osm_id":"36982375","tag":{"recycling_type":"container"}},"type":"Feature"},
	{"geometry":{"coordinates":[-3.239429,55.938385],"type":"Point"},"properties":{"amenity":"recycling","osm_id":"264129598","tag":{"location":"overground","recycling:beverage_cartons":"yes","recycling:cans":"yes","recycling:cardboard":"yes","recycling:cartons":"yes","recycling:glass":"yes","recycling:magazines":"yes","recycling:newspaper":"yes","recycling:paper":"yes","recycling:paper_packaging":"yes","recycling:plastic":"yes","recycling:waste":"yes","recycling_type":"container"}},"type":"Feature"},
	{"geometry":{"coordinates":[-3.22225,55.943048],"type":"Point"},"properties":{"amenity":"recycling","osm_id":"264129708","tag":{"recycling_type":"container"}},"type":"Feature"},
	{"geometry":{"coordinates":[-3.187333,55.945722],"type":"Point"},"properties":{"amenity":"recycling","osm_id":"303022809","tag":{"recycling:aluminium":"yes","recycling:beverage_cartons":"yes","recycling:cans":"yes","recycling:cardboard":"yes","recycling:cartons":"yes","recycling:clothes":"yes","recycling:foil":"yes","recycling:glass":"yes","recycling:glass_bottles":"yes","recycling:magazines":"yes","recycling:newspaper":"yes","recycling:paper":"yes","recycling:paper_packaging":"yes","recycling:plastic_bottles":"yes","recycling_type":"container"}},"type":"Feature"},
	{"geometry":{"coordinates":[-3.194244,55.936111],"type":"Point"},"properties":{"amenity":"recycling","osm_id":"443851378","tag":{"recycling:glass":"yes","recycling:paper":"yes","recycling_type":"container"}},"type":"Feature"},
	{"geometry":{"coordinates":[-3.208624,55.935959],"type":"Point"},"properties":{"amenity":"recycling","osm_id":"444778139","tag":{"description":"Bruntsfield Gardens","operator":"City of Edinburgh Council","recording:packaging":"yes","recycling:organic":"yes","recycling:paper":"yes","recycling_type":"container"}},"type":"Feature"},
	{"geometry":{"coordinates":[-3.210648,55.925141],"type":"Point"},"properties":{"amenity":"recycling","osm_id":"474987265","tag":{"recycling_type":"container"}},"type":"Feature"},
	{"geometry":{"coordinates":[-3.225187,55.934576],"type":"Point"},"properties":{"amenity":"recycling","osm_id":"482354915","tag":{"recycling:beverage_cartons":"yes","recycling:cans":"yes","recycling:cardboard":"yes","recycling:cartons":"yes","recycling:glass_bottles":"yes","recycling:green_waste":"yes","recycling:magazines":"yes","recycling:newspaper":"yes","recycling:organic":"yes","recycling:paper":"yes","recycling:paper_packaging":"yes","recycling:plastic":"yes","recycling:plastic_bottles":"yes","recycling:plastic_packaging":"yes","recycling_type":"container"}},"type":"Feature"},
	{"geometry":{"coordinates":[-3.227801,55.934551],"type":"Point"},"properties":{"amenity":"recycling","osm_id":"482355336","tag":{"recycling:beverage_cartons":"yes","recycling:cans":"yes","recycling:cardboard":"yes","recycling:cartons":"yes","recycling:green_waste":"yes","recycling:magazines":"yes","recycling:newspaper":"yes","recycling:organic":"yes","recycling:paper":"yes","recycling:paper_packaging":"yes","recycling:plastic":"yes","recycling:plastic_bottles":"yes","recycling:plastic_packaging":"yes","recycling_type":"container"}},"type":"Feature"},
	{"geometry":{"coordinates":[-3.22916,55.933084],"type":"Point"},"properties":{"amenity":"recycling","osm_id":"482360252","tag":{"recycling:batteries":"no","recycling:books":"no","recycling:cans":"yes","recycling:cardboard":"yes","recycling:cartons":"yes","recycling:clothes":"no","recycling:electrical_appliances":"no","recycling:glass":"no","recycling:glass_bottles":"yes","recycling:green_waste":"no","recycling:magazines":"yes","recycling:newspaper":"yes","recycling:paper":"yes","recycling:paper_packaging":"yes","recycling:plastic":"yes","recycling:plastic_bottles":"yes","recycling:plastic_packaging":"yes","recycling:scrap_metal":"no","recycling:small_appliances":"no","recycling:waste":"no","recycling:wood":"no","recycling_type":"container"}},"type":"Feature"},
	{"geometry":{"coordinates":[-3.181358,55.94486],"type":"Point"},"properties":{"amenity":"recycling","osm_id":"509703105","tag":{"location":"overground","recycling_type":"container"}},"type":"Feature"},
	{"geometry":{"coordinates":[-3.230746,55.966395],"type":"Point"},"properties":{"amenity":"recycling","osm_id":"510495127"},"type":"Feature"},
	{"geometry":{"coordinates":[-3.168768,55.956222],"type":"Point"},"properties":{"amenity":"recycling","osm_id":"523976985"},"type":"Feature"},
	{"geometry":{"coordinates":[-3.251636,55.924758],"type":"Point"},"properties":{"amenity":"recycling","osm_id":"570011156","tag":{"recycling:cans":"yes","recycling:glass":"yes","recycling:paper":"yes","recycling_type":"container"}},"type":"Feature"},
	{"geometry":{"coordinates":[-3.180844,55.960927],"type":"Point"},"properties":{"amenity":"recycling","osm_id":"588498396","tag":{"recycling:paper":"yes","recycling:scrap_metal":"no","recycling_type":"container"}},"type":"Feature"},
	{"geometry":{"coordinates":[-3.180877,55.96059],"type":"Point"},"properties":{"amenity":"recycling","osm_id":"588498397","tag":{"location":"overground","recycling:cans":"yes","recycling:glass":"no","recycling:paper":"yes","recycling:plastic":"yes","recycling_type":"container"}},"type":"Feature"},
	{"geometry":{"coordinates":[-3.180334,55.959256],"type":"Point"},"properties":{"amenity":"recycling","osm_id":"588498398","tag":{"recycling:paper":"yes","recycling:scrap_metal":"no"}},"type":"Feature"},
	{"geometry":{"coordinates":[-3.18006,55.959274],"type":"Point"},"properties":{"amenity":"recycling","osm_id":"588498399","tag":{"recycling:cans":"yes","recycling:plastic":"yes"}},"type":"Feature"},
	{"geometry":{"coordinates":[-3.178694,55.95947],"type":"Point"},"properties":{"amenity":"recycling","osm_id":"588498401","tag":{"recycling:cans":"yes","recycling:paper":"yes","recycling:plastic":"yes","recycling_type":"container"}},"type":"Feature"},
	{"geometry":{"coordinates":[-3.178181,55.959361],"type":"Point"},"properties":{"amenity":"recycling","osm_id":"588498402","tag":{"recycling:cans":"yes","recycling:paper":"yes","recycling:plastic":"yes","recycling_type":"container"}},"type":"Feature"},
	{"geometry":{"coordinates":[-3.17646,55.959289],"type":"Point"},"properties":{"amenity":"recycling","osm_id":"588498403","tag":{"recycling:cans":"yes","recycling:paper":"yes","recycling:plastic":"yes","recycling_type":"container"}},"type":"Feature"},
	{"geometry":{"coordinates":[-3.17531,55.959124],"type":"Point"},"properties":{"amenity":"recycling","osm_id":"588498406","tag":{"recycling:cans":"yes","recycling:paper":"yes","recycling:plastic":"yes","recycling_type":"container"}},"type":"Feature"},
	{"geometry":{"coordinates":[-3.174059,55.958943],"type":"Point"},"properties":{"amenity":"recycling","osm_id":"588498414","tag":{"recycling:cans":"yes","recycling:glass":"yes","recycling:paper":"yes","recycling:plastic":"yes"}},"type":"Feature"},
	{"geometry":{"coordinates":[-3.172945,55.959626],"type":"Point"},"properties":{"amenity":"recycling","osm_id":"588498418","tag":{"recycling:cans":"yes","recycling:organic":"yes","recycling:paper":"yes","recycling:plastic":"yes"}},"type":"Feature"},
	{"geometry":{"coordinates":[-3.172545,55.960553],"type":"Point"},"properties":{"amenity":"recycling","osm_id":"588498419","tag":{"recycling:cans":"yes","recycling:paper":"yes","recycling:plastic":"yes"}},"type":"Feature"},
	{"geometry":{"coordinates":[-3.170687,55.964329],"type":"Point"},"properties":{"amenity":"recycling","osm_id":"588498431","tag":{"recycling:paper":"yes"}},"type":"Feature"},
	{"geometry":{"coordinates":[-3.169075,55.969076],"type":"Point"},"properties":{"amenity":"recycling","osm_id":"588498438","tag":{"recycling:cans":"yes","recycling:clothes":"yes","recycling:glass":"yes","recycling:paper":"yes","recycling:plastic":"yes","recycling_type":"container"}},"type":"Feature"},
	{"geometry":{"coordinates":[-3.168601,55.973728],"type":"Point"},"properties":{"amenity":"recycling","osm_id":"588498454","tag":{"recycling:cans":"yes","recycling:paper":"yes","recycling:plastic":"yes"}},"type":"Feature"},
	{"geometry":{"coordinates":[-3.182594,55.969752],"type":"Point"},"properties":{"amenity":"recycling","osm_id":"590885200","tag":{"recycling:cans":"yes","recycling:paper":"yes","recycling:plastic":"yes"}},"type":"Feature"},
	{"geometry":{"coordinates":[-3.177612,55.971484],"type":"Point"},"properties":{"amenity":"recycling","osm_id":"590885207","tag":{"recycling:cans":"yes","recycling:paper":"yes","recycling:plastic":"yes","recycling_type":"container"}},"type":"Feature"},
	{"geometry":{"coordinates":[-3.17599,55.972359],"type":"Point"},"properties":{"amenity":"recycling","osm_id":"590885210","tag":{"recycling:cans":"yes","recycling:paper":"yes","recycling:plastic":"yes","recycling_type":"container"}},"type":"Feature"},
	{"geometry":{"coordinates":[-3.22861,55.933555],"type":"Point"},"properties":{"amenity":"recycling","osm_id":"597715048","tag":{"recycling:beverage_cartons":"yes","recycling:cans":"yes","recycling:cardboard":"yes","recycling:cartons":"yes","recycling:glass_bottles":"yes","recycling:paper_packaging":"yes","recycling:plastic":"yes","recycling:plastic_bottles":"yes","recycling:plastic_packaging":"yes","recycling_type":"container"}},"type":"Feature"},
	{"geometry":{"coordinates":[-3.169841,55.940461],"type":"Point"},"properties":{"amenity":"recycling","name":"Pollock Halls Glass Recycling","osm_id":"620537775"},"type":"Feature"},
	{"geometry":{"coordinates":[-3.200765,55.945476],"type":"Point"},"properties":{"amenity":"recycling","name":"Portsburgh Court","osm_id":"634805718"},"type":"Feature"},
	{"geometry":{"coordinates":[-3.193253,55.946499],"type":"Point"},"properties":{"amenity":"waste_basket","osm_id":"760111545"},"type":"Feature"},
	{"geometry":{"coordinates":[-3.194106,55.944922],"type":"Point"},"properties":{"amenity":"waste_basket","osm_id":"760111606"},"type":"Feature"},
	{"geometry":{"coordinates":[-3.186991,55.931474],"type":"Point"},"properties":{"amenity":"waste_basket","osm_id":"761696407"},"type":"Feature"},
	{"geometry":{"coordinates":[-3.18819,55.941647],"type":"Point"},"properties":{"amenity":"waste_basket","osm_id":"761696414"},"type":"Feature"},
	{"geometry":{"coordinates":[-3.186985,55.941241],"type":"Point"},"properties":{"amenity":"waste_basket","osm_id":"761696419"},"type":"Feature"},
	{"geometry":{"coordinates":[-3.198568,55.942339],"type":"Point"},"properties":{"amenity":"waste_basket","osm_id":"761696420"},"type":"Feature"},
	{"geometry":{"coordinates":[-3.181178,55.936898],"type":"Point"},"properties":{"amenity":"waste_basket","osm_id":"761696422"},"type":"Feature"},
	{"geometry":{"coordinates":[-3.221433,55.935755],"type":"Point"},"properties":{"amenity":"waste_basket","osm_id":"761696423"},"type":"Feature"},
	{"geometry":{"coordinates":[-3.198376,55.942359],"type":"Point"},"properties":{"amenity":"waste_basket","osm_id":"761696427"},"type":"Feature"},
	{"geometry":{"coordinates":[-3.190298,55.935461],"type":"Point"},"properties":{"amenity":"waste_basket","osm_id":"761696429"},"type":"Feature"},
	{"geometry":{"coordinates":[-3.224401,55.934128],"type":"Point"},"properties":{"amenity":"waste_basket","osm_id":"761696432"},"type":"Feature"},
	{"geometry":{"coordinates":[-3.191658,55.942624],"type":"Point"},"properties":{"amenity":"waste_basket","osm_id":"761696435"},"type":"Feature"},
	{"geometry":{"coordinates":[-3.191495,55.942472],"type":"Point"},"properties":{"amenity":"waste_basket","osm_id":"761696443"},"type":"Feature"},
	{"geometry":{"coordinates":[-3.1862,55.940984],"type":"Point"},"properties":{"amenity":"waste_basket","osm_id":"761696447"},"type":"Feature"},
	{"geometry":{"coordinates":[-3.221691,55.934758],"type":"Point"},"properties":{"amenity":"waste_basket","osm_id":"761696455"},"type":"Feature"},
	{"geometry":{"coordinates":[-3.196869,55.942474],"type":"Point"},"properties":{"amenity":"waste_basket","osm_id":"761696461"},"type":"Feature"},
	{"geometry":{"coordinates":[-3.223245,55.934078],"type":"Point"},"properties":{"amenity":"waste_basket","osm_id":"761696466"},"type":"Feature"},
	{"geometry":{"coordinates":[-3.196616,55.942484],"type":"Point"},"properties":{"amenity":"waste_basket","osm_id":"761696469"},"type":"Feature"},
	{"geometry":{"coordinates":[-3.20442,55.933309],"type":"Point"},"properties":{"amenity":"waste_basket","osm_id":"761696471"},"type":"Feature"},
	{"geometry":{"coordinates":[-3.19127,55.942472],"type":"Point"},"properties":{"amenity":"waste_basket","osm_id":"761696476"},"type":"Feature"},
	{"geometry":{"coordinates":[-3.188948,55.941868],"type":"Point"},"properties":{"amenity":"waste_basket","osm_id":"761696482"},"type":"Feature"},
	{"geometry":{"coordinates":[-3.203339,55.942157],"type":"Point"},"properties":{"amenity":"waste_basket","osm_id":"761696484"},"type":"Feature"},
	{"geometry":{"coordinates":[-3.183234,55.940163],"type":"Point"},"properties":{"amenity":"waste_basket","osm_id":"761696486"},"type":"Feature"},
	{"geometry":{"coordinates":[-3.189919,55.93538],"type":"Point"},"properties":{"amenity":"waste_basket","osm_id":"761696489"},"type":"Feature"},
	{"geometry":{"coordinates":[-3.200489,55.942158],"type":"Point"},"properties":{"amenity":"waste_basket","osm_id":"761696490"},"type":"Feature"},
	{"geometry":{"coordinates":[-3.212375,55.933367],"type":"Point"},"properties":{"amenity":"waste_basket","osm_id":"761696492"},"type":"Feature"},
	{"geometry":{"coordinates":[-3.180799,55.937562],"type":"Point"},"properties":{"amenity":"waste_basket","osm_id":"761696495"},"type":"Feature"},
	{"geometry":{"coordinates":[-3.2058,55.973389],"type":"Point"},"properties":{"amenity":"waste_basket","osm_id":"769327555"},"type":"Feature"},
	{"geometry":{"coordinates":[-3.201909,55.971975],"type":"Point"},"properties":{"amenity":"waste_basket","osm_id":"770199343"},"type":"Feature"},
	{"geometry":{"coordinates":[-3.20703,55.972743],"type":"Point"},"properties":{"amenity":"recycling","osm_id":"797643569"},"type":"Feature"},
	{"geometry":{"coordinates":[-3.23861,55.935814],"type":"Point"},"properties":{"amenity":"waste_basket","osm_id":"799921011"},"type":"Feature"},
	{"geometry":{"coordinates":[-3.237996,55.936698],"type":"Point"},"properties":{"amenity":"waste_basket","osm_id":"799921034"},"type":"Feature"},
	{"geometry":{"coordinates":[-3.189476,55.939474],"type":"Point"},"properties":{"amenity":"waste_basket","osm_id":"811413904"},"type":"Feature"},
	{"geometry":{"coordinates":[-3.171726,55.941643],"type":"Point"},"properties":{"amenity":"waste_basket","osm_id":"811413912"},"type":"Feature"},
	{"geometry":{"coordinates":[-3.175628,55.940203],"type":"Point"},"properties":{"amenity":"waste_basket","osm_id":"811413947"},"type":"Feature"},
	{"geometry":{"coordinates":[-3.170924,55.942007],"type":"Point"},"properties":{"amenity":"waste_basket","osm_id":"811413987"},"type":"Feature"},
	{"geometry":{"coordinates":[-3.185126,55.939699],"type":"Point"},"properties":{"amenity":"waste_basket","osm_id":"811413994"},"type":"Feature"},
	{"geometry":{"coordinates":[-3.207192,55.950302],"type":"Point"},"properties":{"amenity":"waste_basket","osm_id":"811643373"},"type":"Feature"},
	{"geometry":{"coordinates":[-3.20148,55.95126],"type":"Point"},"properties":{"amenity":"waste_basket","osm_id":"811643375"},"type":"Feature"},
	{"geometry":{"coordinates":[-3.193921,55.953335],"type":"Point"},"properties":{"amenity":"waste_basket","osm_id":"811643378"},"type":"Feature"},
	{"geometry":{"coordinates":[-3.20124,55.951297],"type":"Point"},"properties":{"amenity":"waste_basket","osm_id":"811643386"},"type":"Feature"},
	{"geometry":{"coordinates":[-3.188878,55.956613],"type":"Point"},"properties":{"amenity":"waste_basket","osm_id":"811643396"},"type":"Feature"},
	{"geometry":{"coordinates":[-3.185102,55.957746],"type":"Point"},"properties":{"amenity":"waste_basket","osm_id":"811643401"},"type":"Feature"},
	{"geometry":{"coordinates":[-3.191141,55.956212],"type":"Point"},"properties":{"amenity":"waste_basket","osm_id":"811643404"},"type":"Feature"},
	{"geometry":{"coordinates":[-3.19384,55.952587],"type":"Point"},"properties":{"amenity":"waste_basket","osm_id":"811643407"},"type":"Feature"},
	{"geometry":{"coordinates":[-3.204539,55.950724],"type":"Point"},"properties":{"amenity":"waste_basket","osm_id":"811643411"},"type":"Feature"},
	{"geometry":{"coordinates":[-3.198352,55.951797],"type":"Point"},"properties":{"amenity":"waste_basket","osm_id":"811643412"},"type":"Feature"},
	{"geometry":{"coordinates":[-3.194716,55.952425],"type":"Point"},"properties":{"amenity":"waste_basket","osm_id":"811643442"},"type":"Feature"},
	{"geometry":{"coordinates":[-3.205498,55.950553],"type":"Point"},"properties":{"amenity":"waste_basket","osm_id":"811643446"},"type":"Feature"},
	{"geometry":{"coordinates":[-3.19419,55.952524],"type":"Point"},"properties":{"amenity":"waste_basket","osm_id":"811643461"},"type":"Feature"},
	{"geometry":{"coordinates":[-3.20521,55.950601],"type":"Point"},"properties":{"amenity":"waste_basket","osm_id":"811643465"},"type":"Feature"},
	{"geometry":{"coordinates":[-3.198921,55.951708],"type":"Point"},"properties":{"amenity":"waste_basket","osm_id":"811643469"},"type":"Feature"},
	{"geometry":{"coordinates":[-3.195171,55.95235],"type":"Point"},"properties":{"amenity":"waste_basket","osm_id":"811643478"},"type":"Feature"},
	{"geometry":{"coordinates":[-3.172445,55.95756],"type":"Point"},"properties":{"amenity":"waste_basket","osm_id":"811643480"},"type":"Feature"},
	{"geometry":{"coordinates":[-3.205753,55.945877],"type":"Point"},"properties":{"amenity":"waste_basket","osm_id":"811643485"},"type":"Feature"},
	{"geometry":{"coordinates":[-3.206457,55.950429],"type":"Point"},"properties":{"amenity":"waste_basket","osm_id":"811643487"},"type":"Feature"},
	{"geometry":{"coordinates":[-3.175355,55.957494],"type":"Point"},"properties":{"amenity":"waste_basket","osm_id":"811643490"},"type":"Feature"},
	{"geometry":{"coordinates":[-3.192722,55.954696],"type":"Point"},"properties":{"amenity":"waste_basket","osm_id":"811643495"},"type":"Feature"},
	{"geometry":{"coordinates":[-3.196214,55.952168],"type":"Point"},"properties":{"amenity":"waste_basket","osm_id":"811643498"},"type":"Feature"},
	{"geometry":{"coordinates":[-3.199832,55.951551],"type":"Point"},"properties":{"amenity":"waste_basket","osm_id":"811643524"},"type":"Feature"},
	{"geometry":{"coordinates":[-3.178915,55.957611],"type":"Point"},"properties":{"amenity":"waste_basket","osm_id":"811643525"},"type":"Feature"},
	{"geometry":{"coordinates":[-3.193657,55.953728],"type":"Point"},"properties":{"amenity":"waste_basket","osm_id":"811643528"},"type":"Feature"},
	{"geometry":{"coordinates":[-3.187684,55.956799],"type":"Point"},"properties":{"amenity":"waste_basket","osm_id":"811643532"},"type":"Feature"},
	{"geometry":{"coordinates":[-3.19698,55.952046],"type":"Point"},"properties":{"amenity":"waste_basket","osm_id":"811643535"},"type":"Feature"},
	{"geometry":{"coordinates":[-3.192939,55.956081],"type":"Point"},"properties":{"amenity":"waste_basket","osm_id":"811643537"},"type":"Feature"},
	{"geometry":{"coordinates":[-3.200084,55.951511],"type":"Point"},"properties":{"amenity":"waste_basket","osm_id":"811643544"},"type":"Feature"},
	{"geometry":{"coordinates":[-3.18287,55.957769],"type":"Point"},"properties":{"amenity":"waste_basket","osm_id":"811643547"},"type":"Feature"},
	{"geometry":{"coordinates":[-3.189597,55.956467],"type":"Point"},"properties":{"amenity":"waste_basket","osm_id":"811643551"},"type":"Feature"},
	{"geometry":{"coordinates":[-3.202956,55.951018],"type":"Point"},"properties":{"amenity":"waste_basket","osm_id":"811643559"},"type":"Feature"},
	{"geometry":{"coordinates":[-3.200774,55.951383],"type":"Point"},"properties":{"amenity":"waste_basket","osm_id":"811643563"},"type":"Feature"},
	{"geometry":{"coordinates":[-3.206116,55.946988],"type":"Point"},"properties":{"amenity":"waste_basket","osm_id":"811643588"},"type":"Feature"},
	{"geometry":{"coordinates":[-3.249991,55.944976],"type":"Point"},"properties":{"amenity":"waste_basket","osm_id":"863018380"},"type":"Feature"},
	{"geometry":{"coordinates":[-3.240252,55.945745],"type":"Point"},"properties":{"amenity":"waste_basket","osm_id":"863018434"},"type":"Feature"},
	{"geometry":{"coordinates":[-3.235235,55.94582],"type":"Point"},"properties":{"amenity":"waste_basket","osm_id":"863018493"},"type":"Feature"},
	{"geometry":{"coordinates":[-3.244543,55.945333],"type":"Point"},"properties":{"amenity":"waste_basket","osm_id":"863018604"},"type":"Feature"},
	{"geometry":{"coordinates":[-3.208269,55.961254],"type":"Point"},"properties":{"amenity":"recycling","osm_id":"878675539","tag":{"description":"Paperbank","recycling_type":"container"}},"type":"Feature"},
	{"geometry":{"coordinates":[-3.226509,55.936035],"type":"Point"},"properties":{"amenity":"recycling","osm_id":"931676317","tag":{"operator":"Napier University","recycling:glass":"yes","recycling:paper":"yes","recycling_type":"container"}},"type":"Feature"},
	{"geometry":{"coordinates":[-3.204352,55.964667],"type":"Point"},"properties":{"amenity":"recycling","osm_id":"1128621584","tag":{"location":"overground","recycling:cans":"yes","recycling:plastic":"no","recycling:plastic_bottles":"yes","recycling:plastic_packaging":"no","recycling_type":"container"}},"type":"Feature"},
	{"geometry":{"coordinates":[-3.196659,55.963007],"type":"Point"},"properties":{"amenity":"recycling","osm_id":"1144039236","tag":{"recycling_type":"centre"}},"type":"Feature"},
	{"geometry":{"coordinates":[-3.210578,55.964887],"type":"Point"},"properties":{"amenity":"recycling","osm_id":"1151397331","tag":{"location":"overground","recycling:cans":"yes","recycling:glass_bottles":"yes","recycling:plastic":"no","recycling:plastic_bottles":"yes","recycling:plastic_packaging":"no","recycling_type":"container"}},"type":"Feature"},
	{"geometry":{"coordinates":[-3.211797,55.964079],"type":"Point"},"properties":{"amenity":"recycling","osm_id":"1151397586"},"type":"Feature"},
	{"geometry":{"coordinates":[-3.230285,55.971069],"type":"Point"},"properties":{"amenity":"recycling","osm_id":"1159595585","tag":{"recycling:clothes":"yes","recycling:glass":"yes","recycling:paper":"yes","recycling_type":"container"}},"type":"Feature"},
	{"geometry":{"coordinates":[-3.20591,55.968069],"type":"Point"},"properties":{"amenity":"waste_basket","osm_id":"1233206083"},"type":"Feature"},
	{"geometry":{"coordinates":[-3.202675,55.964887],"type":"Point"},"properties":{"amenity":"waste_basket","osm_id":"1233436974"},"type":"Feature"},
	{"geometry":{"coordinates":[-3.200572,55.959917],"type":"Point"},"properties":{"amenity":"waste_basket","osm_id":"1233912240"},"type":"Feature"},
	{"geometry":{"coordinates":[-3.201248,55.961174],"type":"Point"},"properties":{"amenity":"waste_basket","osm_id":"1233912289"},"type":"Feature"},
	{"geometry":{"coordinates":[-3.206387,55.97129],"type":"Point"},"properties":{"amenity":"waste_basket","osm_id":"1234947662"},"type":"Feature"},
	{"geometry":{"coordinates":[-3.20862,55.97064],"type":"Point"},"properties":{"amenity":"waste_basket","osm_id":"1234947849"},"type":"Feature"},
	{"geometry":{"coordinates":[-3.20699,55.971328],"type":"Point"},"properties":{"amenity":"waste_basket","osm_id":"1234947898"},"type":"Feature"},
	{"geometry":{"coordinates":[-3.207552,55.969549],"type":"Point"},"properties":{"amenity":"waste_basket","osm_id":"1234948019"},"type":"Feature"},
	{"geometry":{"coordinates":[-3.196555,55.97272],"type":"Point"},"properties":{"amenity":"recycling","osm_id":"1260900318","tag":{"location":"overground","recycling:cans":"yes","recycling:cardboard":"yes","recycling:cartons":"yes","recycling:envelopes":"yes","recycling:glass":"no","recycling:plastic_bags":"no","recycling:plastic_bottles":"yes","recycling_type":"container"}},"type":"Feature"},
	{"geometry":{"coordinates":[-3.196533,55.972723],"type":"Point"},"properties":{"amenity":"recycling","osm_id":"1260900491","tag":{"location":"overground","recycling:cardboard":"no","recycling:cartons":"no","recycling:envelopes":"no","recycling:magazines":"yes","recycling:newspaper":"yes","recycling:paper":"yes","recycling:plastic_bags":"no","recycling:telephone_directories":"yes","recycling_type":"container"}},"type":"Feature"},
	{"geometry":{"coordinates":[-3.196573,55.972717],"type":"Point"},"properties":{"amenity":"recycling","osm_id":"1260900538","tag":{"location":"overground","recycling:cans":"yes","recycling:cardboard":"yes","recycling:cartons":"yes","recycling:envelopes":"yes","recycling:glass":"no","recycling:plastic_bags":"no","recycling:plastic_bottles":"yes","recycling_type":"container"}},"type":"Feature"},
	{"geometry":{"coordinates":[-3.222705,55.939249],"type":"Point"},"properties":{"amenity":"recycling","osm_id":"1311722038","tag":{"recycling_type":"container"}},"type":"Feature"},
	{"geometry":{"coordinates":[-3.209529,55.926386],"type":"Point"},"properties":{"amenity":"recycling","osm_id":"1371003112","tag":{"access":"private","recycling:glass_bottles":"yes","recycling_type":"container"}},"type":"Feature"},
	{"geometry":{"coordinates":[-3.220347,55.93741],"type":"Point"},"properties":{"amenity":"recycling","osm_id":"1669500350","tag":{"recycling:cans":"yes","recycling:cardboard":"yes","recycling:cartons":"yes","recycling:magazines":"yes","recycling:newspaper":"yes","recycling:paper":"yes","recycling:paper_packaging":"yes","recycling:plastic_bottles":"yes","recycling_type":"container"}},"type":"Feature"},
	{"geometry":{"coordinates":[-3.218794,55.937145],"type":"Point"},"properties":{"amenity":"recycling","osm_id":"1669516343","tag":{"recycling:cardboard":"yes","recycling:cartons":"yes","recycling:plastic_bottles":"yes","recycling_type":"container"}},"type":"Feature"},
	{"geometry":{"coordinates":[-3.218575,55.937103],"type":"Point"},"properties":{"amenity":"recycling","osm_id":"1669516346","tag":{"recycling:magazines":"yes","recycling:newspaper":"yes","recycling:paper":"yes","recycling:paper_packaging":"yes","recycling_type":"container"}},"type":"Feature"},
	{"geometry":{"coordinates":[-3.175637,55.967551],"type":"Point"},"properties":{"amenity":"recycling","osm_id":"1678143951","tag":{"recycling_type":"container"}},"type":"Feature"},
	{"geometry":{"coordinates":[-3.178413,55.937295],"type":"Point"},"properties":{"amenity":"waste_basket","osm_id":"1882300374"},"type":"Feature"},
	{"geometry":{"coordinates":[-3.220861,55.962907],"type":"Point"},"properties":{"amenity":"recycling","osm_id":"1914717736","tag":{"recycling:glass":"yes"}},"type":"Feature"},
	{"geometry":{"coordinates":[-3.215122,55.944344],"type":"Point"},"properties":{"amenity":"recycling","osm_id":"1951389985","tag":{"operator":"City of Edinburgh Council","recycling:cans":"yes","recycling:cardboard":"yes","recycling:foil":"yes","recycling:magazines":"yes","recycling:newspaper":"yes","recycling:paper":"yes","recycling:plastic_packaging":"yes","recycling_type":"container"}},"type":"Feature"},
	{"geometry":{"coordinates":[-3.214691,55.944022],"type":"Point"},"properties":{"amenity":"recycling","osm_id":"1951389986","tag":{"operator":"City of Edinburgh Council","recycling:cans":"yes","recycling:cardboard":"yes","recycling:foil":"yes","recycling:magazines":"yes","recycling:newspaper":"yes","recycling:paper":"yes","recycling:plastic_packaging":"yes","recycling_type":"container"}},"type":"Feature"},
	{"geometry":{"coordinates":[-3.200529,55.959351],"type":"Point"},"properties":{"amenity":"recycling","osm_id":"2095179887","tag":{"location":"overground","recycling:cans":"yes","recycling:paper":"yes","recycling:plastic":"no","recycling:plastic_packaging":"yes","recycling_type":"container"}},"type":"Feature"},
	{"geometry":{"coordinates":[-3.205068,55.943107],"type":"Point"},"properties":{"amenity":"recycling","osm_id":"2103111444","tag":{"location":"overground","recycling_type":"container"}},"type":"Feature"},
	{"geometry":{"coordinates":[-3.195283,55.947661],"type":"Point"},"properties":{"amenity":"recycling","osm_id":"2112475057","tag":{"location":"underground","recycling_type":"container"}},"type":"Feature"},
	{"geometry":{"coordinates":[-3.196951,55.947245],"type":"Point"},"properties":{"amenity":"recycling","osm_id":"2265831242","tag":{"location":"underground","recycling:glass":"yes","recycling:packaging":"yes","recycling_type":"container"}},"type":"Feature"},
	{"geometry":{"coordinates":[-3.203528,55.952218],"type":"Point"},"properties":{"amenity":"waste_basket","osm_id":"2466426277"},"type":"Feature"},
	{"geometry":{"coordinates":[-3.196191,55.944793],"type":"Point"},"properties":{"amenity":"recycling","osm_id":"2692340334","tag":{"location":"overground","recycling_type":"container"}},"type":"Feature"},
	{"geometry":{"coordinates":[-3.223871,55.948565],"type":"Point"},"properties":{"amenity":"waste_basket","osm_id":"2731922568"},"type":"Feature"},
	{"geometry":{"coordinates":[-3.184388,55.960952],"type":"Point"},"properties":{"amenity":"waste_basket","osm_id":"2824404813"},"type":"Feature"},
	{"geometry":{"coordinates":[-3.201382,55.935636],"type":"Point"},"properties":{"amenity":"waste_basket","osm_id":"3109721131"},"type":"Feature"},
	{"geometry":{"coordinates":[-3.194755,55.925423],"type":"Point"},"properties":{"amenity":"waste_basket","osm_id":"3132214449"},"type":"Feature"},
	{"geometry":{"coordinates":[-3.202904,55.950631],"type":"Point"},"properties":{"amenity":"waste_basket","osm_id":"3173421382"},"type":"Feature"},
	{"geometry":{"coordinates":[-3.166559,55.950981],"type":"Point"},"properties":{"amenity":"waste_basket","osm_id":"3173421384"},"type":"Feature"},
	{"geometry":{"coordinates":[-3.198437,55.951051],"type":"Point"},"properties":{"amenity":"waste_basket","osm_id":"3173421386"},"type":"Feature"},
	{"geometry":{"coordinates":[-3.173897,55.972677],"type":"Point"},"properties":{"amenity":"recycling","osm_id":"3195489423","tag":{"recycling_type":"container"}},"type":"Feature"},
	{"geometry":{"coordinates":[-3.174068,55.972346],"type":"Point"},"properties":{"amenity":"recycling","osm_id":"3195592327","tag":{"recycling_type":"container"}},"type":"Feature"},
	{"geometry":{"coordinates":[-3.173427,55.972902],"type":"Point"},"properties":{"amenity":"waste_basket","osm_id":"3197000644"},"type":"Feature"},
	{"geometry":{"coordinates":[-3.174665,55.973379],"type":"Point"},"properties":{"amenity":"recycling","osm_id":"3197000886","tag":{"recycling_type":"container"}},"type":"Feature"},
	{"geometry":{"coordinates":[-3.176629,55.963405],"type":"Point"},"properties":{"amenity":"recycling","osm_id":"3203253982","tag":{"recycling:cans":"yes","recycling:cardboard":"yes","recycling:cartons":"yes","recycling:paper":"yes"}},"type":"Feature"},
	{"geometry":{"coordinates":[-3.175456,55.963638],"type":"Point"},"properties":{"amenity":"recycling","osm_id":"3203253983","tag":{"recycling:glass":"yes","recycling:glass_bottles":"yes","recycling_type":"container"}},"type":"Feature"},
	{"geometry":{"coordinates":[-3.174513,55.963666],"type":"Point"},"properties":{"amenity":"recycling","osm_id":"3203253985","tag":{"recycling:cans":"yes","recycling:cardboard":"yes","recycling:cartons":"yes","recycling:paper":"yes","recycling_type":"container"}},"type":"Feature"},
	{"geometry":{"coordinates":[-3.176057,55.963679],"type":"Point"},"properties":{"amenity":"recycling","osm_id":"3203253986","tag":{"recycling:cans":"yes","recycling:cardboard":"yes","recycling:cartons":"yes","recycling:paper":"yes","recycling_type":"container"}},"type":"Feature"},
	{"geometry":{"coordinates":[-3.175964,55.963772],"type":"Point"},"properties":{"amenity":"recycling","osm_id":"3203253988","tag":{"recycling:cans":"yes","recycling:cardboard":"yes","recycling:cartons":"yes","recycling:paper":"yes","recycling_type":"container"}},"type":"Feature"},
	{"geometry":{"coordinates":[-3.173377,55.973274],"type":"Point"},"properties":{"amenity":"recycling","osm_id":"3203320898","tag":{"recycling_type":"container"}},"type":"Feature"},
	{"geometry":{"coordinates":[-3.172186,55.972297],"type":"Point"},"properties":{"amenity":"recycling","osm_id":"3204960691"},"type":"Feature"},
	{"geometry":{"coordinates":[-3.172608,55.972723],"type":"Point"},"properties":{"amenity":"recycling","osm_id":"3204960708"},"type":"Feature"},
	{"geometry":{"coordinates":[-3.216488,55.952347],"type":"Point"},"properties":{"amenity":"waste_basket","osm_id":"3320983044"},"type":"Feature"},
	{"geometry":{"coordinates":[-3.209328,55.926743],"type":"Point"},"properties":{"amenity":"waste_basket","osm_id":"3339742680"},"type":"Feature"},
	{"geometry":{"coordinates":[-3.209088,55.925474],"type":"Point"},"properties":{"amenity":"waste_basket","osm_id":"3355806998"},"type":"Feature"},
	{"geometry":{"coordinates":[-3.202325,55.925693],"type":"Point"},"properties":{"amenity":"waste_basket","osm_id":"3355807000"},"type":"Feature"},
	{"geometry":{"coordinates":[-3.208686,55.926539],"type":"Point"},"properties":{"amenity":"waste_basket","osm_id":"3355807004"},"type":"Feature"},
	{"geometry":{"coordinates":[-3.208937,55.927723],"type":"Point"},"properties":{"amenity":"waste_basket","osm_id":"3373809032"},"type":"Feature"},
	{"geometry":{"coordinates":[-3.20953,55.928065],"type":"Point"},"properties":{"amenity":"waste_basket","osm_id":"3373809033","tag":{"colour":"black","material":"metal"}},"type":"Feature"},
	{"geometry":{"coordinates":[-3.217762,55.924625],"type":"Point"},"properties":{"amenity":"waste_basket","osm_id":"3375127899"},"type":"Feature"},
	{"geometry":{"coordinates":[-3.20939,55.928754],"type":"Point"},"properties":{"amenity":"waste_basket","osm_id":"3379346278","tag":{"colour":"black","material":"metal"}},"type":"Feature"},
	{"geometry":{"coordinates":[-3.205686,55.929062],"type":"Point"},"properties":{"amenity":"waste_basket","osm_id":"3379346280","tag":{"colour":"blue","material":"metal","operator":"City of Edinburgh Council"}},"type":"Feature"},
	{"geometry":{"coordinates":[-3.205718,55.929443],"type":"Point"},"properties":{"amenity":"recycling","osm_id":"3379346286","tag":{"operator":"City of Edinburgh Council","recycling:cans":"yes","recycling:cardboard":"yes","recycling:foil":"yes","recycling:plastic_packaging":"yes","recycling_type":"container"}},"type":"Feature"},
	{"geometry":{"coordinates":[-3.205699,55.929445],"type":"Point"},"properties":{"amenity":"recycling","osm_id":"3379346287","tag":{"operator":"City of Edinburgh Council","recycling:cans":"yes","recycling:cardboard":"yes","recycling:foil":"yes","recycling:plastic_packaging":"yes","recycling_type":"container"}},"type":"Feature"},
	{"geometry":{"coordinates":[-3.205677,55.929448],"type":"Point"},"properties":{"amenity":"recycling","osm_id":"3379346288","tag":{"operator":"City of Edinburgh Council","recycling:magazines":"yes","recycling:newspaper":"yes","recycling:paper":"yes","recycling_type":"container"}},"type":"Feature"},
	{"geometry":{"coordinates":[-3.251367,55.944696],"type":"Point"},"properties":{"amenity":"waste_basket","osm_id":"3457588811"},"type":"Feature"},
	{"geometry":{"coordinates":[-3.251604,55.944823],"type":"Point"},"properties":{"amenity":"waste_basket","osm_id":"3457588812"},"type":"Feature"},
	{"geometry":{"coordinates":[-3.236675,55.938617],"type":"Point"},"properties":{"amenity":"recycling","osm_id":"3720325230","tag":{"recycling:glass":"yes","recycling_type":"container"}},"type":"Feature"},
	{"geometry":{"coordinates":[-3.191847,55.96478],"type":"Point"},"properties":{"amenity":"recycling","osm_id":"3761990793","tag":{"location":"overground","recycling_type":"container"}},"type":"Feature"},
	{"geometry":{"coordinates":[-3.212829,55.942561],"type":"Point"},"properties":{"amenity":"waste_basket","osm_id":"3778398052"},"type":"Feature"},
	{"geometry":{"coordinates":[-3.212974,55.942653],"type":"Point"},"properties":{"amenity":"waste_basket","osm_id":"3778408264"},"type":"Feature"},
	{"geometry":{"coordinates":[-3.213076,55.942725],"type":"Point"},"properties":{"amenity":"waste_basket","osm_id":"3778408273"},"type":"Feature"},
	{"geometry":{"coordinates":[-3.214134,55.943358],"type":"Point"},"properties":{"amenity":"waste_basket","osm_id":"3778408315"},"type":"Feature"},
	{"geometry":{"coordinates":[-3.200043,55.937934],"type":"Point"},"properties":{"amenity":"recycling","osm_id":"3778418329","tag":{"description":"119 Warrender Park Road","operator":"City of Edinburgh Council","recycling_type":"container"}},"type":"Feature"},
	{"geometry":{"coordinates":[-3.200439,55.937949],"type":"Point"},"properties":{"amenity":"recycling","osm_id":"3778418330","tag":{" James Gillespies High School":null,"description":"Warrender Park Road","operator":"City of Edinburgh Council","recycling:organic":"yes","recycling:packaging":"yes","recycling:paper":"yes","recycling_type":"container"}},"type":"Feature"},
	{"geometry":{"coordinates":[-3.199894,55.937866],"type":"Point"},"properties":{"amenity":"waste_basket","osm_id":"3778418331"},"type":"Feature"},
	{"geometry":{"coordinates":[-3.203212,55.938013],"type":"Point"},"properties":{"amenity":"recycling","osm_id":"3778418333","tag":{"description":"1 Warrender Park Crescent","operator":"City of Edinburgh Council","recycling:glass":"yes","recycling:packaging":"yes","recycling:paper":"yes","recycling_type":"container"}},"type":"Feature"},
	{"geometry":{"coordinates":[-3.20046,55.937826],"type":"Point"},"properties":{"amenity":"waste_basket","osm_id":"3778418334"},"type":"Feature"},
	{"geometry":{"coordinates":[-3.200749,55.93891],"type":"Point"},"properties":{"amenity":"waste_basket","osm_id":"3778418340"},"type":"Feature"},
	{"geometry":{"coordinates":[-3.200709,55.938916],"type":"Point"},"properties":{"amenity":"recycling","osm_id":"3786489725","tag":{"description":"23-24 Warrender Park Crescent","operator":"City of Edinburgh Council","recycling:glass":"yes","recycling:packaging":"yes","recycling:paper":"yes","recycling_type":"container"}},"type":"Feature"},
	{"geometry":{"coordinates":[-3.192862,55.938085],"type":"Point"},"properties":{"amenity":"waste_basket","osm_id":"3876815689"},"type":"Feature"},
	{"geometry":{"coordinates":[-3.203861,55.926935],"type":"Point"},"properties":{"amenity":"recycling","osm_id":"3883889912","tag":{"operator":"City of Edinburgh Council","recycling:cans":"yes","recycling:glass_bottles":"yes","recycling:paper":"yes","recycling:plastic":"no","recycling:plastic_packaging":"yes","recycling_type":"container","waste":"food"}},"type":"Feature"},
	{"geometry":{"coordinates":[-3.203875,55.926938],"type":"Point"},"properties":{"amenity":"recycling","osm_id":"3883889913","tag":{"operator":"City of Edinburgh Council","recycling:glass_bottles":"yes","recycling_type":"container"}},"type":"Feature"},
	{"geometry":{"coordinates":[-3.203864,55.926943],"type":"Point"},"properties":{"amenity":"recycling","osm_id":"3883889914","tag":{"operator":"City of Edinburgh Council","recycling:cans":"yes","recycling:cardboard":"yes","recycling:foil":"yes","recycling:magazines":"yes","recycling:newspaper":"yes","recycling:paper":"yes","recycling:plastic_packaging":"yes","recycling_type":"container"}},"type":"Feature"},
	{"geometry":{"coordinates":[-3.209665,55.927863],"type":"Point"},"properties":{"amenity":"recycling","osm_id":"3883890208","tag":{"operator":"City of Edinburgh Council","recycling:cans":"yes","recycling:cardboard":"yes","recycling:foil":"yes","recycling:plastic_packaging":"yes","recycling_type":"container"}},"type":"Feature"},
	{"geometry":{"coordinates":[-3.209654,55.927863],"type":"Point"},"properties":{"amenity":"recycling","osm_id":"3883890209","tag":{"operator":"City of Edinburgh Council","recycling:cans":"yes","recycling:cardboard":"yes","recycling:foil":"yes","recycling:plastic_packaging":"yes","recycling_type":"container"}},"type":"Feature"},
	{"geometry":{"coordinates":[-3.209643,55.927863],"type":"Point"},"properties":{"amenity":"recycling","osm_id":"3883890210","tag":{"operator":"City of Edinburgh Council","recycling:magazines":"yes","recycling:newspaper":"yes","recycling:paper":"yes","recycling_type":"container"}},"type":"Feature"},
	{"geometry":{"coordinates":[-3.204156,55.92791],"type":"Point"},"properties":{"amenity":"recycling","osm_id":"3883890225","tag":{"operator":"City of Edinburgh Council","recycling:glass_bottles":"yes","recycling_type":"container","waste":"food"}},"type":"Feature"},
	{"geometry":{"coordinates":[-3.20417,55.927913],"type":"Point"},"properties":{"amenity":"recycling","osm_id":"3883890226","tag":{"operator":"City of Edinburgh Council","recycling:glass_bottles":"yes","recycling_type":"container"}},"type":"Feature"},
	{"geometry":{"coordinates":[-3.204158,55.927918],"type":"Point"},"properties":{"amenity":"recycling","osm_id":"3883890229","tag":{"operator":"City of Edinburgh Council","recycling:cans":"yes","recycling:cardboard":"yes","recycling:foil":"yes","recycling:magazines":"yes","recycling:newspaper":"yes","recycling:paper":"yes","recycling:plastic_packaging":"yes","recycling_type":"container"}},"type":"Feature"},
	{"geometry":{"coordinates":[-3.20437,55.928049],"type":"Point"},"properties":{"amenity":"recycling","osm_id":"3883890377","tag":{"operator":"City of Edinburgh Council","recycling:paper":"yes","recycling:plastic":"no","recycling:plastic_packaging":"yes","recycling_type":"container","waste":"food"}},"type":"Feature"},
	{"geometry":{"coordinates":[-3.205518,55.928965],"type":"Point"},"properties":{"amenity":"waste_basket","osm_id":"3883890671","tag":{"colour":"black","material":"metal","operator":"City of Edinburgh Council"}},"type":"Feature"},
	{"geometry":{"coordinates":[-3.199261,55.963112],"type":"Point"},"properties":{"amenity":"waste_basket","osm_id":"3948151872"},"type":"Feature"},
	{"geometry":{"coordinates":[-3.198241,55.925196],"type":"Point"},"properties":{"amenity":"waste_basket","osm_id":"4069194568"},"type":"Feature"},
	{"geometry":{"coordinates":[-3.184291,55.940811],"type":"Point"},"properties":{"amenity":"waste_basket","osm_id":"4124564511"},"type":"Feature"},
	{"geometry":{"coordinates":[-3.184371,55.940735],"type":"Point"},"properties":{"amenity":"waste_basket","osm_id":"4124564512"},"type":"Feature"},
	{"geometry":{"coordinates":[-3.184492,55.940549],"type":"Point"},"properties":{"amenity":"waste_basket","osm_id":"4124564514"},"type":"Feature"},
	{"geometry":{"coordinates":[-3.185595,55.945877],"type":"Point"},"properties":{"amenity":"waste_basket","osm_id":"4155675710"},"type":"Feature"},
	{"geometry":{"coordinates":[-3.185324,55.946058],"type":"Point"},"properties":{"amenity":"waste_basket","osm_id":"4155675743"},"type":"Feature"},
	{"geometry":{"coordinates":[-3.193423,55.93494],"type":"Point"},"properties":{"amenity":"waste_basket","osm_id":"4156076111"},"type":"Feature"},
	{"geometry":{"coordinates":[-3.19095,55.946159],"type":"Point"},"properties":{"amenity":"waste_basket","osm_id":"4198732332"},"type":"Feature"},
	{"geometry":{"coordinates":[-3.201987,55.943197],"type":"Point"},"properties":{"amenity":"waste_basket","osm_id":"4221369049"},"type":"Feature"},
	{"geometry":{"coordinates":[-3.194289,55.925637],"type":"Point"},"properties":{"amenity":"waste_basket","osm_id":"4234187203"},"type":"Feature"},
	{"geometry":{"coordinates":[-3.19446,55.925943],"type":"Point"},"properties":{"amenity":"waste_basket","osm_id":"4234187206"},"type":"Feature"},
	{"geometry":{"coordinates":[-3.191383,55.945082],"type":"Point"},"properties":{"amenity":"waste_basket","osm_id":"4242766440"},"type":"Feature"},
	{"geometry":{"coordinates":[-3.20372,55.937421],"type":"Point"},"properties":{"amenity":"waste_basket","osm_id":"4248591887","tag":{"operator":"City of Edinburgh Council"}},"type":"Feature"},
	{"geometry":{"coordinates":[-3.203821,55.937471],"type":"Point"},"properties":{"amenity":"waste_basket","osm_id":"4248592490","tag":{"operator":"City of Edinburgh Council"}},"type":"Feature"},
	{"geometry":{"coordinates":[-3.204511,55.939856],"type":"Point"},"properties":{"amenity":"waste_basket","osm_id":"4258387227"},"type":"Feature"},
	{"geometry":{"coordinates":[-3.203249,55.940842],"type":"Point"},"properties":{"amenity":"recycling","osm_id":"4258387234","tag":{"operator":"City of Edinburgh Council","recycling:cans":"yes","recycling:cardboard":"yes","recycling:foil":"yes","recycling:magazines":"yes","recycling:newspaper":"yes","recycling:paper":"yes","recycling:plastic_packaging":"yes","recycling_type":"container"}},"type":"Feature"},
	{"geometry":{"coordinates":[-3.202115,55.939558],"type":"Point"},"properties":{"amenity":"waste_basket","osm_id":"4259458910","tag":{"colour":"black","material":"metal","operator":"City of Edinburgh Council"}},"type":"Feature"},
	{"geometry":{"coordinates":[-3.200912,55.940702],"type":"Point"},"properties":{"amenity":"waste_basket","osm_id":"4259458911","tag":{"colour":"black","material":"metal","operator":"City of Edinburgh Council"}},"type":"Feature"},
	{"geometry":{"coordinates":[-3.201117,55.940984],"type":"Point"},"properties":{"amenity":"recycling","osm_id":"4259458923","tag":{"operator":"City of Edinburgh Council","recycling:cans":"yes","recycling:cardboard":"yes","recycling:foil":"yes","recycling:magazines":"yes","recycling:newspaper":"yes","recycling:paper":"yes","recycling:plastic_packaging":"yes","recycling_type":"container"}},"type":"Feature"},
	{"geometry":{"coordinates":[-3.2011,55.940985],"type":"Point"},"properties":{"amenity":"recycling","osm_id":"4259458924","tag":{"operator":"City of Edinburgh Council","recycling:magazines":"yes","recycling:newspaper":"yes","recycling:paper":"yes","recycling_type":"container"}},"type":"Feature"},
	{"geometry":{"coordinates":[-3.201068,55.940987],"type":"Point"},"properties":{"amenity":"recycling","osm_id":"4259458926","tag":{"operator":"City of Edinburgh Council","recycling_type":"container","waste":"food"}},"type":"Feature"},
	{"geometry":{"coordinates":[-3.201052,55.940988],"type":"Point"},"properties":{"amenity":"recycling","osm_id":"4259458927","tag":{"operator":"City of Edinburgh Council","recycling:glass_bottles":"yes","recycling_type":"container"}},"type":"Feature"},
	{"geometry":{"coordinates":[-3.199831,55.940991],"type":"Point"},"properties":{"amenity":"waste_basket","osm_id":"4259458928","tag":{"colour":"green","material":"metal","operator":"City of Edinburgh Council"}},"type":"Feature"},
	{"geometry":{"coordinates":[-3.200789,55.941033],"type":"Point"},"properties":{"amenity":"waste_basket","osm_id":"4259458929","tag":{"colour":"black","material":"metal","operator":"City of Edinburgh Council"}},"type":"Feature"},
	{"geometry":{"coordinates":[-3.191138,55.946054],"type":"Point"},"properties":{"amenity":"waste_basket","osm_id":"4259458978","tag":{"colour":"black","material":"metal","operator":"City of Edinburgh Council"}},"type":"Feature"},
	{"geometry":{"coordinates":[-3.192472,55.931064],"type":"Point"},"properties":{"amenity":"waste_basket","osm_id":"4335122694"},"type":"Feature"},
	{"geometry":{"coordinates":[-3.188773,55.929093],"type":"Point"},"properties":{"amenity":"waste_basket","osm_id":"4335122695"},"type":"Feature"},
	{"geometry":{"coordinates":[-3.189567,55.930244],"type":"Point"},"properties":{"amenity":"waste_basket","osm_id":"4335122696"},"type":"Feature"},
	{"geometry":{"coordinates":[-3.187572,55.927491],"type":"Point"},"properties":{"amenity":"waste_basket","osm_id":"4335122700"},"type":"Feature"},
	{"geometry":{"coordinates":[-3.186569,55.926893],"type":"Point"},"properties":{"amenity":"waste_basket","osm_id":"4335122704"},"type":"Feature"},
	{"geometry":{"coordinates":[-3.200066,55.931898],"type":"Point"},"properties":{"amenity":"waste_basket","osm_id":"4335122705"},"type":"Feature"},
	{"geometry":{"coordinates":[-3.184656,55.926266],"type":"Point"},"properties":{"amenity":"recycling","osm_id":"4335122707","tag":{"recycling:cans":"yes","recycling:glass":"yes","recycling:glass_bottles":"yes","recycling:paper":"yes","recycling:plastic":"yes","recycling_type":"container"}},"type":"Feature"},
	{"geometry":{"coordinates":[-3.179426,55.963115],"type":"Point"},"properties":{"amenity":"recycling","osm_id":"4357695683","tag":{"recycling_type":"container"}},"type":"Feature"},
	{"geometry":{"coordinates":[-3.239889,55.943624],"type":"Point"},"properties":{"amenity":"waste_basket","osm_id":"4580121709"},"type":"Feature"},
	{"geometry":{"coordinates":[-3.220759,55.94308],"type":"Point"},"properties":{"amenity":"waste_basket","osm_id":"4589376301"},"type":"Feature"},
	{"geometry":{"coordinates":[-3.223281,55.941438],"type":"Point"},"properties":{"amenity":"waste_basket","osm_id":"4589376302"},"type":"Feature"},
	{"geometry":{"coordinates":[-3.224515,55.940525],"type":"Point"},"properties":{"amenity":"waste_basket","osm_id":"4589376303"},"type":"Feature"},
	{"geometry":{"coordinates":[-3.225637,55.939752],"type":"Point"},"properties":{"amenity":"waste_basket","osm_id":"4589376304"},"type":"Feature"},
	{"geometry":{"coordinates":[-3.228285,55.938913],"type":"Point"},"properties":{"amenity":"waste_basket","osm_id":"4589376305"},"type":"Feature"},
	{"geometry":{"coordinates":[-3.229266,55.938755],"type":"Point"},"properties":{"amenity":"waste_basket","osm_id":"4589376306"},"type":"Feature"},
	{"geometry":{"coordinates":[-3.225693,55.940515],"type":"Point"},"properties":{"amenity":"recycling","osm_id":"4589379244","tag":{"recycling_type":"container"}},"type":"Feature"},
	{"geometry":{"coordinates":[-3.227552,55.940648],"type":"Point"},"properties":{"amenity":"recycling","osm_id":"4589379245","tag":{"recycling:glass":"yes","recycling_type":"container"}},"type":"Feature"},
	{"geometry":{"coordinates":[-3.22827,55.94021],"type":"Point"},"properties":{"amenity":"recycling","osm_id":"4589379246","tag":{"recycling_type":"container"}},"type":"Feature"},
	{"geometry":{"coordinates":[-3.202462,55.936304],"type":"Point"},"properties":{"amenity":"recycling","osm_id":"4626905562","tag":{"description":"1 Bruntsfield Crescent","operator":"City of Edinburgh Council","recording:packaging":"yes","recycling:organic":"yes","recycling:paper":"yes","recycling_type":"container"}},"type":"Feature"},
	{"geometry":{"coordinates":[-3.201116,55.935256],"type":"Point"},"properties":{"amenity":"recycling","osm_id":"4626905563","tag":{"recording:packaging":"yes","recycling:food_waste":"yes","recycling:glass":"yes","recycling:paper":"yes","recycling_type":"container"}},"type":"Feature"},
	{"geometry":{"coordinates":[-3.193501,55.928599],"type":"Point"},"properties":{"amenity":"waste_basket","osm_id":"4720024774"},"type":"Feature"},
	{"geometry":{"coordinates":[-3.197262,55.928467],"type":"Point"},"properties":{"amenity":"waste_basket","osm_id":"4720024775"},"type":"Feature"},
	{"geometry":{"coordinates":[-3.191046,55.958463],"type":"Point"},"properties":{"amenity":"waste_basket","osm_id":"4769870029"},"type":"Feature"},
	{"geometry":{"coordinates":[-3.191191,55.958533],"type":"Point"},"properties":{"amenity":"waste_basket","osm_id":"4769870032"},"type":"Feature"},
	{"geometry":{"coordinates":[-3.181787,55.937774],"type":"Point"},"properties":{"amenity":"recycling","osm_id":"4888540499","tag":{"recycling_type":"container"}},"type":"Feature"},
	{"geometry":{"coordinates":[-3.21557,55.939988],"type":"Point"},"properties":{"amenity":"waste_basket","osm_id":"4931590153","tag":{"colour":"green","material":"metal"}},"type":"Feature"},
	{"geometry":{"coordinates":[-3.215694,55.93995],"type":"Point"},"properties":{"amenity":"waste_basket","osm_id":"4931590154","tag":{"colour":"green","material":"metal"}},"type":"Feature"},
	{"geometry":{"coordinates":[-3.215821,55.939907],"type":"Point"},"properties":{"amenity":"waste_basket","osm_id":"4931590157","tag":{"colour":"green","material":"metal"}},"type":"Feature"},
	{"geometry":{"coordinates":[-3.216263,55.939752],"type":"Point"},"properties":{"amenity":"waste_basket","osm_id":"4931590186","tag":{"colour":"green","material":"metal"}},"type":"Feature"},
	{"geometry":{"coordinates":[-3.209673,55.930357],"type":"Point"},"properties":{"amenity":"waste_basket","osm_id":"4932418346","tag":{"colour":"black","material":"metal"}},"type":"Feature"},
	{"geometry":{"coordinates":[-3.180671,55.957913],"type":"Point"},"properties":{"amenity":"recycling","osm_id":"4999592329","tag":{"recycling:green_waste":"yes","recycling_type":"container"}},"type":"Feature"},
	{"geometry":{"coordinates":[-3.190887,55.930077],"type":"Point"},"properties":{"amenity":"recycling","osm_id":"5044684309","tag":{"access":"private","recycling:cans":"yes","recycling:cardboard":"yes","recycling:glass_bottles":"yes","recycling:paper":"yes","recycling:plastic":"yes","recycling:plastic_bottles":"yes","recycling:waste":"yes","recycling_type":"container"}},"type":"Feature"},
	{"geometry":{"coordinates":[-3.192003,55.930042],"type":"Point"},"properties":{"amenity":"recycling","osm_id":"5044684310","tag":{"access":"private","recycling:cans":"yes","recycling:cardboard":"yes","recycling:glass_bottles":"yes","recycling:paper":"yes","recycling:plastic":"yes","recycling:plastic_bottles":"yes","recycling:waste":"yes","recycling_type":"container"}},"type":"Feature"},
	{"geometry":{"coordinates":[-3.188966,55.945155],"type":"Point"},"properties":{"amenity":"waste_basket","osm_id":"5110780464"},"type":"Feature"},
	{"geometry":{"coordinates":[-3.188568,55.94575],"type":"Point"},"properties":{"amenity":"waste_basket","osm_id":"5110780482"},"type":"Feature"},
	{"geometry":{"coordinates":[-3.188286,55.945288],"type":"Point"},"properties":{"amenity":"waste_basket","osm_id":"5110780486"},"type":"Feature"},
	{"geometry":{"coordinates":[-3.209283,55.925533],"type":"Point"},"properties":{"amenity":"waste_basket","osm_id":"5119898668"},"type":"Feature"},
	{"geometry":{"coordinates":[-3.209335,55.926084],"type":"Point"},"properties":{"amenity":"waste_basket","osm_id":"5119898669"},"type":"Feature"},
	{"geometry":{"coordinates":[-3.208972,55.926536],"type":"Point"},"properties":{"amenity":"waste_basket","osm_id":"5119898671"},"type":"Feature"},
	{"geometry":{"coordinates":[-3.209325,55.925086],"type":"Point"},"properties":{"amenity":"waste_basket","osm_id":"5119898672"},"type":"Feature"},
	{"geometry":{"coordinates":[-3.174306,55.962545],"type":"Point"},"properties":{"amenity":"recycling","osm_id":"5139210361","tag":{"recycling_type":"container"}},"type":"Feature"},
	{"geometry":{"coordinates":[-3.184793,55.946675],"type":"Point"},"properties":{"amenity":"waste_basket","osm_id":"5238301354"},"type":"Feature"},
	{"geometry":{"coordinates":[-3.169227,55.952489],"type":"Point"},"properties":{"amenity":"waste_basket","osm_id":"5248505127"},"type":"Feature"},
	{"geometry":{"coordinates":[-3.192766,55.954378],"type":"Point"},"properties":{"amenity":"waste_basket","osm_id":"5331191648","tag":{"recycling:cans":"yes","recycling:paper":"yes","recycling:plastic":"yes"}},"type":"Feature"},
	{"geometry":{"coordinates":[-3.192412,55.954363],"type":"Point"},"properties":{"amenity":"waste_basket","osm_id":"5331191649","tag":{"recycling:cans":"yes","recycling:paper":"yes","recycling:plastic":"yes"}},"type":"Feature"},
	{"geometry":{"coordinates":[-3.184644,55.96934],"type":"Point"},"properties":{"amenity":"recycling","osm_id":"5379471320","tag":{"recycling:green_waste":"yes","recycling_type":"container"}},"type":"Feature"},
	{"geometry":{"coordinates":[-3.172169,55.969971],"type":"Point"},"properties":{"amenity":"waste_basket","osm_id":"5379743185"},"type":"Feature"},
	{"geometry":{"coordinates":[-3.227905,55.933265],"type":"Point"},"properties":{"amenity":"recycling","osm_id":"5579109867","tag":{"recycling:beverage_cartons":"yes","recycling:cans":"yes","recycling:cardboard":"yes","recycling:cartons":"yes","recycling:glass_bottles":"yes","recycling:newspaper":"yes","recycling:paper":"yes","recycling:paper_packaging":"yes","recycling:plastic":"yes","recycling:plastic_bottles":"yes","recycling:plastic_packaging":"yes","recycling_type":"container"}},"type":"Feature"},
	{"geometry":{"coordinates":[-3.237352,55.931533],"type":"Point"},"properties":{"amenity":"recycling","osm_id":"5581064417","tag":{"recycling:beverage_cartons":"yes","recycling:cans":"yes","recycling:cardboard":"yes","recycling:cartons":"yes","recycling:glass_bottles":"yes","recycling:magazines":"yes","recycling:newspaper":"yes","recycling:paper":"yes","recycling:paper_packaging":"yes","recycling:plastic":"yes","recycling:plastic_bottles":"yes","recycling:plastic_packaging":"yes","recycling_type":"container"}},"type":"Feature"},
	{"geometry":{"coordinates":[-3.214629,55.961462],"type":"Point"},"properties":{"amenity":"waste_basket","osm_id":"5625111901"},"type":"Feature"},
	{"geometry":{"coordinates":[-3.174578,55.972958],"type":"Point"},"properties":{"amenity":"recycling","osm_id":"5640572948","tag":{"recycling:cardboard":"yes","recycling:packaging":"yes","recycling:plastic":"yes","recycling:waste":"yes","recycling_type":"container"}},"type":"Feature"},
	{"geometry":{"coordinates":[-3.168496,55.95472],"type":"Point"},"properties":{"amenity":"recycling","osm_id":"5665023704","tag":{"recycling:glass":"yes","recycling_type":"container"}},"type":"Feature"},
	{"geometry":{"coordinates":[-3.18283,55.967777],"type":"Point"},"properties":{"amenity":"waste_basket","osm_id":"5691768399"},"type":"Feature"},
	{"geometry":{"coordinates":[-3.183174,55.968345],"type":"Point"},"properties":{"amenity":"waste_basket","osm_id":"5691768405"},"type":"Feature"},
	{"geometry":{"coordinates":[-3.183621,55.968407],"type":"Point"},"properties":{"amenity":"waste_basket","osm_id":"5691768415"},"type":"Feature"},
	{"geometry":{"coordinates":[-3.187883,55.967753],"type":"Point"},"properties":{"amenity":"waste_basket","osm_id":"5691821706"},"type":"Feature"},
	{"geometry":{"coordinates":[-3.171725,55.959702],"type":"Point"},"properties":{"amenity":"recycling","osm_id":"5711170786","tag":{"recycling:glass":"no","recycling:paper":"yes","recycling:plastic":"yes","recycling_type":"container"}},"type":"Feature"},
	{"geometry":{"coordinates":[-3.189061,55.945799],"type":"Point"},"properties":{"amenity":"waste_basket","osm_id":"5752339122"},"type":"Feature"},
	{"geometry":{"coordinates":[-3.188467,55.945677],"type":"Point"},"properties":{"amenity":"waste_basket","osm_id":"5752339128"},"type":"Feature"},
	{"geometry":{"coordinates":[-3.189148,55.945735],"type":"Point"},"properties":{"amenity":"waste_basket","osm_id":"5752339132"},"type":"Feature"},
	{"geometry":{"coordinates":[-3.18855,55.945926],"type":"Point"},"properties":{"amenity":"waste_basket","osm_id":"5752339133"},"type":"Feature"},
	{"geometry":{"coordinates":[-3.188984,55.945692],"type":"Point"},"properties":{"amenity":"waste_basket","osm_id":"5752339138"},"type":"Feature"},
	{"geometry":{"coordinates":[-3.188981,55.945851],"type":"Point"},"properties":{"amenity":"waste_basket","osm_id":"5752339141"},"type":"Feature"},
	{"geometry":{"coordinates":[-3.165531,55.954133],"type":"Point"},"properties":{"amenity":"waste_basket","osm_id":"5783653972"},"type":"Feature"},
	{"geometry":{"coordinates":[-3.170641,55.950872],"type":"Point"},"properties":{"amenity":"waste_basket","osm_id":"5783683236"},"type":"Feature"},
	{"geometry":{"coordinates":[-3.172043,55.951053],"type":"Point"},"properties":{"amenity":"waste_basket","osm_id":"5783683240"},"type":"Feature"},
	{"geometry":{"coordinates":[-3.176961,55.957624],"type":"Point"},"properties":{"amenity":"waste_basket","osm_id":"5792424279"},"type":"Feature"},
	{"geometry":{"coordinates":[-3.180235,55.957681],"type":"Point"},"properties":{"amenity":"waste_basket","osm_id":"5792424283"},"type":"Feature"},
	{"geometry":{"coordinates":[-3.172872,55.956665],"type":"Point"},"properties":{"amenity":"waste_basket","osm_id":"5792487633"},"type":"Feature"},
	{"geometry":{"coordinates":[-3.175073,55.972352],"type":"Point"},"properties":{"amenity":"recycling","osm_id":"5795980760","tag":{"recycling:clothes":"yes","recycling:shoes":"yes","recycling_type":"container"}},"type":"Feature"},
	{"geometry":{"coordinates":[-3.25029,55.944858],"type":"Point"},"properties":{"amenity":"waste_basket","osm_id":"5800540100"},"type":"Feature"},
	{"geometry":{"coordinates":[-3.177367,55.953678],"type":"Point"},"properties":{"amenity":"waste_basket","osm_id":"5803848898"},"type":"Feature"},
	{"geometry":{"coordinates":[-3.174604,55.955008],"type":"Point"},"properties":{"amenity":"waste_basket","osm_id":"5803848901"},"type":"Feature"},
	{"geometry":{"coordinates":[-3.176012,55.95443],"type":"Point"},"properties":{"amenity":"waste_basket","osm_id":"5803848903"},"type":"Feature"},
	{"geometry":{"coordinates":[-3.185354,55.953884],"type":"Point"},"properties":{"amenity":"waste_basket","osm_id":"5803855486"},"type":"Feature"},
	{"geometry":{"coordinates":[-3.182449,55.953381],"type":"Point"},"properties":{"amenity":"waste_basket","osm_id":"5803855488"},"type":"Feature"},
	{"geometry":{"coordinates":[-3.190105,55.953061],"type":"Point"},"properties":{"amenity":"waste_basket","osm_id":"5803881568"},"type":"Feature"},
	{"geometry":{"coordinates":[-3.191538,55.952649],"type":"Point"},"properties":{"amenity":"waste_basket","osm_id":"5803881569"},"type":"Feature"},
	{"geometry":{"coordinates":[-3.190157,55.952862],"type":"Point"},"properties":{"amenity":"waste_basket","osm_id":"5803881571"},"type":"Feature"},
	{"geometry":{"coordinates":[-3.190222,55.952803],"type":"Point"},"properties":{"amenity":"waste_basket","osm_id":"5803881573"},"type":"Feature"},
	{"geometry":{"coordinates":[-3.18665,55.953714],"type":"Point"},"properties":{"amenity":"waste_basket","osm_id":"5803881574"},"type":"Feature"},
	{"geometry":{"coordinates":[-3.190027,55.952613],"type":"Point"},"properties":{"amenity":"waste_basket","osm_id":"5803881577"},"type":"Feature"},
	{"geometry":{"coordinates":[-3.187227,55.953603],"type":"Point"},"properties":{"amenity":"waste_basket","osm_id":"5803881578"},"type":"Feature"},
	{"geometry":{"coordinates":[-3.188469,55.953321],"type":"Point"},"properties":{"amenity":"waste_basket","osm_id":"5803881582"},"type":"Feature"},
	{"geometry":{"coordinates":[-3.191622,55.952563],"type":"Point"},"properties":{"amenity":"waste_basket","osm_id":"5803881583"},"type":"Feature"},
	{"geometry":{"coordinates":[-3.189367,55.953198],"type":"Point"},"properties":{"amenity":"waste_basket","osm_id":"5803881584"},"type":"Feature"},
	{"geometry":{"coordinates":[-3.193883,55.952366],"type":"Point"},"properties":{"amenity":"waste_basket","osm_id":"5803906111"},"type":"Feature"},
	{"geometry":{"coordinates":[-3.194338,55.952113],"type":"Point"},"properties":{"amenity":"waste_basket","osm_id":"5803906112"},"type":"Feature"},
	{"geometry":{"coordinates":[-3.194501,55.952255],"type":"Point"},"properties":{"amenity":"waste_basket","osm_id":"5803906113"},"type":"Feature"},
	{"geometry":{"coordinates":[-3.195075,55.951979],"type":"Point"},"properties":{"amenity":"waste_basket","osm_id":"5803906114"},"type":"Feature"},
	{"geometry":{"coordinates":[-3.196956,55.951683],"type":"Point"},"properties":{"amenity":"waste_basket","osm_id":"5803906115"},"type":"Feature"},
	{"geometry":{"coordinates":[-3.204038,55.95016],"type":"Point"},"properties":{"amenity":"waste_basket","osm_id":"5803976168"},"type":"Feature"},
	{"geometry":{"coordinates":[-3.199597,55.951196],"type":"Point"},"properties":{"amenity":"waste_basket","osm_id":"5803976169"},"type":"Feature"},
	{"geometry":{"coordinates":[-3.20666,55.949426],"type":"Point"},"properties":{"amenity":"waste_basket","osm_id":"5803976170"},"type":"Feature"},
	{"geometry":{"coordinates":[-3.200419,55.951125],"type":"Point"},"properties":{"amenity":"waste_basket","osm_id":"5803976172"},"type":"Feature"},
	{"geometry":{"coordinates":[-3.204522,55.950353],"type":"Point"},"properties":{"amenity":"waste_basket","osm_id":"5803976174"},"type":"Feature"},
	{"geometry":{"coordinates":[-3.205521,55.948804],"type":"Point"},"properties":{"amenity":"waste_basket","osm_id":"5803976175"},"type":"Feature"},
	{"geometry":{"coordinates":[-3.206067,55.950261],"type":"Point"},"properties":{"amenity":"waste_basket","osm_id":"5803976176"},"type":"Feature"},
	{"geometry":{"coordinates":[-3.201648,55.950851],"type":"Point"},"properties":{"amenity":"waste_basket","osm_id":"5803976177"},"type":"Feature"},
	{"geometry":{"coordinates":[-3.203431,55.950256],"type":"Point"},"properties":{"amenity":"waste_basket","osm_id":"5803976180"},"type":"Feature"},
	{"geometry":{"coordinates":[-3.200091,55.947311],"type":"Point"},"properties":{"amenity":"waste_basket","osm_id":"5803976181"},"type":"Feature"},
	{"geometry":{"coordinates":[-3.203744,55.950067],"type":"Point"},"properties":{"amenity":"waste_basket","osm_id":"5803976183"},"type":"Feature"},
	{"geometry":{"coordinates":[-3.200283,55.937982],"type":"Point"},"properties":{"amenity":"recycling","osm_id":"5922812311","tag":{"description":"Marchmont Street","operator":"City of Edinburgh Council","recycling:organic":"yes","recycling_type":"container"}},"type":"Feature"},
	{"geometry":{"coordinates":[-3.202971,55.937169],"type":"Point"},"properties":{"amenity":"waste_basket","osm_id":"5922812312"},"type":"Feature"},
	{"geometry":{"coordinates":[-3.201806,55.937474],"type":"Point"},"properties":{"amenity":"recycling","osm_id":"5922812315","tag":{" James Gillespies High School":null,"description":"141 Warrender Park Road","operator":"City of Edinburgh Council","recycling:organic":"yes","recycling_type":"container"}},"type":"Feature"},
	{"geometry":{"coordinates":[-3.199218,55.937954],"type":"Point"},"properties":{"amenity":"recycling","osm_id":"5922812317","tag":{" James Gillespies High School":null,"description":"Lauderdale Road","operator":"City of Edinburgh Council","recycling:packaging":"yes","recycling:paper":"yes","recycling_type":"container"}},"type":"Feature"},
	{"geometry":{"coordinates":[-3.213096,55.943063],"type":"Point"},"properties":{"amenity":"recycling","osm_id":"5923754792","tag":{"description":"3 Brandfield Street","location":"underground","operator":"City of Edinburgh Council","recycling:packaging":"yes","recycling:paper":"yes","recycling_type":"container"}},"type":"Feature"},
	{"geometry":{"coordinates":[-3.213139,55.94305],"type":"Point"},"properties":{"amenity":"recycling","osm_id":"5923754800","tag":{"location":"underground","operator":"City of Edinburgh Council","recycling_type":"container"}},"type":"Feature"},
	{"geometry":{"coordinates":[-3.195388,55.939576],"type":"Point"},"properties":{"amenity":"recycling","osm_id":"5924032536","tag":{"description":"1 Warrender Park Terrace","operator":"City of Edinburgh Council","recycling:glass":"yes","recycling:paper":"organic","recycling_type":"container"}},"type":"Feature"},
	{"geometry":{"coordinates":[-3.197961,55.938226],"type":"Point"},"properties":{"amenity":"recycling","osm_id":"5924060533","tag":{"description":"25 Spottiswoode Street","operator":"City of Edinburgh Council","recycling:packaging":"yes","recycling_type":"container"}},"type":"Feature"},
	{"geometry":{"coordinates":[-3.193533,55.938249],"type":"Point"},"properties":{"amenity":"recycling","osm_id":"5924060538","tag":{"description":"Warrender Park Road","operator":"City of Edinburgh Council","recycling:glass":"yes","recycling:organic":"yes","recycling:packaging":"yes","recycling:paper":"yes","recycling_type":"container"}},"type":"Feature"},
	{"geometry":{"coordinates":[-3.198189,55.939237],"type":"Point"},"properties":{"amenity":"recycling","osm_id":"5924060544","tag":{"description":"Spottiswoode Street","operator":"City of Edinburgh Council","recycling:packaging":"yes","recycling:paper":"yes","recycling_type":"container"}},"type":"Feature"},
	{"geometry":{"coordinates":[-3.194555,55.936396],"type":"Point"},"properties":{"amenity":"waste_basket","osm_id":"5924060552"},"type":"Feature"},
	{"geometry":{"coordinates":[-3.199047,55.93624],"type":"Point"},"properties":{"amenity":"recycling","osm_id":"5924060554","tag":{" James Gillespie's High School":null,"description":"Spottiswoode Road","operator":"City of Edinburgh Council","recycling:glass":"yes","recycling:packaging":"yes","recycling_type":"container"}},"type":"Feature"},
	{"geometry":{"coordinates":[-3.196514,55.938305],"type":"Point"},"properties":{"amenity":"recycling","osm_id":"5924060555","tag":{"description":"Arden Street","operator":"City of Edinburgh Council","recycling:glass":"yes","recycling:organic":"yes","recycling_type":"container"}},"type":"Feature"},
	{"geometry":{"coordinates":[-3.195856,55.93645],"type":"Point"},"properties":{"amenity":"recycling","osm_id":"5924060556","tag":{"description":"69 Arden Street","operator":"City of Edinburgh Council","recycling:organic":"yes","recycling:packaging":"yes","recycling_type":"container"}},"type":"Feature"},
	{"geometry":{"coordinates":[-3.197575,55.936176],"type":"Point"},"properties":{"amenity":"waste_basket","osm_id":"5924060559"},"type":"Feature"},
	{"geometry":{"coordinates":[-3.197854,55.93869],"type":"Point"},"properties":{"amenity":"recycling","osm_id":"5924060561","tag":{"description":"Spottiswoode Street","operator":"City of Edinburgh Council","recycling:organic":"yes","recycling:paper":"yes","recycling_type":"container"}},"type":"Feature"},
	{"geometry":{"coordinates":[-3.193393,55.938145],"type":"Point"},"properties":{"amenity":"waste_basket","osm_id":"5924060564"},"type":"Feature"},
	{"geometry":{"coordinates":[-3.19702,55.9363],"type":"Point"},"properties":{"amenity":"recycling","osm_id":"5924060566","tag":{"description":"36 Spottiswoode Road","operator":"City of Edinburgh Council","recycling:glass":"yes","recycling:packaging":"yes","recycling_type":"container"}},"type":"Feature"},
	{"geometry":{"coordinates":[-3.1978,55.938268],"type":"Point"},"properties":{"amenity":"recycling","osm_id":"5924060569","tag":{"description":"Spottiswoode Street","operator":"City of Edinburgh Council","recycling:paper":"yes","recycling_type":"container"}},"type":"Feature"},
	{"geometry":{"coordinates":[-3.196129,55.936829],"type":"Point"},"properties":{"amenity":"recycling","osm_id":"5924060571","tag":{"description":"Arden Street","operator":"City of Edinburgh Council","recycling:organic":"yes","recycling_type":"container"}},"type":"Feature"},
	{"geometry":{"coordinates":[-3.196284,55.93832],"type":"Point"},"properties":{"amenity":"recycling","osm_id":"5924060572","tag":{"description":"Arden Street","operator":"City of Edinburgh Council","recycling:organic":"yes","recycling:packaging":"yes","recycling_type":"container"}},"type":"Feature"},
	{"geometry":{"coordinates":[-3.195244,55.938429],"type":"Point"},"properties":{"amenity":"waste_basket","osm_id":"5924060573"},"type":"Feature"},
	{"geometry":{"coordinates":[-3.209178,55.936265],"type":"Point"},"properties":{"amenity":"recycling","osm_id":"5924106333","tag":{"description":"Bruntsfield Avenue","recording:packaging":"yes","recycling:organic":"yes","recycling:paper":"yes","recycling_type":"container"}},"type":"Feature"},
	{"geometry":{"coordinates":[-3.207571,55.9353],"type":"Point"},"properties":{"amenity":"recycling","osm_id":"5924106337","tag":{"description":"Forbes Road","operator":"City of Edinburgh Council","recycling:organic":"yes","recycling_type":"container"}},"type":"Feature"},
	{"geometry":{"coordinates":[-3.207566,55.936562],"type":"Point"},"properties":{"amenity":"recycling","osm_id":"5924106339","tag":{"description":"27 Forbes Road","recording:packaging":"yes","recycling:glass":"yes","recycling:organic":"yes","recycling:paper":"yes","recycling_type":"container"}},"type":"Feature"},
	{"geometry":{"coordinates":[-3.209001,55.936307],"type":"Point"},"properties":{"amenity":"recycling","osm_id":"5924106340","tag":{"description":"Bruntsfield Avenue","recording:packaging":"yes","recycling:glass":"yes","recycling:organic":"yes","recycling:paper":"yes","recycling_type":"container"}},"type":"Feature"},
	{"geometry":{"coordinates":[-3.209764,55.940328],"type":"Point"},"properties":{"amenity":"recycling","osm_id":"5924106341","tag":{"description":"Leamington Terrace","operator":"City of Edinburgh Council","recycling:packaging":"yes","recycling_type":"container"}},"type":"Feature"},
	{"geometry":{"coordinates":[-3.205516,55.936604],"type":"Point"},"properties":{"amenity":"waste_basket","osm_id":"5924106348"},"type":"Feature"},
	{"geometry":{"coordinates":[-3.18403,55.970138],"type":"Point"},"properties":{"amenity":"recycling","osm_id":"6171168446","tag":{"recycling:cans":"yes","recycling:paper":"yes","recycling:plastic_packaging":"yes","recycling_type":"container"}},"type":"Feature"},
	{"geometry":{"coordinates":[-3.217084,55.948494],"type":"Point"},"properties":{"amenity":"waste_basket","osm_id":"6177035193"},"type":"Feature"},
	{"geometry":{"coordinates":[-3.214615,55.940404],"type":"Point"},"properties":{"amenity":"waste_basket","osm_id":"6177201971","tag":{"colour":"green","material":"metal"}},"type":"Feature"},
	{"geometry":{"coordinates":[-3.214823,55.940313],"type":"Point"},"properties":{"amenity":"waste_basket","osm_id":"6177201972","tag":{"colour":"green","material":"metal"}},"type":"Feature"},
	{"geometry":{"coordinates":[-3.21587,55.939704],"type":"Point"},"properties":{"amenity":"waste_basket","osm_id":"6177201985","tag":{"colour":"green","material":"metal"}},"type":"Feature"},
	{"geometry":{"coordinates":[-3.215709,55.939773],"type":"Point"},"properties":{"amenity":"waste_basket","osm_id":"6177201986","tag":{"colour":"green","material":"metal"}},"type":"Feature"},
	{"geometry":{"coordinates":[-3.215558,55.93984],"type":"Point"},"properties":{"amenity":"waste_basket","osm_id":"6177201987","tag":{"colour":"green","material":"metal"}},"type":"Feature"},
	{"geometry":{"coordinates":[-3.215396,55.939911],"type":"Point"},"properties":{"amenity":"waste_basket","osm_id":"6177201988","tag":{"colour":"green","material":"metal"}},"type":"Feature"},
	{"geometry":{"coordinates":[-3.1789,55.949867],"type":"Point"},"properties":{"amenity":"waste_basket","osm_id":"6312598611"},"type":"Feature"},
	{"geometry":{"coordinates":[-3.238121,55.945267],"type":"Point"},"properties":{"amenity":"waste_basket","osm_id":"6317070510"},"type":"Feature"},
	{"geometry":{"coordinates":[-3.167091,55.92614],"type":"Point"},"properties":{"amenity":"waste_basket","osm_id":"6327247418"},"type":"Feature"},
	{"geometry":{"coordinates":[-3.166876,55.925914],"type":"Point"},"properties":{"amenity":"waste_basket","osm_id":"6327247419"},"type":"Feature"},
	{"geometry":{"coordinates":[-3.1666,55.925841],"type":"Point"},"properties":{"amenity":"waste_basket","osm_id":"6327247420"},"type":"Feature"},
	{"geometry":{"coordinates":[-3.166297,55.926992],"type":"Point"},"properties":{"amenity":"waste_basket","osm_id":"6331837311"},"type":"Feature"},
	{"geometry":{"coordinates":[-3.164611,55.927657],"type":"Point"},"properties":{"amenity":"waste_basket","osm_id":"6331837312"},"type":"Feature"},
	{"geometry":{"coordinates":[-3.164381,55.927771],"type":"Point"},"properties":{"amenity":"waste_basket","osm_id":"6331837313"},"type":"Feature"},
	{"geometry":{"coordinates":[-3.203345,55.940013],"type":"Point"},"properties":{"amenity":"recycling","osm_id":"6339464658","tag":{"recycling:aluminium":"yes","recycling:aluminium_cans":"yes","recycling:aluminium_tins":"yes","recycling:cans":"yes","recycling:food_waste":"yes","recycling:glass":"yes","recycling:metal":"yes","recycling:packaging":"yes","recycling:paper":"yes","recycling:plastic":"yes","recycling:plastic_foil":"yes","recycling:plastic_packaging":"yes","recycling_type":"container"}},"type":"Feature"},
	{"geometry":{"coordinates":[-3.203625,55.939711],"type":"Point"},"properties":{"amenity":"recycling","osm_id":"6339464659","tag":{"recycling:aluminium":"yes","recycling:food_waste":"yes","recycling:glass":"yes","recycling:glass_bottles":"yes","recycling:glass_jars":"yes","recycling:metal":"yes","recycling:paper":"yes","recycling:plastics":"yes","recycling_type":"container"}},"type":"Feature"},
	{"geometry":{"coordinates":[-3.179376,55.944899],"type":"Point"},"properties":{"amenity":"waste_basket","osm_id":"6467747811"},"type":"Feature"},
	{"geometry":{"coordinates":[-3.180218,55.945436],"type":"Point"},"properties":{"amenity":"recycling","osm_id":"6467747827","tag":{"recycling_type":"container"}},"type":"Feature"},
	{"geometry":{"coordinates":[-3.204566,55.939248],"type":"Point"},"properties":{"amenity":"waste_basket","osm_id":"6514810207"},"type":"Feature"},
	{"geometry":{"coordinates":[-3.210011,55.934942],"type":"Point"},"properties":{"amenity":"waste_basket","osm_id":"6514810215"},"type":"Feature"},
	{"geometry":{"coordinates":[-3.183205,55.948056],"type":"Point"},"properties":{"amenity":"recycling","osm_id":"6516126513","tag":{"recycling:paper":"yes","recycling_type":"container"}},"type":"Feature"},
	{"geometry":{"coordinates":[-3.183163,55.94802],"type":"Point"},"properties":{"amenity":"recycling","osm_id":"6516126514","tag":{"recycling:cans":"yes","recycling:cardboard":"yes","recycling:plastic_packaging":"yes","recycling_type":"container"}},"type":"Feature"},
	{"geometry":{"coordinates":[-3.215915,55.926597],"type":"Point"},"properties":{"amenity":"waste_basket","osm_id":"6577656220"},"type":"Feature"},
	{"geometry":{"coordinates":[-3.203116,55.940153],"type":"Point"},"properties":{"amenity":"waste_basket","osm_id":"6612845314","tag":{"colour":"black","material":"plastic","operator":"City of Edinburgh Council"}},"type":"Feature"},
	{"geometry":{"coordinates":[-3.205831,55.937644],"type":"Point"},"properties":{"amenity":"waste_basket","osm_id":"6634566442","tag":{"operator":"City of Edinburgh Council"}},"type":"Feature"},
	{"geometry":{"coordinates":[-3.179906,55.932295],"type":"Point"},"properties":{"amenity":"waste_basket","osm_id":"6780705124"},"type":"Feature"},
	{"geometry":{"coordinates":[-3.178959,55.934738],"type":"Point"},"properties":{"amenity":"waste_basket","osm_id":"6780739037"},"type":"Feature"},
	{"geometry":{"coordinates":[-3.176092,55.935728],"type":"Point"},"properties":{"amenity":"waste_basket","osm_id":"6780753093"},"type":"Feature"},
	{"geometry":{"coordinates":[-3.179753,55.939055],"type":"Point"},"properties":{"amenity":"waste_basket","osm_id":"6781879901"},"type":"Feature"},
	{"geometry":{"coordinates":[-3.172138,55.941396],"type":"Point"},"properties":{"amenity":"waste_basket","osm_id":"6781880761"},"type":"Feature"},
	{"geometry":{"coordinates":[-3.197619,55.938408],"type":"Point"},"properties":{"amenity":"waste_basket","osm_id":"6781905472"},"type":"Feature"},
	{"geometry":{"coordinates":[-3.184452,55.94548],"type":"Point"},"properties":{"amenity":"waste_basket","osm_id":"6781912250"},"type":"Feature"},
	{"geometry":{"coordinates":[-3.186818,55.948508],"type":"Point"},"properties":{"amenity":"waste_basket","osm_id":"6781942096"},"type":"Feature"},
	{"geometry":{"coordinates":[-3.212011,55.961335],"type":"Point"},"properties":{"amenity":"waste_basket","osm_id":"6784164836"},"type":"Feature"},
	{"geometry":{"coordinates":[-3.209984,55.958867],"type":"Point"},"properties":{"amenity":"waste_basket","osm_id":"6784166483"},"type":"Feature"},
	{"geometry":{"coordinates":[-3.192581,55.946714],"type":"Point"},"properties":{"amenity":"waste_basket","osm_id":"6811646050"},"type":"Feature"},
	{"geometry":{"coordinates":[-3.208472,55.966422],"type":"Point"},"properties":{"amenity":"waste_basket","osm_id":"6819621241"},"type":"Feature"},
	{"geometry":{"coordinates":[-3.207246,55.966478],"type":"Point"},"properties":{"amenity":"waste_basket","osm_id":"6819875117"},"type":"Feature"},
	{"geometry":{"coordinates":[-3.206711,55.966987],"type":"Point"},"properties":{"amenity":"waste_basket","osm_id":"6819875118"},"type":"Feature"},
	{"geometry":{"coordinates":[-3.190511,55.950503],"type":"Point"},"properties":{"amenity":"waste_basket","osm_id":"6820632287"},"type":"Feature"},
	{"geometry":{"coordinates":[-3.186654,55.951214],"type":"Point"},"properties":{"amenity":"waste_basket","osm_id":"6820632288"},"type":"Feature"},
	{"geometry":{"coordinates":[-3.18977,55.950639],"type":"Point"},"properties":{"amenity":"waste_basket","osm_id":"6820632289"},"type":"Feature"},
	{"geometry":{"coordinates":[-3.187385,55.951474],"type":"Point"},"properties":{"amenity":"waste_basket","osm_id":"6820632290"},"type":"Feature"},
	{"geometry":{"coordinates":[-3.190519,55.950598],"type":"Point"},"properties":{"amenity":"waste_basket","osm_id":"6820632292"},"type":"Feature"},
	{"geometry":{"coordinates":[-3.189139,55.950614],"type":"Point"},"properties":{"amenity":"waste_basket","osm_id":"6820740634"},"type":"Feature"},
	{"geometry":{"coordinates":[-3.188673,55.950581],"type":"Point"},"properties":{"amenity":"waste_basket","osm_id":"6820740635"},"type":"Feature"},
	{"geometry":{"coordinates":[-3.183543,55.954307],"type":"Point"},"properties":{"amenity":"waste_basket","osm_id":"6919910421"},"type":"Feature"},
	{"geometry":{"coordinates":[-3.18383,55.954745],"type":"Point"},"properties":{"amenity":"waste_basket","osm_id":"6919910422"},"type":"Feature"},
	{"geometry":{"coordinates":[-3.183143,55.954767],"type":"Point"},"properties":{"amenity":"waste_basket","osm_id":"6919910424"},"type":"Feature"},
	{"geometry":{"coordinates":[-3.183036,55.955214],"type":"Point"},"properties":{"amenity":"waste_basket","osm_id":"6919910425"},"type":"Feature"},
	{"geometry":{"coordinates":[-3.182628,55.955175],"type":"Point"},"properties":{"amenity":"waste_basket","osm_id":"6919910426"},"type":"Feature"},
	{"geometry":{"coordinates":[-3.183025,55.954933],"type":"Point"},"properties":{"amenity":"waste_basket","osm_id":"6919910428"},"type":"Feature"},
	{"geometry":{"coordinates":[-3.181601,55.955098],"type":"Point"},"properties":{"amenity":"waste_basket","osm_id":"6919910429"},"type":"Feature"},
	{"geometry":{"coordinates":[-3.180941,55.955215],"type":"Point"},"properties":{"amenity":"waste_basket","osm_id":"6919910430"},"type":"Feature"},
	{"geometry":{"coordinates":[-3.182329,55.955139],"type":"Point"},"properties":{"amenity":"waste_basket","osm_id":"6919910431"},"type":"Feature"},
	{"geometry":{"coordinates":[-3.227229,55.940565],"type":"Point"},"properties":{"amenity":"recycling","osm_id":"6937726481","tag":{"recycling:glass":"yes","recycling_type":"container"}},"type":"Feature"},
	{"geometry":{"coordinates":[-3.227605,55.940664],"type":"Point"},"properties":{"amenity":"recycling","osm_id":"6937726482","tag":{"recycling:beverage_cartons":"yes","recycling:cardboard":"yes","recycling:plastic_bottles":"yes","recycling:plastic_packaging":"yes","recycling_type":"container"}},"type":"Feature"},
	{"geometry":{"coordinates":[-3.227156,55.940572],"type":"Point"},"properties":{"amenity":"recycling","osm_id":"6937726483","tag":{"recycling:food_waste":"yes","recycling_type":"container"}},"type":"Feature"},
	{"geometry":{"coordinates":[-3.22681,55.940579],"type":"Point"},"properties":{"amenity":"recycling","osm_id":"6937726484","tag":{"recycling:food_waste":"yes","recycling_type":"container"}},"type":"Feature"},
	{"geometry":{"coordinates":[-3.226415,55.939402],"type":"Point"},"properties":{"amenity":"recycling","osm_id":"6937770642","tag":{"recycling:paper":"yes","recycling_type":"container"}},"type":"Feature"},
	{"geometry":{"coordinates":[-3.226398,55.93939],"type":"Point"},"properties":{"amenity":"recycling","osm_id":"6937770643","tag":{"recycling:cardboard":"yes","recycling:cartons":"yes","recycling:packaging":"yes","recycling:plastic_bottles":"yes","recycling_type":"container"}},"type":"Feature"},
	{"geometry":{"coordinates":[-3.188956,55.948498],"type":"Point"},"properties":{"amenity":"waste_basket","osm_id":"6939356675"},"type":"Feature"},
	{"geometry":{"coordinates":[-3.19139,55.94827],"type":"Point"},"properties":{"amenity":"waste_basket","osm_id":"6939356676"},"type":"Feature"},
	{"geometry":{"coordinates":[-3.192622,55.948106],"type":"Point"},"properties":{"amenity":"waste_basket","osm_id":"6939356677"},"type":"Feature"},
	{"geometry":{"coordinates":[-3.226437,55.939412],"type":"Point"},"properties":{"amenity":"recycling","osm_id":"6944662368","tag":{"recycling:food_waste":"yes","recycling_type":"container"}},"type":"Feature"},
	{"geometry":{"coordinates":[-3.226684,55.939439],"type":"Point"},"properties":{"amenity":"recycling","osm_id":"6944662369","tag":{"recycling:food_waste":"yes","recycling_type":"container"}},"type":"Feature"},
	{"geometry":{"coordinates":[-3.226971,55.939791],"type":"Point"},"properties":{"amenity":"recycling","osm_id":"6944662371","tag":{"recycling:food_waste":"yes","recycling_type":"container"}},"type":"Feature"},
	{"geometry":{"coordinates":[-3.226454,55.940128],"type":"Point"},"properties":{"amenity":"recycling","osm_id":"6944662372","tag":{"recycling:cardboard":"yes","recycling:packaging":"yes","recycling:plastic_bottles":"yes","recycling_type":"container"}},"type":"Feature"},
	{"geometry":{"coordinates":[-3.226422,55.94015],"type":"Point"},"properties":{"amenity":"recycling","osm_id":"6944662373","tag":{"recycling:paper":"yes","recycling_type":"container"}},"type":"Feature"},
	{"geometry":{"coordinates":[-3.226395,55.940174],"type":"Point"},"properties":{"amenity":"recycling","osm_id":"6944662374","tag":{"recycling:food_waste":"yes","recycling_type":"container"}},"type":"Feature"},
	{"geometry":{"coordinates":[-3.192925,55.947588],"type":"Point"},"properties":{"amenity":"waste_basket","osm_id":"7093343056","tag":{"waste":"trash"}},"type":"Feature"},
	{"geometry":{"coordinates":[-3.192719,55.948049],"type":"Point"},"properties":{"amenity":"waste_basket","osm_id":"7093364059","tag":{"waste":"trash"}},"type":"Feature"},
	{"geometry":{"coordinates":[-3.190596,55.947361],"type":"Point"},"properties":{"amenity":"waste_basket","osm_id":"7093369913","tag":{"waste":"trash"}},"type":"Feature"},
	{"geometry":{"coordinates":[-3.248933,55.934994],"type":"Point"},"properties":{"amenity":"waste_basket","osm_id":"7098651832"},"type":"Feature"},
	{"geometry":{"coordinates":[-3.249962,55.93451],"type":"Point"},"properties":{"amenity":"waste_basket","osm_id":"7098651859"},"type":"Feature"},
	{"geometry":{"coordinates":[-3.24717,55.933544],"type":"Point"},"properties":{"amenity":"waste_basket","osm_id":"7098675909"},"type":"Feature"},
	{"geometry":{"coordinates":[-3.247182,55.93353],"type":"Point"},"properties":{"amenity":"recycling","osm_id":"7098675910","tag":{"recycling:cans":"yes","recycling:plastic_bottles":"yes","recycling_type":"container"}},"type":"Feature"},
	{"geometry":{"coordinates":[-3.184297,55.928654],"type":"Point"},"properties":{"amenity":"waste_basket","osm_id":"7403274576"},"type":"Feature"},
	{"geometry":{"coordinates":[-3.244392,55.958944],"type":"Point"},"properties":{"amenity":"waste_basket","osm_id":"7503951834"},"type":"Feature"},
	{"geometry":{"coordinates":[-3.230254,55.966463],"type":"Point"},"properties":{"amenity":"waste_basket","osm_id":"7521877899"},"type":"Feature"},
	{"geometry":{"coordinates":[-3.235699,55.945906],"type":"Point"},"properties":{"amenity":"waste_basket","osm_id":"7535399580"},"type":"Feature"},
	{"geometry":{"coordinates":[-3.249722,55.937978],"type":"Point"},"properties":{"amenity":"waste_basket","osm_id":"7658115002"},"type":"Feature"},
	{"geometry":{"coordinates":[-3.165337,55.941344],"type":"Point"},"properties":{"amenity":"waste_basket","osm_id":"7674329148"},"type":"Feature"},
	{"geometry":{"coordinates":[-3.167355,55.942287],"type":"Point"},"properties":{"amenity":"waste_basket","osm_id":"7692407374"},"type":"Feature"},
	{"geometry":{"coordinates":[-3.185873,55.945711],"type":"Point"},"properties":{"amenity":"waste_basket","osm_id":"7739259666"},"type":"Feature"}
]
}
