{
"type": "FeatureCollection",
"lastupdate": "2020-07-28T01:29:12Z",
"features": [
	{"geometry":{"coordinates":[-1.731548,53.642781],"type":"Point"},"properties":{"amenity":"recycling","osm_id":"2093921391"},"type":"Feature"},
	{"geometry":{"coordinates":[-1.739951,53.637859],"type":"Point"},"properties":{"amenity":"waste_basket","osm_id":"2099591673"},"type":"Feature"},
	{"geometry":{"coordinates":[-1.740345,53.637991],"type":"Point"},"properties":{"amenity":"waste_basket","osm_id":"2099591708"},"type":"Feature"},
	{"geometry":{"coordinates":[-1.73946,53.638337],"type":"Point"},"properties":{"amenity":"waste_basket","osm_id":"2099591736"},"type":"Feature"},
	{"geometry":{"coordinates":[-1.739273,53.638685],"type":"Point"},"properties":{"amenity":"waste_basket","osm_id":"2099591767"},"type":"Feature"},
	{"geometry":{"coordinates":[-1.725077,53.595279],"type":"Point"},"properties":{"amenity":"waste_basket","osm_id":"2140257973"},"type":"Feature"},
	{"geometry":{"coordinates":[-1.704683,53.595204],"type":"Point"},"properties":{"amenity":"waste_basket","osm_id":"2140284553","tag":{"material":"concrete"}},"type":"Feature"}
]
}
