{
"type": "FeatureCollection",
"lastupdate": "2020-07-25T00:42:33Z",
"features": [
	{"geometry":{"coordinates":[-1.547215,53.815111],"type":"Point"},"properties":{"amenity":"recycling","osm_id":"127822517","tag":{"recycling:glass_bottles":"yes","recycling_type":"container"}},"type":"Feature"},
	{"geometry":{"coordinates":[-1.555477,53.830314],"type":"Point"},"properties":{"amenity":"recycling","osm_id":"140888739","tag":{"recycling:glass_bottles":"yes"}},"type":"Feature"},
	{"geometry":{"coordinates":[-1.54113,53.808569],"type":"Point"},"properties":{"amenity":"recycling","osm_id":"146657035","tag":{"recycling:glass_bottles":"yes"}},"type":"Feature"},
	{"geometry":{"coordinates":[-1.543181,53.82092],"type":"Point"},"properties":{"amenity":"recycling","osm_id":"150998592","tag":{"recycling:glass_bottles":"yes"}},"type":"Feature"},
	{"geometry":{"coordinates":[-1.559913,53.821874],"type":"Point"},"properties":{"amenity":"recycling","osm_id":"153723191","tag":{"location":"overground","recycling:glass_bottles":"yes","recycling_type":"container"}},"type":"Feature"},
	{"geometry":{"coordinates":[-1.579957,53.820801],"type":"Point"},"properties":{"amenity":"recycling","osm_id":"245070058","tag":{"recycling:glass_bottles":"yes","recycling:paper":"yes","recycling_type":"container"}},"type":"Feature"},
	{"geometry":{"coordinates":[-1.555145,53.806853],"type":"Point"},"properties":{"amenity":"recycling","osm_id":"247293230","tag":{"recycling:glass_bottles":"yes","recycling:paper":"yes"}},"type":"Feature"},
	{"geometry":{"coordinates":[-1.577699,53.812157],"type":"Point"},"properties":{"amenity":"recycling","osm_id":"249481017","tag":{"recycling:glass":"yes","recycling:glass_bottles":"yes","recycling_type":"container"}},"type":"Feature"},
	{"geometry":{"coordinates":[-1.567825,53.828982],"type":"Point"},"properties":{"amenity":"recycling","osm_id":"250390242","tag":{"recycling:glass":"yes","recycling:glass_bottles":"no","recycling:paper":"no"}},"type":"Feature"},
	{"geometry":{"coordinates":[-1.555228,53.812243],"type":"Point"},"properties":{"amenity":"recycling","osm_id":"274069748","tag":{"recycling:glass_bottles":"yes"}},"type":"Feature"},
	{"geometry":{"coordinates":[-1.548181,53.810579],"type":"Point"},"properties":{"amenity":"recycling","osm_id":"274082818","tag":{"recycling:glass_bottles":"yes"}},"type":"Feature"},
	{"geometry":{"coordinates":[-1.554701,53.837169],"type":"Point"},"properties":{"amenity":"recycling","osm_id":"278770857","tag":{"recycling:paper":"yes"}},"type":"Feature"},
	{"geometry":{"coordinates":[-1.537486,53.82843],"type":"Point"},"properties":{"amenity":"waste_basket","highway":"bus_stop","name":"Harrogate Road / Chapeltown","osm_id":"496718858","tag":{"local_ref":"45013618","naptan:AtcoCode":"450013618","naptan:Bearing":"SE","naptan:CommonName":"Harrogate Road Chapeltown","naptan:Crossing":"Ingle Row","naptan:Indicator":"Stop 45013618","naptan:Landmark":"Parade of Shops","naptan:PlusbusZoneRef":"LEEDS","naptan:ShortCommonName":"Ingle Row","naptan:Street":"Harrogate Road","naptan:verified":"no","shelter":"no"}},"type":"Feature"},
	{"geometry":{"coordinates":[-1.506945,53.830024],"type":"Point"},"properties":{"amenity":"waste_basket","osm_id":"886838463"},"type":"Feature"},
	{"geometry":{"coordinates":[-1.508669,53.835132],"type":"Point"},"properties":{"amenity":"waste_basket","osm_id":"886838475"},"type":"Feature"},
	{"geometry":{"coordinates":[-1.507916,53.830835],"type":"Point"},"properties":{"amenity":"waste_basket","osm_id":"886838554"},"type":"Feature"},
	{"geometry":{"coordinates":[-1.506761,53.832854],"type":"Point"},"properties":{"amenity":"waste_basket","osm_id":"886838614"},"type":"Feature"},
	{"geometry":{"coordinates":[-1.503934,53.8373],"type":"Point"},"properties":{"amenity":"recycling","osm_id":"988070298","tag":{"recycling:clothes":"yes","recycling:glass":"yes","recycling:glass_bottles":"yes","recycling:glass_jars":"yes"}},"type":"Feature"},
	{"geometry":{"coordinates":[-1.499323,53.839098],"type":"Point"},"properties":{"amenity":"waste_basket","osm_id":"988159081"},"type":"Feature"},
	{"geometry":{"coordinates":[-1.503866,53.838006],"type":"Point"},"properties":{"amenity":"waste_basket","osm_id":"988159092"},"type":"Feature"},
	{"geometry":{"coordinates":[-1.50423,53.837754],"type":"Point"},"properties":{"amenity":"waste_basket","osm_id":"988159123"},"type":"Feature"},
	{"geometry":{"coordinates":[-1.497315,53.841283],"type":"Point"},"properties":{"amenity":"waste_basket","osm_id":"988159131"},"type":"Feature"},
	{"geometry":{"coordinates":[-1.497376,53.840036],"type":"Point"},"properties":{"amenity":"waste_basket","osm_id":"988159134"},"type":"Feature"},
	{"geometry":{"coordinates":[-1.498825,53.840717],"type":"Point"},"properties":{"amenity":"waste_basket","osm_id":"988159155"},"type":"Feature"},
	{"geometry":{"coordinates":[-1.49617,53.840928],"type":"Point"},"properties":{"amenity":"waste_basket","osm_id":"988159164"},"type":"Feature"},
	{"geometry":{"coordinates":[-1.50356,53.838228],"type":"Point"},"properties":{"amenity":"waste_basket","osm_id":"988159169"},"type":"Feature"},
	{"geometry":{"coordinates":[-1.496237,53.83978],"type":"Point"},"properties":{"amenity":"waste_basket","osm_id":"988159252"},"type":"Feature"},
	{"geometry":{"coordinates":[-1.498088,53.839743],"type":"Point"},"properties":{"amenity":"waste_basket","osm_id":"988714549"},"type":"Feature"},
	{"geometry":{"coordinates":[-1.506135,53.839918],"type":"Point"},"properties":{"amenity":"waste_basket","osm_id":"988923258"},"type":"Feature"},
	{"geometry":{"coordinates":[-1.532211,53.84299],"type":"Point"},"properties":{"amenity":"waste_basket","osm_id":"989067341"},"type":"Feature"},
	{"geometry":{"coordinates":[-1.555081,53.830983],"type":"Point"},"properties":{"amenity":"waste_basket","osm_id":"989067371"},"type":"Feature"},
	{"geometry":{"coordinates":[-1.537312,53.828215],"type":"Point"},"properties":{"amenity":"waste_basket","osm_id":"989067385"},"type":"Feature"},
	{"geometry":{"coordinates":[-1.531904,53.820015],"type":"Point"},"properties":{"amenity":"waste_basket","osm_id":"989067485"},"type":"Feature"},
	{"geometry":{"coordinates":[-1.54348,53.845177],"type":"Point"},"properties":{"amenity":"waste_basket","osm_id":"1428145481"},"type":"Feature"},
	{"geometry":{"coordinates":[-1.543759,53.839006],"type":"Point"},"properties":{"amenity":"waste_basket","osm_id":"1428534318"},"type":"Feature"},
	{"geometry":{"coordinates":[-1.581881,53.828635],"type":"Point"},"properties":{"amenity":"recycling","osm_id":"1961589488"},"type":"Feature"},
	{"geometry":{"coordinates":[-1.566759,53.821385],"type":"Point"},"properties":{"amenity":"waste_basket","osm_id":"2354678137"},"type":"Feature"},
	{"geometry":{"coordinates":[-1.564184,53.819906],"type":"Point"},"properties":{"amenity":"waste_basket","osm_id":"2354678138"},"type":"Feature"},
	{"geometry":{"coordinates":[-1.548616,53.810457],"type":"Point"},"properties":{"amenity":"recycling","osm_id":"2407088505"},"type":"Feature"},
	{"geometry":{"coordinates":[-1.549759,53.810292],"type":"Point"},"properties":{"amenity":"recycling","osm_id":"2407102011"},"type":"Feature"},
	{"geometry":{"coordinates":[-1.54967,53.810279],"type":"Point"},"properties":{"amenity":"recycling","osm_id":"2407102014"},"type":"Feature"},
	{"geometry":{"coordinates":[-1.550724,53.810363],"type":"Point"},"properties":{"amenity":"recycling","osm_id":"2408692016","tag":{"location":"overground","recycling_type":"container"}},"type":"Feature"},
	{"geometry":{"coordinates":[-1.567086,53.82849],"type":"Point"},"properties":{"amenity":"waste_basket","osm_id":"2596692592"},"type":"Feature"},
	{"geometry":{"coordinates":[-1.567103,53.828374],"type":"Point"},"properties":{"amenity":"waste_basket","osm_id":"2596692599"},"type":"Feature"},
	{"geometry":{"coordinates":[-1.567022,53.82841],"type":"Point"},"properties":{"amenity":"waste_basket","osm_id":"2596692604"},"type":"Feature"},
	{"geometry":{"coordinates":[-1.565506,53.809795],"type":"Point"},"properties":{"amenity":"waste_basket","osm_id":"3222499262"},"type":"Feature"},
	{"geometry":{"coordinates":[-1.565246,53.810808],"type":"Point"},"properties":{"amenity":"waste_basket","osm_id":"3222499263"},"type":"Feature"},
	{"geometry":{"coordinates":[-1.563516,53.812246],"type":"Point"},"properties":{"amenity":"waste_basket","osm_id":"3222499266"},"type":"Feature"},
	{"geometry":{"coordinates":[-1.562377,53.813941],"type":"Point"},"properties":{"amenity":"waste_basket","osm_id":"3222499267","tag":{"waste":"dog_excrement"}},"type":"Feature"},
	{"geometry":{"coordinates":[-1.563767,53.812507],"type":"Point"},"properties":{"amenity":"waste_basket","osm_id":"3222499361"},"type":"Feature"},
	{"geometry":{"coordinates":[-1.563382,53.812159],"type":"Point"},"properties":{"amenity":"waste_basket","osm_id":"3222499362","tag":{"waste":"dog_excrement"}},"type":"Feature"},
	{"geometry":{"coordinates":[-1.563687,53.812456],"type":"Point"},"properties":{"amenity":"recycling","osm_id":"3222499461","tag":{"glass_colour":"mixed","recycling:glass":"yes","recycling_type":"container"}},"type":"Feature"},
	{"geometry":{"coordinates":[-1.563434,53.812478],"type":"Point"},"properties":{"amenity":"waste_basket","osm_id":"3222499561"},"type":"Feature"},
	{"geometry":{"coordinates":[-1.562157,53.81363],"type":"Point"},"properties":{"amenity":"waste_basket","osm_id":"3222499661"},"type":"Feature"},
	{"geometry":{"coordinates":[-1.562086,53.813979],"type":"Point"},"properties":{"amenity":"waste_basket","osm_id":"3222499861"},"type":"Feature"},
	{"geometry":{"coordinates":[-1.560134,53.813861],"type":"Point"},"properties":{"amenity":"recycling","osm_id":"3222614368","tag":{"recycling:glass":"yes","recycling_type":"container"}},"type":"Feature"},
	{"geometry":{"coordinates":[-1.560321,53.811783],"type":"Point"},"properties":{"amenity":"recycling","osm_id":"3222634961","tag":{"recycling:glass":"yes","recycling_type":"container"}},"type":"Feature"},
	{"geometry":{"coordinates":[-1.560298,53.811788],"type":"Point"},"properties":{"amenity":"recycling","osm_id":"3222635061","tag":{"glass_colour":"mixed","recycling:glass":"yes","recycling_type":"container"}},"type":"Feature"},
	{"geometry":{"coordinates":[-1.563573,53.812527],"type":"Point"},"properties":{"amenity":"waste_basket","osm_id":"3223342561","tag":{"waste":"dog_excrement"}},"type":"Feature"},
	{"geometry":{"coordinates":[-1.570068,53.812106],"type":"Point"},"properties":{"amenity":"waste_basket","osm_id":"3225905505"},"type":"Feature"},
	{"geometry":{"coordinates":[-1.57676,53.812371],"type":"Point"},"properties":{"amenity":"waste_basket","osm_id":"3225905509"},"type":"Feature"},
	{"geometry":{"coordinates":[-1.563969,53.809305],"type":"Point"},"properties":{"amenity":"waste_basket","osm_id":"3225929361"},"type":"Feature"},
	{"geometry":{"coordinates":[-1.568449,53.812553],"type":"Point"},"properties":{"amenity":"waste_basket","osm_id":"3225929363"},"type":"Feature"},
	{"geometry":{"coordinates":[-1.568889,53.81242],"type":"Point"},"properties":{"amenity":"waste_basket","osm_id":"3225929364"},"type":"Feature"},
	{"geometry":{"coordinates":[-1.57581,53.811413],"type":"Point"},"properties":{"amenity":"waste_basket","osm_id":"3225929365"},"type":"Feature"},
	{"geometry":{"coordinates":[-1.565036,53.809745],"type":"Point"},"properties":{"amenity":"waste_basket","osm_id":"3225929461"},"type":"Feature"},
	{"geometry":{"coordinates":[-1.569041,53.812392],"type":"Point"},"properties":{"amenity":"waste_basket","osm_id":"3225929462"},"type":"Feature"},
	{"geometry":{"coordinates":[-1.565118,53.809769],"type":"Point"},"properties":{"amenity":"waste_basket","osm_id":"3225929561"},"type":"Feature"},
	{"geometry":{"coordinates":[-1.565932,53.809997],"type":"Point"},"properties":{"amenity":"waste_basket","osm_id":"3225929562"},"type":"Feature"},
	{"geometry":{"coordinates":[-1.569941,53.810545],"type":"Point"},"properties":{"amenity":"waste_basket","osm_id":"3225929563"},"type":"Feature"},
	{"geometry":{"coordinates":[-1.569334,53.812183],"type":"Point"},"properties":{"amenity":"waste_basket","osm_id":"3225929566"},"type":"Feature"},
	{"geometry":{"coordinates":[-1.568642,53.812496],"type":"Point"},"properties":{"amenity":"waste_basket","osm_id":"3225929662"},"type":"Feature"},
	{"geometry":{"coordinates":[-1.575816,53.811313],"type":"Point"},"properties":{"amenity":"recycling","osm_id":"3225929769","tag":{"recycling:clothes":"yes"}},"type":"Feature"},
	{"geometry":{"coordinates":[-1.509392,53.823034],"type":"Point"},"properties":{"amenity":"recycling","osm_id":"3777343523","tag":{"recycling:clothes":"yes","recycling:glass":"yes","recycling:paper":"yes","recycling:shoes":"yes","recycling:small_appliances":"yes","recycling_type":"container"}},"type":"Feature"},
	{"geometry":{"coordinates":[-1.545631,53.803457],"type":"Point"},"properties":{"amenity":"waste_basket","osm_id":"3887608948"},"type":"Feature"},
	{"geometry":{"coordinates":[-1.545339,53.803291],"type":"Point"},"properties":{"amenity":"waste_basket","osm_id":"3887608949"},"type":"Feature"},
	{"geometry":{"coordinates":[-1.545231,53.803684],"type":"Point"},"properties":{"amenity":"waste_basket","osm_id":"3887608950"},"type":"Feature"},
	{"geometry":{"coordinates":[-1.544972,53.803541],"type":"Point"},"properties":{"amenity":"waste_basket","osm_id":"3887608951"},"type":"Feature"},
	{"geometry":{"coordinates":[-1.553797,53.820965],"type":"Point"},"properties":{"amenity":"recycling","osm_id":"4162184846","tag":{"recycling:paper":"yes","recycling_type":"container"}},"type":"Feature"},
	{"geometry":{"coordinates":[-1.563458,53.835755],"type":"Point"},"properties":{"amenity":"waste_basket","osm_id":"4203189935"},"type":"Feature"},
	{"geometry":{"coordinates":[-1.564418,53.836085],"type":"Point"},"properties":{"amenity":"waste_basket","osm_id":"4203189936","tag":{"waste":"dog_excrement"}},"type":"Feature"},
	{"geometry":{"coordinates":[-1.568912,53.837323],"type":"Point"},"properties":{"amenity":"waste_basket","osm_id":"4203189938","tag":{"waste":"dog_excrement"}},"type":"Feature"},
	{"geometry":{"coordinates":[-1.570329,53.837561],"type":"Point"},"properties":{"amenity":"waste_basket","osm_id":"4203189939"},"type":"Feature"},
	{"geometry":{"coordinates":[-1.571509,53.837594],"type":"Point"},"properties":{"amenity":"waste_basket","osm_id":"4203189941","tag":{"waste":"dog_excrement"}},"type":"Feature"},
	{"geometry":{"coordinates":[-1.575241,53.833091],"type":"Point"},"properties":{"amenity":"waste_basket","osm_id":"4209816017"},"type":"Feature"},
	{"geometry":{"coordinates":[-1.574366,53.831265],"type":"Point"},"properties":{"amenity":"waste_basket","osm_id":"4209816019","tag":{"waste":"dog_excrement"}},"type":"Feature"},
	{"geometry":{"coordinates":[-1.573815,53.830788],"type":"Point"},"properties":{"amenity":"waste_basket","osm_id":"4209816024"},"type":"Feature"},
	{"geometry":{"coordinates":[-1.576137,53.833915],"type":"Point"},"properties":{"amenity":"waste_basket","osm_id":"4214304893","tag":{"waste":"dog_excrement"}},"type":"Feature"},
	{"geometry":{"coordinates":[-1.575668,53.834175],"type":"Point"},"properties":{"amenity":"waste_basket","osm_id":"4214304896"},"type":"Feature"},
	{"geometry":{"coordinates":[-1.577072,53.835485],"type":"Point"},"properties":{"amenity":"waste_basket","osm_id":"4214304897","tag":{"waste":"dog_excrement"}},"type":"Feature"},
	{"geometry":{"coordinates":[-1.576442,53.832987],"type":"Point"},"properties":{"amenity":"waste_basket","osm_id":"4214304898","tag":{"waste":"dog_excrement"}},"type":"Feature"},
	{"geometry":{"coordinates":[-1.576125,53.831409],"type":"Point"},"properties":{"amenity":"waste_basket","osm_id":"4214304900","tag":{"waste":"dog_excrement"}},"type":"Feature"},
	{"geometry":{"coordinates":[-1.574741,53.831382],"type":"Point"},"properties":{"amenity":"waste_basket","osm_id":"4214304902"},"type":"Feature"},
	{"geometry":{"coordinates":[-1.574339,53.830914],"type":"Point"},"properties":{"amenity":"waste_basket","osm_id":"4214304903"},"type":"Feature"},
	{"geometry":{"coordinates":[-1.571172,53.836182],"type":"Point"},"properties":{"amenity":"waste_basket","osm_id":"4214393628"},"type":"Feature"},
	{"geometry":{"coordinates":[-1.566219,53.833221],"type":"Point"},"properties":{"amenity":"waste_basket","osm_id":"4214420527"},"type":"Feature"},
	{"geometry":{"coordinates":[-1.567625,53.829329],"type":"Point"},"properties":{"amenity":"waste_basket","osm_id":"4214420529"},"type":"Feature"},
	{"geometry":{"coordinates":[-1.567058,53.829003],"type":"Point"},"properties":{"amenity":"waste_basket","osm_id":"4214420530"},"type":"Feature"},
	{"geometry":{"coordinates":[-1.567113,53.82905],"type":"Point"},"properties":{"amenity":"waste_basket","osm_id":"4214420531"},"type":"Feature"},
	{"geometry":{"coordinates":[-1.566978,53.828733],"type":"Point"},"properties":{"amenity":"waste_basket","osm_id":"4214420532"},"type":"Feature"},
	{"geometry":{"coordinates":[-1.566895,53.828657],"type":"Point"},"properties":{"amenity":"waste_basket","osm_id":"4214420533"},"type":"Feature"},
	{"geometry":{"coordinates":[-1.574374,53.83176],"type":"Point"},"properties":{"amenity":"waste_basket","osm_id":"4214420536"},"type":"Feature"},
	{"geometry":{"coordinates":[-1.574457,53.832547],"type":"Point"},"properties":{"amenity":"waste_basket","osm_id":"4214420537","tag":{"waste":"dog_excrement"}},"type":"Feature"},
	{"geometry":{"coordinates":[-1.548929,53.801614],"type":"Point"},"properties":{"amenity":"waste_basket","osm_id":"4362565016"},"type":"Feature"},
	{"geometry":{"coordinates":[-1.568259,53.803698],"type":"Point"},"properties":{"amenity":"waste_basket","osm_id":"4401401653"},"type":"Feature"},
	{"geometry":{"coordinates":[-1.558516,53.801015],"type":"Point"},"properties":{"amenity":"recycling","osm_id":"4449807813"},"type":"Feature"},
	{"geometry":{"coordinates":[-1.552555,53.808461],"type":"Point"},"properties":{"amenity":"waste_basket","osm_id":"4547492474"},"type":"Feature"},
	{"geometry":{"coordinates":[-1.562286,53.814051],"type":"Point"},"properties":{"amenity":"recycling","osm_id":"5356786143","tag":{"recycling:clothes":"yes","recycling:glass":"yes","recycling:shoes":"yes","recycling_type":"container"}},"type":"Feature"},
	{"geometry":{"coordinates":[-1.549721,53.803367],"type":"Point"},"properties":{"amenity":"waste_basket","osm_id":"5512423009"},"type":"Feature"},
	{"geometry":{"coordinates":[-1.57048,53.807724],"type":"Point"},"properties":{"amenity":"recycling","osm_id":"7164717843","tag":{"recycling:glass":"yes","recycling_type":"container"}},"type":"Feature"},
	{"geometry":{"coordinates":[-1.555149,53.831113],"type":"Point"},"properties":{"amenity":"waste_basket","osm_id":"7429085318","tag":{"collection_times":"Fr","ref:UK:leedscc:bin":"2991"}},"type":"Feature"},
	{"geometry":{"coordinates":[-1.569923,53.812223],"type":"Point"},"properties":{"amenity":"waste_basket","osm_id":"7429085320","tag":{"collection_times":"We","ref:UK:leedscc:bin":"470"}},"type":"Feature"},
	{"geometry":{"coordinates":[-1.554814,53.831013],"type":"Point"},"properties":{"amenity":"waste_basket","osm_id":"7429085327","tag":{"collection_times":"Mo-Fr","ref:UK:leedscc:bin":"2992"}},"type":"Feature"},
	{"geometry":{"coordinates":[-1.569887,53.810707],"type":"Point"},"properties":{"amenity":"waste_basket","osm_id":"7429085328","tag":{"collection_times":"We","condition":"GOOD","ref:UK:leedscc:bin":"2784","waste_basket:model":"METAL SQUARE"}},"type":"Feature"},
	{"geometry":{"coordinates":[-1.576495,53.812311],"type":"Point"},"properties":{"amenity":"waste_basket","osm_id":"7429085331","tag":{"collection_times":"We","condition":"GOOD","ref:UK:leedscc:bin":"542","waste_basket:model":"METAL SQUARE"}},"type":"Feature"},
	{"geometry":{"coordinates":[-1.555365,53.831072],"type":"Point"},"properties":{"amenity":"waste_basket","osm_id":"7429085337","tag":{"collection_times":"Mo-Fr","ref:UK:leedscc:bin":"2990"}},"type":"Feature"},
	{"geometry":{"coordinates":[-1.531602,53.819937],"type":"Point"},"properties":{"amenity":"waste_basket","osm_id":"7429085339","tag":{"collection_times":"Mo; Th","ref:UK:leedscc:bin":"622"}},"type":"Feature"},
	{"geometry":{"coordinates":[-1.56892,53.81221],"type":"Point"},"properties":{"amenity":"waste_basket","osm_id":"7429085340","tag":{"collection_times":"Th","condition":"GOOD","ref:UK:leedscc:bin":"5778","waste_basket:model":"METAL SQUARE"}},"type":"Feature"},
	{"geometry":{"coordinates":[-1.537429,53.828012],"type":"Point"},"properties":{"amenity":"waste_basket","osm_id":"7429085342","tag":{"collection_times":"We; Sa","ref:UK:leedscc:bin":"1375"}},"type":"Feature"},
	{"geometry":{"coordinates":[-1.552179,53.808549],"type":"Point"},"properties":{"amenity":"waste_basket","osm_id":"7429085348","tag":{"collection_times":"Su","condition":"GOOD","ref:UK:leedscc:bin":"3722","waste_basket:model":"METAL SQURE"}},"type":"Feature"},
	{"geometry":{"coordinates":[-1.555534,53.830987],"type":"Point"},"properties":{"amenity":"waste_basket","osm_id":"7429085351","tag":{"collection_times":"Mo-Fr","ref:UK:leedscc:bin":"2989"}},"type":"Feature"},
	{"geometry":{"coordinates":[-1.566659,53.828249],"type":"Point"},"properties":{"amenity":"waste_basket","osm_id":"7429085352","tag":{"collection_times":"Mo-Fr","ref:UK:leedscc:bin":"1186"}},"type":"Feature"},
	{"geometry":{"coordinates":[-1.508371,53.830887],"type":"Point"},"properties":{"amenity":"waste_basket","osm_id":"7429085353","tag":{"collection_times":"We; Su","ref:UK:leedscc:bin":"1106"}},"type":"Feature"},
	{"geometry":{"coordinates":[-1.532046,53.820281],"type":"Point"},"properties":{"amenity":"waste_basket","osm_id":"7429085354","tag":{"collection_times":"Mo; Th","ref:UK:leedscc:bin":"619"}},"type":"Feature"},
	{"geometry":{"coordinates":[-1.537697,53.828719],"type":"Point"},"properties":{"amenity":"waste_basket","osm_id":"7429085364","tag":{"collection_times":"Mo-Fr","ref:UK:leedscc:bin":"1377"}},"type":"Feature"},
	{"geometry":{"coordinates":[-1.55474,53.831225],"type":"Point"},"properties":{"amenity":"waste_basket","osm_id":"7429085365","tag":{"collection_times":"Mo-Fr","ref:UK:leedscc:bin":"2994"}},"type":"Feature"},
	{"geometry":{"coordinates":[-1.569443,53.810676],"type":"Point"},"properties":{"amenity":"waste_basket","osm_id":"7429085368","tag":{"collection_times":"Th","condition":"FAIR","ref:UK:leedscc:bin":"5771","waste_basket:model":"METAL TWIN"}},"type":"Feature"},
	{"geometry":{"coordinates":[-1.56366,53.835455],"type":"Point"},"properties":{"amenity":"waste_basket","osm_id":"7429085369","tag":{"collection_times":"Mo; Fr","ref:UK:leedscc:bin":"666"}},"type":"Feature"},
	{"geometry":{"coordinates":[-1.55455,53.831069],"type":"Point"},"properties":{"amenity":"waste_basket","osm_id":"7429085370","tag":{"collection_times":"Mo-Fr","ref:UK:leedscc:bin":"2993"}},"type":"Feature"},
	{"geometry":{"coordinates":[-1.550072,53.803111],"type":"Point"},"properties":{"amenity":"waste_basket","osm_id":"7429085371","tag":{"operator":"CITY CENTRE MANAGEMENT","ref:UK:leedscc:bin":"517"}},"type":"Feature"},
	{"geometry":{"coordinates":[-1.532059,53.820344],"type":"Point"},"properties":{"amenity":"waste_basket","osm_id":"7429085373","tag":{"collection_times":"Mo; Th","ref:UK:leedscc:bin":"621"}},"type":"Feature"},
	{"geometry":{"coordinates":[-1.537131,53.827873],"type":"Point"},"properties":{"amenity":"waste_basket","osm_id":"7429085376","tag":{"collection_times":"We; Sa","ref:UK:leedscc:bin":"1374"}},"type":"Feature"},
	{"geometry":{"coordinates":[-1.563923,53.835512],"type":"Point"},"properties":{"amenity":"waste_basket","osm_id":"7429085379","tag":{"collection_times":"Mo; Fr","ref:UK:leedscc:bin":"665"}},"type":"Feature"},
	{"geometry":{"coordinates":[-1.564327,53.80965],"type":"Point"},"properties":{"amenity":"waste_basket","osm_id":"7429085383","tag":{"collection_times":"Mo","condition":"POOR","ref:UK:leedscc:bin":"2182","waste_basket:model":"CONCRETE OPEN TOP"}},"type":"Feature"},
	{"geometry":{"coordinates":[-1.54919,53.801998],"type":"Point"},"properties":{"amenity":"waste_basket","osm_id":"7429087885","tag":{"operator":"CITY CENTRE MANAGEMENT","ref:UK:leedscc:bin":"515"}},"type":"Feature"},
	{"geometry":{"coordinates":[-1.56979,53.810958],"type":"Point"},"properties":{"amenity":"waste_basket","osm_id":"7429087886","tag":{"collection_times":"We","condition":"FAIR","ref:UK:leedscc:bin":"2646","waste_basket:model":"METAL TWIN"}},"type":"Feature"},
	{"geometry":{"coordinates":[-1.568082,53.829672],"type":"Point"},"properties":{"amenity":"waste_basket","osm_id":"7429087890","tag":{"collection_times":"Mo-Fr","ref:UK:leedscc:bin":"1180"}},"type":"Feature"},
	{"geometry":{"coordinates":[-1.508619,53.831066],"type":"Point"},"properties":{"amenity":"waste_basket","osm_id":"7429087897","tag":{"collection_times":"We; Su","ref:UK:leedscc:bin":"1114"}},"type":"Feature"},
	{"geometry":{"coordinates":[-1.567429,53.803709],"type":"Point"},"properties":{"amenity":"waste_basket","osm_id":"7429087902","tag":{"collection_times":"Mo","condition":"GOOD","ref:UK:leedscc:bin":"4532","waste_basket:model":"METAL SQUARE"}},"type":"Feature"},
	{"geometry":{"coordinates":[-1.573523,53.83133],"type":"Point"},"properties":{"amenity":"waste_basket","osm_id":"7429087909","tag":{"collection_times":"Mo; Fr","ref:UK:leedscc:bin":"1176"}},"type":"Feature"},
	{"geometry":{"coordinates":[-1.566045,53.828717],"type":"Point"},"properties":{"amenity":"waste_basket","osm_id":"7429087911","tag":{"collection_times":"Mo-Fr","ref:UK:leedscc:bin":"3075"}},"type":"Feature"},
	{"geometry":{"coordinates":[-1.561261,53.814136],"type":"Point"},"properties":{"amenity":"waste_basket","osm_id":"7429087912","tag":{"collection_times":"Su","condition":"GOOD","ref:UK:leedscc:bin":"4178","waste_basket:model":"METAL SQUARE"}},"type":"Feature"},
	{"geometry":{"coordinates":[-1.573031,53.831009],"type":"Point"},"properties":{"amenity":"waste_basket","osm_id":"7429087913","tag":{"collection_times":"Mo; Fr","ref:UK:leedscc:bin":"1175"}},"type":"Feature"},
	{"geometry":{"coordinates":[-1.504015,53.837253],"type":"Point"},"properties":{"amenity":"waste_basket","osm_id":"7429087914","tag":{"collection_times":"Mo-Fr","ref:UK:leedscc:bin":"2607"}},"type":"Feature"},
	{"geometry":{"coordinates":[-1.575654,53.810894],"type":"Point"},"properties":{"amenity":"waste_basket","osm_id":"7429087917","tag":{"collection_times":"We","condition":"FAIR","ref:UK:leedscc:bin":"540","waste_basket:model":"MODEL TWIN"}},"type":"Feature"},
	{"geometry":{"coordinates":[-1.537249,53.827669],"type":"Point"},"properties":{"amenity":"waste_basket","osm_id":"7429087923","tag":{"collection_times":"We; Sa","ref:UK:leedscc:bin":"1373"}},"type":"Feature"},
	{"geometry":{"coordinates":[-1.504567,53.837241],"type":"Point"},"properties":{"amenity":"waste_basket","osm_id":"7429087924","tag":{"collection_times":"Mo-Fr","ref:UK:leedscc:bin":"2608"}},"type":"Feature"},
	{"geometry":{"coordinates":[-1.533034,53.842725],"type":"Point"},"properties":{"amenity":"waste_basket","osm_id":"7429087926","tag":{"collection_times":"Tu; Th","ref:UK:leedscc:bin":"3099"}},"type":"Feature"},
	{"geometry":{"coordinates":[-1.570964,53.811935],"type":"Point"},"properties":{"amenity":"waste_basket","osm_id":"7429087927","tag":{"collection_times":"We","condition":"GOOD","ref:UK:leedscc:bin":"467","waste_basket:model":"METAL SQUARE"}},"type":"Feature"},
	{"geometry":{"coordinates":[-1.50523,53.837611],"type":"Point"},"properties":{"amenity":"waste_basket","osm_id":"7429087937","tag":{"collection_times":"We; Su","ref:UK:leedscc:bin":"2610"}},"type":"Feature"},
	{"geometry":{"coordinates":[-1.549027,53.802227],"type":"Point"},"properties":{"amenity":"waste_basket","osm_id":"7429087939","tag":{"operator":"CITY CENTRE MANAGEMENT","ref:UK:leedscc:bin":"516"}},"type":"Feature"},
	{"geometry":{"coordinates":[-1.570049,53.809927],"type":"Point"},"properties":{"amenity":"waste_basket","osm_id":"7429087942","tag":{"collection_times":"Th","condition":"GOOD","ref:UK:leedscc:bin":"5088","waste_basket:model":"METAL SQUARE"}},"type":"Feature"},
	{"geometry":{"coordinates":[-1.575209,53.81088],"type":"Point"},"properties":{"amenity":"waste_basket","osm_id":"7429087946","tag":{"collection_times":"We","condition":"FAIR","ref:UK:leedscc:bin":"548","waste_basket:model":"METAL TWIN"}},"type":"Feature"},
	{"geometry":{"coordinates":[-1.548984,53.800961],"type":"Point"},"properties":{"amenity":"waste_basket","osm_id":"7429087948","tag":{"operator":"CITY CENTRE MANAGEMENT","ref:UK:leedscc:bin":"513"}},"type":"Feature"},
	{"geometry":{"coordinates":[-1.568462,53.804369],"type":"Point"},"properties":{"amenity":"waste_basket","osm_id":"7429087954","tag":{"collection_times":"Mo","condition":"GOOD","ref:UK:leedscc:bin":"4533","waste_basket:model":"METAL SQUARE"}},"type":"Feature"},
	{"geometry":{"coordinates":[-1.505004,53.837216],"type":"Point"},"properties":{"amenity":"waste_basket","osm_id":"7429087960","tag":{"collection_times":"Mo-Fr","ref:UK:leedscc:bin":"2609"}},"type":"Feature"},
	{"geometry":{"coordinates":[-1.536386,53.828755],"type":"Point"},"properties":{"amenity":"waste_basket","osm_id":"7429087964","tag":{"collection_times":"Mo; Th","ref:UK:leedscc:bin":"3373"}},"type":"Feature"},
	{"geometry":{"coordinates":[-1.568608,53.829773],"type":"Point"},"properties":{"amenity":"waste_basket","osm_id":"7429087966","tag":{"collection_times":"Mo-Fr","ref:UK:leedscc:bin":"1179"}},"type":"Feature"},
	{"geometry":{"coordinates":[-1.533468,53.842936],"type":"Point"},"properties":{"amenity":"waste_basket","osm_id":"7429087970","tag":{"collection_times":"Mo-Fr","ref:UK:leedscc:bin":"1353"}},"type":"Feature"},
	{"geometry":{"coordinates":[-1.544418,53.802777],"type":"Point"},"properties":{"amenity":"waste_basket","osm_id":"7429087971","tag":{"operator":"CITY CENTRE MANAGEMENT","ref:UK:leedscc:bin":"2093"}},"type":"Feature"},
	{"geometry":{"coordinates":[-1.567634,53.811976],"type":"Point"},"properties":{"amenity":"waste_basket","osm_id":"7429087974","tag":{"collection_times":"Th","condition":"GOOD","ref:UK:leedscc:bin":"5768","waste_basket:model":"METAL SQUARE"}},"type":"Feature"},
	{"geometry":{"coordinates":[-1.503787,53.837047],"type":"Point"},"properties":{"amenity":"waste_basket","osm_id":"7429087975","tag":{"collection_times":"Mo-Fr","ref:UK:leedscc:bin":"2606"}},"type":"Feature"},
	{"geometry":{"coordinates":[-1.553948,53.831336],"type":"Point"},"properties":{"amenity":"waste_basket","osm_id":"7429087976","tag":{"collection_times":"Mo-Fr","ref:UK:leedscc:bin":"2995"}},"type":"Feature"},
	{"geometry":{"coordinates":[-1.53857,53.828858],"type":"Point"},"properties":{"amenity":"waste_basket","osm_id":"7429087981","tag":{"collection_times":"Mo-Fr","ref:UK:leedscc:bin":"2984"}},"type":"Feature"},
	{"geometry":{"coordinates":[-1.545615,53.80253],"type":"Point"},"properties":{"amenity":"waste_basket","osm_id":"7429087983","tag":{"operator":"CITY CENTRE MANAGEMENT","ref:UK:leedscc:bin":"3714"}},"type":"Feature"},
	{"geometry":{"coordinates":[-1.562101,53.814787],"type":"Point"},"properties":{"amenity":"waste_basket","osm_id":"7429087992","tag":{"collection_times":"Th","condition":"FAIR","ref:UK:leedscc:bin":"7208","waste_basket:model":"METAL TWIN"}},"type":"Feature"},
	{"geometry":{"coordinates":[-1.533558,53.843154],"type":"Point"},"properties":{"amenity":"waste_basket","osm_id":"7429087993","tag":{"collection_times":"Mo-Fr","ref:UK:leedscc:bin":"1352"}},"type":"Feature"},
	{"geometry":{"coordinates":[-1.533523,53.843259],"type":"Point"},"properties":{"amenity":"waste_basket","osm_id":"7429087996","tag":{"collection_times":"Mo-Fr","ref:UK:leedscc:bin":"1316"}},"type":"Feature"},
	{"geometry":{"coordinates":[-1.548843,53.802733],"type":"Point"},"properties":{"amenity":"waste_basket","osm_id":"7429087997","tag":{"operator":"CITY CENTRE MANAGEMENT","ref:UK:leedscc:bin":"2567"}},"type":"Feature"},
	{"geometry":{"coordinates":[-1.546474,53.802806],"type":"Point"},"properties":{"amenity":"waste_basket","osm_id":"7429087998","tag":{"operator":"CITY CENTRE MANAGEMENT","ref:UK:leedscc:bin":"789"}},"type":"Feature"},
	{"geometry":{"coordinates":[-1.542539,53.844564],"type":"Point"},"properties":{"amenity":"waste_basket","osm_id":"7429088000","tag":{"collection_times":"Mo-Fr","ref:UK:leedscc:bin":"3078"}},"type":"Feature"},
	{"geometry":{"coordinates":[-1.54786,53.802155],"type":"Point"},"properties":{"amenity":"waste_basket","osm_id":"7429088003","tag":{"operator":"CITY CENTRE MANAGEMENT","ref:UK:leedscc:bin":"2564"}},"type":"Feature"},
	{"geometry":{"coordinates":[-1.505383,53.83825],"type":"Point"},"properties":{"amenity":"waste_basket","osm_id":"7429088005","tag":{"collection_times":"We; Su","ref:UK:leedscc:bin":"2611"}},"type":"Feature"},
	{"geometry":{"coordinates":[-1.548368,53.803099],"type":"Point"},"properties":{"amenity":"waste_basket","osm_id":"7429088006","tag":{"operator":"CITY CENTRE MANAGEMENT","ref:UK:leedscc:bin":"2568"}},"type":"Feature"},
	{"geometry":{"coordinates":[-1.504249,53.8369],"type":"Point"},"properties":{"amenity":"waste_basket","osm_id":"7429088009","tag":{"collection_times":"Mo-Fr","ref:UK:leedscc:bin":"2604"}},"type":"Feature"},
	{"geometry":{"coordinates":[-1.567134,53.803147],"type":"Point"},"properties":{"amenity":"waste_basket","osm_id":"7429088015","tag":{"collection_times":"Mo","condition":"GOOD","ref:UK:leedscc:bin":"4531","waste_basket:model":"METAL SQUARE"}},"type":"Feature"},
	{"geometry":{"coordinates":[-1.503973,53.836899],"type":"Point"},"properties":{"amenity":"waste_basket","osm_id":"7429088017","tag":{"collection_times":"Mo-Fr","ref:UK:leedscc:bin":"2605"}},"type":"Feature"},
	{"geometry":{"coordinates":[-1.56652,53.827575],"type":"Point"},"properties":{"amenity":"waste_basket","osm_id":"7429088018","tag":{"collection_times":"Mo-Fr","ref:UK:leedscc:bin":"2069"}},"type":"Feature"},
	{"geometry":{"coordinates":[-1.533556,53.843358],"type":"Point"},"properties":{"amenity":"waste_basket","osm_id":"7429088021","tag":{"collection_times":"Mo-Fr","ref:UK:leedscc:bin":"1351"}},"type":"Feature"},
	{"geometry":{"coordinates":[-1.532308,53.84387],"type":"Point"},"properties":{"amenity":"waste_basket","osm_id":"7429088023","tag":{"collection_times":"Tu; Th","ref:UK:leedscc:bin":"84"}},"type":"Feature"},
	{"geometry":{"coordinates":[-1.533519,53.842541],"type":"Point"},"properties":{"amenity":"waste_basket","osm_id":"7429088026","tag":{"collection_times":"Mo-Fr","ref:UK:leedscc:bin":"1354"}},"type":"Feature"},
	{"geometry":{"coordinates":[-1.504709,53.836888],"type":"Point"},"properties":{"amenity":"waste_basket","osm_id":"7429088031","tag":{"collection_times":"Mo-Fr","ref:UK:leedscc:bin":"2603"}},"type":"Feature"},
	{"geometry":{"coordinates":[-1.565365,53.828785],"type":"Point"},"properties":{"amenity":"waste_basket","osm_id":"7429088032","tag":{"collection_times":"Mo-Fr","ref:UK:leedscc:bin":"3074"}},"type":"Feature"},
	{"geometry":{"coordinates":[-1.547412,53.801802],"type":"Point"},"properties":{"amenity":"waste_basket","osm_id":"7429088034","tag":{"operator":"CITY CENTRE MANAGEMENT","ref:UK:leedscc:bin":"782"}},"type":"Feature"},
	{"geometry":{"coordinates":[-1.545948,53.802447],"type":"Point"},"properties":{"amenity":"waste_basket","osm_id":"7429088035","tag":{"operator":"CITY CENTRE MANAGEMENT","ref:UK:leedscc:bin":"3710"}},"type":"Feature"},
	{"geometry":{"coordinates":[-1.506547,53.839032],"type":"Point"},"properties":{"amenity":"waste_basket","osm_id":"7429088037","tag":{"collection_times":"We; Su","ref:UK:leedscc:bin":"2381"}},"type":"Feature"},
	{"geometry":{"coordinates":[-1.54972,53.800813],"type":"Point"},"properties":{"amenity":"waste_basket","osm_id":"7429088038","tag":{"operator":"CITY CENTRE MANAGEMENT","ref:UK:leedscc:bin":"1141"}},"type":"Feature"},
	{"geometry":{"coordinates":[-1.533789,53.843059],"type":"Point"},"properties":{"amenity":"waste_basket","osm_id":"7429088040","tag":{"collection_times":"Mo-Fr","ref:UK:leedscc:bin":"1350"}},"type":"Feature"},
	{"geometry":{"coordinates":[-1.542324,53.844535],"type":"Point"},"properties":{"amenity":"waste_basket","osm_id":"7429088042","tag":{"collection_times":"Mo-Fr","ref:UK:leedscc:bin":"3079"}},"type":"Feature"},
	{"geometry":{"coordinates":[-1.567736,53.811712],"type":"Point"},"properties":{"amenity":"waste_basket","osm_id":"7429088043","tag":{"collection_times":"Th","condition":"GOOD","ref:UK:leedscc:bin":"5770","waste_basket:model":"METAL SQUARE"}},"type":"Feature"},
	{"geometry":{"coordinates":[-1.507641,53.829176],"type":"Point"},"properties":{"amenity":"waste_basket","osm_id":"7429088044","tag":{"collection_times":"We; Su","ref:UK:leedscc:bin":"1105"}},"type":"Feature"},
	{"geometry":{"coordinates":[-1.538382,53.829211],"type":"Point"},"properties":{"amenity":"waste_basket","osm_id":"7429088045","tag":{"collection_times":"Mo-Fr","ref:UK:leedscc:bin":"1378"}},"type":"Feature"},
	{"geometry":{"coordinates":[-1.571619,53.811782],"type":"Point"},"properties":{"amenity":"waste_basket","osm_id":"7429088052","tag":{"collection_times":"We","ref:UK:leedscc:bin":"469"}},"type":"Feature"},
	{"geometry":{"coordinates":[-1.563415,53.808383],"type":"Point"},"properties":{"amenity":"waste_basket","osm_id":"7429088055","tag":{"collection_times":"Mo","ref:UK:leedscc:bin":"2960"}},"type":"Feature"},
	{"geometry":{"coordinates":[-1.548129,53.800757],"type":"Point"},"properties":{"amenity":"waste_basket","osm_id":"7429088056","tag":{"operator":"CITY CENTRE MANAGEMENT","ref:UK:leedscc:bin":"1142"}},"type":"Feature"},
	{"geometry":{"coordinates":[-1.547362,53.801986],"type":"Point"},"properties":{"amenity":"waste_basket","osm_id":"7429088061","tag":{"operator":"CITY CENTRE MANAGEMENT","ref:UK:leedscc:bin":"2566"}},"type":"Feature"},
	{"geometry":{"coordinates":[-1.542132,53.844576],"type":"Point"},"properties":{"amenity":"waste_basket","osm_id":"7429088062","tag":{"collection_times":"Mo-Fr","ref:UK:leedscc:bin":"3080"}},"type":"Feature"},
	{"geometry":{"coordinates":[-1.539006,53.828887],"type":"Point"},"properties":{"amenity":"waste_basket","osm_id":"7429088066","tag":{"collection_times":"We; Th","ref:UK:leedscc:bin":"2983"}},"type":"Feature"},
	{"geometry":{"coordinates":[-1.505099,53.836867],"type":"Point"},"properties":{"amenity":"waste_basket","osm_id":"7429088070","tag":{"collection_times":"We; Su","ref:UK:leedscc:bin":"2595"}},"type":"Feature"},
	{"geometry":{"coordinates":[-1.547455,53.802176],"type":"Point"},"properties":{"amenity":"waste_basket","osm_id":"7429088076","tag":{"operator":"CITY CENTRE MANAGEMENT","ref:UK:leedscc:bin":"2565"}},"type":"Feature"},
	{"geometry":{"coordinates":[-1.549703,53.800679],"type":"Point"},"properties":{"amenity":"waste_basket","osm_id":"7429088078","tag":{"operator":"CITY CENTRE MANAGEMENT","ref:UK:leedscc:bin":"1140"}},"type":"Feature"},
	{"geometry":{"coordinates":[-1.56152,53.814974],"type":"Point"},"properties":{"amenity":"waste_basket","osm_id":"7429088080","tag":{"collection_times":"Su","condition":"GOOD","ref:UK:leedscc:bin":"5772","waste_basket:model":"METAL SQUARE"}},"type":"Feature"},
	{"geometry":{"coordinates":[-1.547365,53.803716],"type":"Point"},"properties":{"amenity":"waste_basket","osm_id":"7429088082","tag":{"ref:UK:leedscc:bin":"3713"}},"type":"Feature"},
	{"geometry":{"coordinates":[-1.556158,53.831852],"type":"Point"},"properties":{"amenity":"waste_basket","osm_id":"7429088086","tag":{"collection_times":"Mo; Fr","ref:UK:leedscc:bin":"2981"}},"type":"Feature"},
	{"geometry":{"coordinates":[-1.533636,53.84231],"type":"Point"},"properties":{"amenity":"waste_basket","osm_id":"7429088088","tag":{"collection_times":"Mo-Fr","ref:UK:leedscc:bin":"1355"}},"type":"Feature"},
	{"geometry":{"coordinates":[-1.566567,53.827337],"type":"Point"},"properties":{"amenity":"waste_basket","osm_id":"7429088089","tag":{"collection_times":"Mo-Fr","ref:UK:leedscc:bin":"2079"}},"type":"Feature"},
	{"geometry":{"coordinates":[-1.545431,53.802202],"type":"Point"},"properties":{"amenity":"waste_basket","osm_id":"7429088091","tag":{"operator":"CITY CENTRE MANAGEMENT","ref:UK:leedscc:bin":"3709"}},"type":"Feature"},
	{"geometry":{"coordinates":[-1.533601,53.842235],"type":"Point"},"properties":{"amenity":"waste_basket","osm_id":"7429088096","tag":{"collection_times":"Mo-Fr","ref:UK:leedscc:bin":"1315"}},"type":"Feature"},
	{"geometry":{"coordinates":[-1.533979,53.842532],"type":"Point"},"properties":{"amenity":"waste_basket","osm_id":"7429088103","tag":{"collection_times":"Mo-Fr","ref:UK:leedscc:bin":"3105"}},"type":"Feature"},
	{"geometry":{"coordinates":[-1.53936,53.82814],"type":"Point"},"properties":{"amenity":"waste_basket","osm_id":"7429088105","tag":{"collection_times":"We; Sa","ref:UK:leedscc:bin":"2827"}},"type":"Feature"},
	{"geometry":{"coordinates":[-1.534073,53.842674],"type":"Point"},"properties":{"amenity":"waste_basket","osm_id":"7429088106","tag":{"collection_times":"Mo-Fr","ref:UK:leedscc:bin":"3106"}},"type":"Feature"},
	{"geometry":{"coordinates":[-1.571907,53.831005],"type":"Point"},"properties":{"amenity":"waste_basket","osm_id":"7429088107","tag":{"collection_times":"Mo; Fr","ref:UK:leedscc:bin":"1174"}},"type":"Feature"},
	{"geometry":{"coordinates":[-1.569157,53.830044],"type":"Point"},"properties":{"amenity":"waste_basket","osm_id":"7429088108","tag":{"collection_times":"Mo-Fr","ref:UK:leedscc:bin":"1178"}},"type":"Feature"},
	{"geometry":{"coordinates":[-1.543852,53.802546],"type":"Point"},"properties":{"amenity":"waste_basket","osm_id":"7429088109","tag":{"operator":"CITY CENTRE MANAGEMENT","ref:UK:leedscc:bin":"2097"}},"type":"Feature"},
	{"geometry":{"coordinates":[-1.538379,53.829456],"type":"Point"},"properties":{"amenity":"waste_basket","osm_id":"7429088112","tag":{"collection_times":"Mo-Fr","ref:UK:leedscc:bin":"1379"}},"type":"Feature"},
	{"geometry":{"coordinates":[-1.542327,53.844237],"type":"Point"},"properties":{"amenity":"waste_basket","osm_id":"7429088117","tag":{"collection_times":"Tu; Th","ref:UK:leedscc:bin":"3081"}},"type":"Feature"},
	{"geometry":{"coordinates":[-1.504189,53.83967],"type":"Point"},"properties":{"amenity":"waste_basket","osm_id":"7429088118","tag":{"collection_times":"We; Su","ref:UK:leedscc:bin":"2596"}},"type":"Feature"},
	{"geometry":{"coordinates":[-1.571845,53.81097],"type":"Point"},"properties":{"amenity":"waste_basket","osm_id":"7429088127","tag":{"collection_times":"We","condition":"GOOD","ref:UK:leedscc:bin":"2783","waste_basket:model":"METAL SQUARE"}},"type":"Feature"},
	{"geometry":{"coordinates":[-1.547721,53.803638],"type":"Point"},"properties":{"amenity":"waste_basket","osm_id":"7429088130","tag":{"ref:UK:leedscc:bin":"2569"}},"type":"Feature"},
	{"geometry":{"coordinates":[-1.551635,53.807377],"type":"Point"},"properties":{"amenity":"waste_basket","osm_id":"7429088131","tag":{"collection_times":"Su","condition":"POOR","ref:UK:leedscc:bin":"3723","waste_basket:model":"METAL TWIN"}},"type":"Feature"},
	{"geometry":{"coordinates":[-1.533642,53.843862],"type":"Point"},"properties":{"amenity":"waste_basket","osm_id":"7429088132","tag":{"collection_times":"Mo-Fr","ref:UK:leedscc:bin":"1349"}},"type":"Feature"},
	{"geometry":{"coordinates":[-1.547078,53.802174],"type":"Point"},"properties":{"amenity":"waste_basket","osm_id":"7429088138","tag":{"operator":"CITY CENTRE MANAGEMENT","ref:UK:leedscc:bin":"781"}},"type":"Feature"},
	{"geometry":{"coordinates":[-1.566419,53.80309],"type":"Point"},"properties":{"amenity":"waste_basket","osm_id":"7429088140","tag":{"collection_times":"Mo","condition":"GOOD","ref:UK:leedscc:bin":"4530","waste_basket:model":"METAL SQUARE"}},"type":"Feature"},
	{"geometry":{"coordinates":[-1.560979,53.815048],"type":"Point"},"properties":{"amenity":"waste_basket","osm_id":"7429088141","tag":{"collection_times":"Su","condition":"GOOD","ref:UK:leedscc:bin":"5775","waste_basket:model":"METAL SQUARE"}},"type":"Feature"},
	{"geometry":{"coordinates":[-1.538064,53.827035],"type":"Point"},"properties":{"amenity":"waste_basket","osm_id":"7429088144","tag":{"collection_times":"We; Sa","ref:UK:leedscc:bin":"2101"}},"type":"Feature"},
	{"geometry":{"coordinates":[-1.533854,53.843806],"type":"Point"},"properties":{"amenity":"waste_basket","osm_id":"7429088147","tag":{"collection_times":"Mo-Fr","ref:UK:leedscc:bin":"1317"}},"type":"Feature"},
	{"geometry":{"coordinates":[-1.50088,53.839976],"type":"Point"},"properties":{"amenity":"waste_basket","osm_id":"7429088148","tag":{"collection_times":"We; Su","ref:UK:leedscc:bin":"2037"}},"type":"Feature"},
	{"geometry":{"coordinates":[-1.545755,53.802044],"type":"Point"},"properties":{"amenity":"waste_basket","osm_id":"7429088150","tag":{"operator":"CITY CENTRE MANAGEMENT","ref:UK:leedscc:bin":"3708"}},"type":"Feature"},
	{"geometry":{"coordinates":[-1.563149,53.815158],"type":"Point"},"properties":{"amenity":"waste_basket","osm_id":"7429088156","tag":{"collection_times":"Th","condition":"GOOD","ref:UK:leedscc:bin":"7209","waste_basket:model":"METAL SQUARE"}},"type":"Feature"},
	{"geometry":{"coordinates":[-1.53652,53.826986],"type":"Point"},"properties":{"amenity":"waste_basket","osm_id":"7429088165","tag":{"collection_times":"We; Sa","ref:UK:leedscc:bin":"1372"}},"type":"Feature"},
	{"geometry":{"coordinates":[-1.548411,53.804435],"type":"Point"},"properties":{"amenity":"waste_basket","osm_id":"7429088166","tag":{"ref:UK:leedscc:bin":"3712"}},"type":"Feature"},
	{"geometry":{"coordinates":[-1.533641,53.844011],"type":"Point"},"properties":{"amenity":"waste_basket","osm_id":"7429088169","tag":{"collection_times":"Mo-Fr","ref:UK:leedscc:bin":"1348"}},"type":"Feature"},
	{"geometry":{"coordinates":[-1.538146,53.8297],"type":"Point"},"properties":{"amenity":"waste_basket","osm_id":"7429088171","tag":{"collection_times":"Mo-Fr","ref:UK:leedscc:bin":"1380"}},"type":"Feature"},
	{"geometry":{"coordinates":[-1.500919,53.841226],"type":"Point"},"properties":{"amenity":"waste_basket","osm_id":"7429088175","tag":{"collection_times":"We; Su","ref:UK:leedscc:bin":"2525"}},"type":"Feature"},
	{"geometry":{"coordinates":[-1.531479,53.818701],"type":"Point"},"properties":{"amenity":"waste_basket","osm_id":"7429088177","tag":{"collection_times":"Mo; Th","ref:UK:leedscc:bin":"623"}},"type":"Feature"},
	{"geometry":{"coordinates":[-1.545281,53.845992],"type":"Point"},"properties":{"amenity":"waste_basket","osm_id":"7429088178","tag":{"collection_times":"Tu; Th","ref:UK:leedscc:bin":"2652"}},"type":"Feature"},
	{"geometry":{"coordinates":[-1.56646,53.827073],"type":"Point"},"properties":{"amenity":"waste_basket","osm_id":"7429088183","tag":{"collection_times":"Mo-Fr","ref:UK:leedscc:bin":"2078"}},"type":"Feature"},
	{"geometry":{"coordinates":[-1.54339,53.80254],"type":"Point"},"properties":{"amenity":"waste_basket","osm_id":"7429088188","tag":{"operator":"CITY CENTRE MANAGEMENT","ref:UK:leedscc:bin":"2094"}},"type":"Feature"},
	{"geometry":{"coordinates":[-1.52967,53.81962],"type":"Point"},"properties":{"amenity":"waste_basket","osm_id":"7429088191","tag":{"collection_times":"Mo; Th","ref:UK:leedscc:bin":"2300"}},"type":"Feature"},
	{"geometry":{"coordinates":[-1.569473,53.804878],"type":"Point"},"properties":{"amenity":"waste_basket","osm_id":"7429088193","tag":{"collection_times":"Mo","condition":"FAIR","ref:UK:leedscc:bin":"4534","waste_basket:model":"METAL TWIN"}},"type":"Feature"},
	{"geometry":{"coordinates":[-1.545219,53.801905],"type":"Point"},"properties":{"amenity":"waste_basket","osm_id":"7429088195","tag":{"operator":"CITY CENTRE MANAGEMENT","ref:UK:leedscc:bin":"3715"}},"type":"Feature"},
	{"geometry":{"coordinates":[-1.562061,53.808473],"type":"Point"},"properties":{"amenity":"waste_basket","osm_id":"7429088197","tag":{"collection_times":"Mo","condition":"GOOD","ref:UK:leedscc:bin":"2189","waste_basket:model":"METAL SQUARE"}},"type":"Feature"},
	{"geometry":{"coordinates":[-1.55494,53.801535],"type":"Point"},"properties":{"amenity":"waste_basket","osm_id":"7429088209","tag":{"operator":"CITY CENTRE MANAGEMENT","ref:UK:leedscc:bin":"1135"}},"type":"Feature"},
	{"geometry":{"coordinates":[-1.509581,53.831904],"type":"Point"},"properties":{"amenity":"waste_basket","osm_id":"7429088211","tag":{"collection_times":"We; Su","ref:UK:leedscc:bin":"1107"}},"type":"Feature"},
	{"geometry":{"coordinates":[-1.538342,53.826892],"type":"Point"},"properties":{"amenity":"waste_basket","osm_id":"7429088213","tag":{"collection_times":"We; Th","ref:UK:leedscc:bin":"2099"}},"type":"Feature"},
	{"geometry":{"coordinates":[-1.556098,53.801523],"type":"Point"},"properties":{"amenity":"waste_basket","osm_id":"7429088214","tag":{"collection_times":"Mo","condition":"POOR","ref:UK:leedscc:bin":"7233","waste_basket:model":"GREEN OPEN TOP"}},"type":"Feature"},
	{"geometry":{"coordinates":[-1.533692,53.844181],"type":"Point"},"properties":{"amenity":"waste_basket","osm_id":"7429088216","tag":{"collection_times":"Mo-Fr","ref:UK:leedscc:bin":"1318"}},"type":"Feature"},
	{"geometry":{"coordinates":[-1.505378,53.828862],"type":"Point"},"properties":{"amenity":"waste_basket","osm_id":"7429088218","tag":{"collection_times":"We; Su","ref:UK:leedscc:bin":"2600"}},"type":"Feature"},
	{"geometry":{"coordinates":[-1.554337,53.801494],"type":"Point"},"properties":{"amenity":"waste_basket","osm_id":"7429088225","tag":{"operator":"CITY CENTRE MANAGEMENT","ref:UK:leedscc:bin":"1136"}},"type":"Feature"},
	{"geometry":{"coordinates":[-1.533684,53.844229],"type":"Point"},"properties":{"amenity":"waste_basket","osm_id":"7429088227","tag":{"collection_times":"Mo-Fr","ref:UK:leedscc:bin":"1347"}},"type":"Feature"},
	{"geometry":{"coordinates":[-1.551719,53.806995],"type":"Point"},"properties":{"amenity":"waste_basket","osm_id":"7429088240","tag":{"collection_times":"Su","condition":"GOOD","ref:UK:leedscc:bin":"7204","waste_basket:model":"METAL SQUARE"}},"type":"Feature"},
	{"geometry":{"coordinates":[-1.55122,53.807129],"type":"Point"},"properties":{"amenity":"waste_basket","osm_id":"7429088241","tag":{"collection_times":"Su","condition":"GOOD","ref:UK:leedscc:bin":"3702","waste_basket:model":"METAL SQUARE"}},"type":"Feature"},
	{"geometry":{"coordinates":[-1.545561,53.801736],"type":"Point"},"properties":{"amenity":"waste_basket","osm_id":"7429088243","tag":{"operator":"CITY CENTRE MANAGEMENT","ref:UK:leedscc:bin":"3707"}},"type":"Feature"},
	{"geometry":{"coordinates":[-1.546078,53.845513],"type":"Point"},"properties":{"amenity":"waste_basket","osm_id":"7429088245","tag":{"collection_times":"Tu; Th","ref:UK:leedscc:bin":"2651"}},"type":"Feature"},
	{"geometry":{"coordinates":[-1.542909,53.846714],"type":"Point"},"properties":{"amenity":"waste_basket","osm_id":"7429088246","tag":{"collection_times":"Tu; Th","ref:UK:leedscc:bin":"2649"}},"type":"Feature"},
	{"geometry":{"coordinates":[-1.544236,53.84056],"type":"Point"},"properties":{"amenity":"waste_basket","osm_id":"7429088248","tag":{"collection_times":"Tu; Th","ref:UK:leedscc:bin":"1590"}},"type":"Feature"},
	{"geometry":{"coordinates":[-1.505195,53.828826],"type":"Point"},"properties":{"amenity":"waste_basket","osm_id":"7429088250","tag":{"collection_times":"We; Su","ref:UK:leedscc:bin":"2599"}},"type":"Feature"},
	{"geometry":{"coordinates":[-1.568266,53.830872],"type":"Point"},"properties":{"amenity":"waste_basket","osm_id":"7429088251","tag":{"collection_times":"Mo; Fr","ref:UK:leedscc:bin":"641"}},"type":"Feature"},
	{"geometry":{"coordinates":[-1.504343,53.836146],"type":"Point"},"properties":{"amenity":"waste_basket","osm_id":"7429088254","tag":{"collection_times":"We; Su","ref:UK:leedscc:bin":"2594"}},"type":"Feature"},
	{"geometry":{"coordinates":[-1.553482,53.801295],"type":"Point"},"properties":{"amenity":"waste_basket","osm_id":"7429088259","tag":{"operator":"CITY CENTRE MANAGEMENT","ref:UK:leedscc:bin":"1137"}},"type":"Feature"},
	{"geometry":{"coordinates":[-1.546375,53.800995],"type":"Point"},"properties":{"amenity":"waste_basket","osm_id":"7429088260","tag":{"operator":"CITY CENTRE MANAGEMENT","ref:UK:leedscc:bin":"1144"}},"type":"Feature"},
	{"geometry":{"coordinates":[-1.573302,53.810687],"type":"Point"},"properties":{"amenity":"waste_basket","osm_id":"7429088262","tag":{"collection_times":"We","condition":"FAIR","ref:UK:leedscc:bin":"468","waste_basket:model":"METAL TWIN"}},"type":"Feature"},
	{"geometry":{"coordinates":[-1.534837,53.8424],"type":"Point"},"properties":{"amenity":"waste_basket","osm_id":"7429088265","tag":{"collection_times":"Tu; Th","ref:UK:leedscc:bin":"3100"}},"type":"Feature"},
	{"geometry":{"coordinates":[-1.548808,53.804935],"type":"Point"},"properties":{"amenity":"waste_basket","osm_id":"7429088266","tag":{"ref:UK:leedscc:bin":"3711"}},"type":"Feature"},
	{"geometry":{"coordinates":[-1.53021,53.844161],"type":"Point"},"properties":{"amenity":"waste_basket","osm_id":"7429088267","tag":{"collection_times":"Tu; Th","ref:UK:leedscc:bin":"85"}},"type":"Feature"},
	{"geometry":{"coordinates":[-1.536063,53.826712],"type":"Point"},"properties":{"amenity":"waste_basket","osm_id":"7429088271","tag":{"collection_times":"We; Sa","ref:UK:leedscc:bin":"1371"}},"type":"Feature"},
	{"geometry":{"coordinates":[-1.564678,53.818248],"type":"Point"},"properties":{"amenity":"waste_basket","osm_id":"7429088273","tag":{"collection_times":"Tu","condition":"POOR","ref:UK:leedscc:bin":"862","waste_basket:model":"METAL TWIN"}},"type":"Feature"},
	{"geometry":{"coordinates":[-1.546386,53.800851],"type":"Point"},"properties":{"amenity":"waste_basket","osm_id":"7429088274","tag":{"operator":"CITY CENTRE MANAGEMENT","ref:UK:leedscc:bin":"1143"}},"type":"Feature"},
	{"geometry":{"coordinates":[-1.533474,53.844514],"type":"Point"},"properties":{"amenity":"waste_basket","osm_id":"7429088278","tag":{"collection_times":"Mo-Fr","ref:UK:leedscc:bin":"2870"}},"type":"Feature"},
	{"geometry":{"coordinates":[-1.542963,53.802315],"type":"Point"},"properties":{"amenity":"waste_basket","osm_id":"7429088281","tag":{"operator":"CITY CENTRE MANAGEMENT","ref:UK:leedscc:bin":"2095"}},"type":"Feature"},
	{"geometry":{"coordinates":[-1.50212,53.839715],"type":"Point"},"properties":{"amenity":"waste_basket","osm_id":"7429088284","tag":{"collection_times":"We; Su","ref:UK:leedscc:bin":"2036"}},"type":"Feature"},
	{"geometry":{"coordinates":[-1.570944,53.831057],"type":"Point"},"properties":{"amenity":"waste_basket","osm_id":"7429088285","tag":{"collection_times":"Mo; Fr","ref:UK:leedscc:bin":"1177"}},"type":"Feature"},
	{"geometry":{"coordinates":[-1.504305,53.841267],"type":"Point"},"properties":{"amenity":"waste_basket","osm_id":"7429088291","tag":{"collection_times":"We; Su","ref:UK:leedscc:bin":"2597"}},"type":"Feature"},
	{"geometry":{"coordinates":[-1.568988,53.805383],"type":"Point"},"properties":{"amenity":"waste_basket","osm_id":"7429088295","tag":{"collection_times":"Mo","condition":"GOOD","ref:UK:leedscc:bin":"5097","waste_basket:model":"METAL SQUARE"}},"type":"Feature"},
	{"geometry":{"coordinates":[-1.551747,53.80106],"type":"Point"},"properties":{"amenity":"waste_basket","osm_id":"7429088300","tag":{"operator":"CITY CENTRE MANAGEMENT","ref:UK:leedscc:bin":"1139"}},"type":"Feature"},
	{"geometry":{"coordinates":[-1.537287,53.830198],"type":"Point"},"properties":{"amenity":"waste_basket","osm_id":"7429088307","tag":{"collection_times":"We; Sa","ref:UK:leedscc:bin":"2700"}},"type":"Feature"},
	{"geometry":{"coordinates":[-1.54507,53.801519],"type":"Point"},"properties":{"amenity":"waste_basket","osm_id":"7429088308","tag":{"operator":"CITY CENTRE MANAGEMENT","ref:UK:leedscc:bin":"3716"}},"type":"Feature"},
	{"geometry":{"coordinates":[-1.503944,53.833497],"type":"Point"},"properties":{"amenity":"waste_basket","osm_id":"7429088309","tag":{"collection_times":"We; Su","ref:UK:leedscc:bin":"2601"}},"type":"Feature"},
	{"geometry":{"coordinates":[-1.50725,53.837964],"type":"Point"},"properties":{"amenity":"waste_basket","osm_id":"7429088312","tag":{"collection_times":"We; Su","ref:UK:leedscc:bin":"2382"}},"type":"Feature"},
	{"geometry":{"coordinates":[-1.504125,53.833769],"type":"Point"},"properties":{"amenity":"waste_basket","osm_id":"7429088315","tag":{"collection_times":"We; Su","ref:UK:leedscc:bin":"2602"}},"type":"Feature"},
	{"geometry":{"coordinates":[-1.559459,53.814951],"type":"Point"},"properties":{"amenity":"waste_basket","osm_id":"7429088323","tag":{"collection_times":"Su","condition":"POOR","ref:UK:leedscc:bin":"5773","waste_basket:model":"METAL TWIN"}},"type":"Feature"},
	{"geometry":{"coordinates":[-1.533297,53.84125],"type":"Point"},"properties":{"amenity":"waste_basket","osm_id":"7429088327","tag":{"collection_times":"Tu; Th","ref:UK:leedscc:bin":"1823"}},"type":"Feature"},
	{"geometry":{"coordinates":[-1.533449,53.844718],"type":"Point"},"properties":{"amenity":"waste_basket","osm_id":"7429088330","tag":{"collection_times":"Mo-Fr","ref:UK:leedscc:bin":"2869"}},"type":"Feature"},
	{"geometry":{"coordinates":[-1.557819,53.830023],"type":"Point"},"properties":{"amenity":"waste_basket","osm_id":"7429088331","tag":{"collection_times":"Mo; Fr","ref:UK:leedscc:bin":"2985"}},"type":"Feature"},
	{"geometry":{"coordinates":[-1.568636,53.805588],"type":"Point"},"properties":{"amenity":"waste_basket","osm_id":"7429088338","tag":{"collection_times":"Mo","condition":"GOOD","ref:UK:leedscc:bin":"5096","waste_basket:model":"METAL SQUARE"}},"type":"Feature"},
	{"geometry":{"coordinates":[-1.533763,53.841304],"type":"Point"},"properties":{"amenity":"waste_basket","osm_id":"7429088343","tag":{"collection_times":"Tu; Th","ref:UK:leedscc:bin":"1833"}},"type":"Feature"},
	{"geometry":{"coordinates":[-1.53283,53.844879],"type":"Point"},"properties":{"amenity":"waste_basket","osm_id":"7429088344","tag":{"collection_times":"Tu; Th","ref:UK:leedscc:bin":"2863"}},"type":"Feature"},
	{"geometry":{"coordinates":[-1.575134,53.809509],"type":"Point"},"properties":{"amenity":"waste_basket","osm_id":"7429088346","tag":{"collection_times":"We","condition":"GOOD","ref:UK:leedscc:bin":"545","waste_basket:model":"METAL SQUARE"}},"type":"Feature"},
	{"geometry":{"coordinates":[-1.565387,53.814744],"type":"Point"},"properties":{"amenity":"waste_basket","osm_id":"7429088350","tag":{"collection_times":"Th","condition":"GOOD","ref:UK:leedscc:bin":"7215","waste_basket:model":"METAL SQUARE"}},"type":"Feature"},
	{"geometry":{"coordinates":[-1.507113,53.828053],"type":"Point"},"properties":{"amenity":"waste_basket","osm_id":"7429088359","tag":{"collection_times":"Mo; Th","ref:UK:leedscc:bin":"1121"}},"type":"Feature"},
	{"geometry":{"coordinates":[-1.564664,53.807363],"type":"Point"},"properties":{"amenity":"waste_basket","osm_id":"7429088361","tag":{"collection_times":"Mo","condition":"FAIR","ref:UK:leedscc:bin":"2961","waste_basket:model":"METAL TWIN"}},"type":"Feature"},
	{"geometry":{"coordinates":[-1.537891,53.826235],"type":"Point"},"properties":{"amenity":"waste_basket","osm_id":"7429088367","tag":{"collection_times":"We; Sa","ref:UK:leedscc:bin":"2098"}},"type":"Feature"},
	{"geometry":{"coordinates":[-1.50873,53.828302],"type":"Point"},"properties":{"amenity":"waste_basket","osm_id":"7429088368","tag":{"collection_times":"Mo; Th","ref:UK:leedscc:bin":"1102"}},"type":"Feature"},
	{"geometry":{"coordinates":[-1.53397,53.828745],"type":"Point"},"properties":{"amenity":"waste_basket","osm_id":"7429088374","tag":{"collection_times":"We; Sa","ref:UK:leedscc:bin":"667"}},"type":"Feature"},
	{"geometry":{"coordinates":[-1.552485,53.801236],"type":"Point"},"properties":{"amenity":"waste_basket","osm_id":"7429088375","tag":{"operator":"CITY CENTRE MANAGEMENT","ref:UK:leedscc:bin":"1138"}},"type":"Feature"},
	{"geometry":{"coordinates":[-1.563053,53.817963],"type":"Point"},"properties":{"amenity":"waste_basket","osm_id":"7429088379","tag":{"collection_times":"Tu","condition":"GOOD","ref:UK:leedscc:bin":"1188","waste_basket:model":"METAL SQUARE"}},"type":"Feature"},
	{"geometry":{"coordinates":[-1.541616,53.837385],"type":"Point"},"properties":{"amenity":"waste_basket","osm_id":"7429088380","tag":{"collection_times":"Tu; Th","ref:UK:leedscc:bin":"1591"}},"type":"Feature"},
	{"geometry":{"coordinates":[-1.568285,53.805794],"type":"Point"},"properties":{"amenity":"waste_basket","osm_id":"7429088388","tag":{"collection_times":"Mo","condition":"GOOD","ref:UK:leedscc:bin":"5093","waste_basket:model":"METAL SQUARE"}},"type":"Feature"},
	{"geometry":{"coordinates":[-1.545263,53.801196],"type":"Point"},"properties":{"amenity":"waste_basket","osm_id":"7429088389","tag":{"operator":"CITY CENTRE MANAGEMENT","ref:UK:leedscc:bin":"3706"}},"type":"Feature"},
	{"geometry":{"coordinates":[-1.531105,53.817963],"type":"Point"},"properties":{"amenity":"waste_basket","osm_id":"7429088392","tag":{"collection_times":"Mo; Th","ref:UK:leedscc:bin":"620"}},"type":"Feature"},
	{"geometry":{"coordinates":[-1.539799,53.826696],"type":"Point"},"properties":{"amenity":"waste_basket","osm_id":"7429088393","tag":{"collection_times":"We; Sa","ref:UK:leedscc:bin":"1422"}},"type":"Feature"},
	{"geometry":{"coordinates":[-1.542232,53.802183],"type":"Point"},"properties":{"amenity":"waste_basket","osm_id":"7429088395","tag":{"operator":"CITY CENTRE MANAGEMENT","ref:UK:leedscc:bin":"2096"}},"type":"Feature"},
	{"geometry":{"coordinates":[-1.569101,53.805774],"type":"Point"},"properties":{"amenity":"waste_basket","osm_id":"7429088398","tag":{"collection_times":"Mo","condition":"GOOD","ref:UK:leedscc:bin":"5095","waste_basket:model":"METAL SQUARE"}},"type":"Feature"},
	{"geometry":{"coordinates":[-1.535076,53.826531],"type":"Point"},"properties":{"amenity":"waste_basket","osm_id":"7429088402","tag":{"collection_times":"We; Sa","ref:UK:leedscc:bin":"2171"}},"type":"Feature"},
	{"geometry":{"coordinates":[-1.544805,53.801166],"type":"Point"},"properties":{"amenity":"waste_basket","osm_id":"7429088405","tag":{"operator":"CITY CENTRE MANAGEMENT","ref:UK:leedscc:bin":"3717"}},"type":"Feature"},
	{"geometry":{"coordinates":[-1.542741,53.801731],"type":"Point"},"properties":{"amenity":"waste_basket","osm_id":"7429088412","tag":{"operator":"CITY CENTRE MANAGEMENT","ref:UK:leedscc:bin":"3474"}},"type":"Feature"},
	{"geometry":{"coordinates":[-1.546806,53.844188],"type":"Point"},"properties":{"amenity":"waste_basket","osm_id":"7429088416","tag":{"collection_times":"Tu; Th","ref:UK:leedscc:bin":"1587"}},"type":"Feature"},
	{"geometry":{"coordinates":[-1.549356,53.805563],"type":"Point"},"properties":{"amenity":"waste_basket","osm_id":"7429088419","tag":{"ref:UK:leedscc:bin":"5092"}},"type":"Feature"},
	{"geometry":{"coordinates":[-1.539749,53.845404],"type":"Point"},"properties":{"amenity":"waste_basket","osm_id":"7429088422","tag":{"collection_times":"Tu; Th","ref:UK:leedscc:bin":"3077"}},"type":"Feature"},
	{"geometry":{"coordinates":[-1.53397,53.829294],"type":"Point"},"properties":{"amenity":"waste_basket","osm_id":"7429088426","tag":{"collection_times":"We; Sa","ref:UK:leedscc:bin":"3727"}},"type":"Feature"},
	{"geometry":{"coordinates":[-1.557176,53.802109],"type":"Point"},"properties":{"amenity":"waste_basket","osm_id":"7429088427","tag":{"collection_times":"Mo","condition":"POOR","ref:UK:leedscc:bin":"7234","waste_basket:model":"PLASTIC POST BIN"}},"type":"Feature"},
	{"geometry":{"coordinates":[-1.532811,53.822213],"type":"Point"},"properties":{"amenity":"waste_basket","osm_id":"7429088431","tag":{"collection_times":"Mo; Th","ref:UK:leedscc:bin":"617"}},"type":"Feature"},
	{"geometry":{"coordinates":[-1.528569,53.843706],"type":"Point"},"properties":{"amenity":"waste_basket","osm_id":"7429088433","tag":{"collection_times":"Tu; Th","ref:UK:leedscc:bin":"3098"}},"type":"Feature"},
	{"geometry":{"coordinates":[-1.575131,53.814423],"type":"Point"},"properties":{"amenity":"waste_basket","osm_id":"7429088434","tag":{"collection_times":"Th","condition":"POOR","ref:UK:leedscc:bin":"3465","waste_basket:model":"METAL TWIN"}},"type":"Feature"},
	{"geometry":{"coordinates":[-1.568553,53.814831],"type":"Point"},"properties":{"amenity":"waste_basket","osm_id":"7429088440","tag":{"collection_times":"Th","condition":"POOR","ref:UK:leedscc:bin":"7216","waste_basket:model":"METAL TWIN"}},"type":"Feature"},
	{"geometry":{"coordinates":[-1.543283,53.80135],"type":"Point"},"properties":{"amenity":"waste_basket","osm_id":"7429088442","tag":{"operator":"CITY CENTRE MANAGEMENT","ref:UK:leedscc:bin":"3473"}},"type":"Feature"},
	{"geometry":{"coordinates":[-1.565134,53.802333],"type":"Point"},"properties":{"amenity":"waste_basket","osm_id":"7429088445","tag":{"collection_times":"Mo","condition":"GOOD","ref:UK:leedscc:bin":"4529","waste_basket:model":"METAL SQUARE"}},"type":"Feature"},
	{"geometry":{"coordinates":[-1.532488,53.845291],"type":"Point"},"properties":{"amenity":"waste_basket","osm_id":"7429088448","tag":{"collection_times":"Tu; Th","ref:UK:leedscc:bin":"2864"}},"type":"Feature"},
	{"geometry":{"coordinates":[-1.535332,53.82622],"type":"Point"},"properties":{"amenity":"waste_basket","osm_id":"7429088449","tag":{"collection_times":"Mo; Th","ref:UK:leedscc:bin":"1370"}},"type":"Feature"},
	{"geometry":{"coordinates":[-1.569021,53.80598],"type":"Point"},"properties":{"amenity":"waste_basket","osm_id":"7429088451","tag":{"collection_times":"Mo","condition":"GOOD","ref:UK:leedscc:bin":"5094","waste_basket:model":"METAL SQUARE"}},"type":"Feature"},
	{"geometry":{"coordinates":[-1.504882,53.828017],"type":"Point"},"properties":{"amenity":"waste_basket","osm_id":"7429088457","tag":{"collection_times":"Mo; Th","ref:UK:leedscc:bin":"2505"}},"type":"Feature"},
	{"geometry":{"coordinates":[-1.545915,53.84332],"type":"Point"},"properties":{"amenity":"waste_basket","osm_id":"7429088459","tag":{"collection_times":"Tu; Th","ref:UK:leedscc:bin":"1588"}},"type":"Feature"},
	{"geometry":{"coordinates":[-1.555288,53.810171],"type":"Point"},"properties":{"amenity":"waste_basket","osm_id":"7429088460","tag":{"collection_times":"Su","condition":"GOOD","ref:UK:leedscc:bin":"3720","waste_basket:model":"METAL SQUARE"}},"type":"Feature"},
	{"geometry":{"coordinates":[-1.537493,53.825849],"type":"Point"},"properties":{"amenity":"waste_basket","osm_id":"7429088464","tag":{"collection_times":"We; Sa","ref:UK:leedscc:bin":"2100"}},"type":"Feature"},
	{"geometry":{"coordinates":[-1.531148,53.817687],"type":"Point"},"properties":{"amenity":"waste_basket","osm_id":"7429088465","tag":{"collection_times":"Mo; Th","ref:UK:leedscc:bin":"624"}},"type":"Feature"},
	{"geometry":{"coordinates":[-1.539531,53.84563],"type":"Point"},"properties":{"amenity":"waste_basket","osm_id":"7429088467","tag":{"collection_times":"Tu; Th","ref:UK:leedscc:bin":"3076"}},"type":"Feature"},
	{"geometry":{"coordinates":[-1.536135,53.830672],"type":"Point"},"properties":{"amenity":"waste_basket","osm_id":"7429088469","tag":{"collection_times":"We; Sa","ref:UK:leedscc:bin":"3728"}},"type":"Feature"},
	{"geometry":{"coordinates":[-1.534223,53.826678],"type":"Point"},"properties":{"amenity":"waste_basket","osm_id":"7429088471","tag":{"collection_times":"We; Sa","ref:UK:leedscc:bin":"2170"}},"type":"Feature"},
	{"geometry":{"coordinates":[-1.542323,53.801684],"type":"Point"},"properties":{"amenity":"waste_basket","osm_id":"7429088475","tag":{"operator":"CITY CENTRE MANAGEMENT","ref:UK:leedscc:bin":"3475"}},"type":"Feature"},
	{"geometry":{"coordinates":[-1.506727,53.827616],"type":"Point"},"properties":{"amenity":"waste_basket","osm_id":"7429088479","tag":{"collection_times":"Mo; Th","ref:UK:leedscc:bin":"1122"}},"type":"Feature"},
	{"geometry":{"coordinates":[-1.541932,53.801911],"type":"Point"},"properties":{"amenity":"waste_basket","osm_id":"7429088483","tag":{"operator":"CITY CENTRE MANAGEMENT","ref:UK:leedscc:bin":"3476"}},"type":"Feature"},
	{"geometry":{"coordinates":[-1.560428,53.80803],"type":"Point"},"properties":{"amenity":"waste_basket","osm_id":"7429088492","tag":{"collection_times":"Mo","condition":"GOOD","ref:UK:leedscc:bin":"2183","waste_basket:model":"METAL SQUARE"}},"type":"Feature"},
	{"geometry":{"coordinates":[-1.558468,53.832406],"type":"Point"},"properties":{"amenity":"waste_basket","osm_id":"7429088493","tag":{"collection_times":"Mo; Th","ref:UK:leedscc:bin":"2980"}},"type":"Feature"},
	{"geometry":{"coordinates":[-1.510033,53.828374],"type":"Point"},"properties":{"amenity":"waste_basket","osm_id":"7429088494","tag":{"collection_times":"Mo; Th","ref:UK:leedscc:bin":"1103"}},"type":"Feature"},
	{"geometry":{"coordinates":[-1.564639,53.806869],"type":"Point"},"properties":{"amenity":"waste_basket","osm_id":"7429088497","tag":{"collection_times":"Mo","condition":"POOR","ref:UK:leedscc:bin":"7235","waste_basket:model":"PLASTIC POST BIN"}},"type":"Feature"},
	{"geometry":{"coordinates":[-1.505553,53.827693],"type":"Point"},"properties":{"amenity":"waste_basket","osm_id":"7429088499","tag":{"collection_times":"Mo; Th","ref:UK:leedscc:bin":"2598"}},"type":"Feature"},
	{"geometry":{"coordinates":[-1.56536,53.826117],"type":"Point"},"properties":{"amenity":"waste_basket","osm_id":"7429088500","tag":{"collection_times":"Mo-Fr","ref:UK:leedscc:bin":"2080"}},"type":"Feature"},
	{"geometry":{"coordinates":[-1.572034,53.814319],"type":"Point"},"properties":{"amenity":"waste_basket","osm_id":"7429088504","tag":{"collection_times":"Th","condition":"GOOD","ref:UK:leedscc:bin":"3453","waste_basket:model":"METAL SQUARE"}},"type":"Feature"},
	{"geometry":{"coordinates":[-1.534873,53.826163],"type":"Point"},"properties":{"amenity":"waste_basket","osm_id":"7429088506","tag":{"collection_times":"Mo-Fr","ref:UK:leedscc:bin":"1369"}},"type":"Feature"},
	{"geometry":{"coordinates":[-1.571453,53.805355],"type":"Point"},"properties":{"amenity":"waste_basket","osm_id":"7429088509","tag":{"collection_times":"Mo","condition":"FAIR","ref:UK:leedscc:bin":"483","waste_basket:model":"METAL TWIN"}},"type":"Feature"},
	{"geometry":{"coordinates":[-1.530858,53.817564],"type":"Point"},"properties":{"amenity":"waste_basket","osm_id":"7429088512","tag":{"collection_times":"Mo; Th","ref:UK:leedscc:bin":"1241"}},"type":"Feature"},
	{"geometry":{"coordinates":[-1.505023,53.827759],"type":"Point"},"properties":{"amenity":"waste_basket","osm_id":"7429088513","tag":{"collection_times":"Mo; Th","ref:UK:leedscc:bin":"2506"}},"type":"Feature"},
	{"geometry":{"coordinates":[-1.558004,53.814788],"type":"Point"},"properties":{"amenity":"waste_basket","osm_id":"7429088514","tag":{"collection_times":"Su","condition":"POOR","ref:UK:leedscc:bin":"7206","waste_basket:model":"METAL TWIN"}},"type":"Feature"},
	{"geometry":{"coordinates":[-1.549983,53.806401],"type":"Point"},"properties":{"amenity":"waste_basket","osm_id":"7429088518","tag":{"collection_times":"Su","condition":"GOOD","ref:UK:leedscc:bin":"3703","waste_basket:model":"METAL SQUARE"}},"type":"Feature"},
	{"geometry":{"coordinates":[-1.564515,53.817338],"type":"Point"},"properties":{"amenity":"waste_basket","osm_id":"7429088524","tag":{"collection_times":"Tu","condition":"GOOD","ref:UK:leedscc:bin":"861","waste_basket:model":"METAL SQUARE"}},"type":"Feature"},
	{"geometry":{"coordinates":[-1.535036,53.826014],"type":"Point"},"properties":{"amenity":"waste_basket","osm_id":"7429088526","tag":{"collection_times":"Mo-Fr","ref:UK:leedscc:bin":"1368"}},"type":"Feature"},
	{"geometry":{"coordinates":[-1.564907,53.816053],"type":"Point"},"properties":{"amenity":"waste_basket","osm_id":"7429088527","tag":{"collection_times":"Tu","condition":"GOOD","ref:UK:leedscc:bin":"1398","waste_basket:model":"METAL SQUARE"}},"type":"Feature"},
	{"geometry":{"coordinates":[-1.562097,53.838285],"type":"Point"},"properties":{"amenity":"waste_basket","osm_id":"7429088528","tag":{"collection_times":"Mo; Fr","ref:UK:leedscc:bin":"3274"}},"type":"Feature"},
	{"geometry":{"coordinates":[-1.543063,53.801046],"type":"Point"},"properties":{"amenity":"waste_basket","osm_id":"7429088531","tag":{"operator":"CITY CENTRE MANAGEMENT","ref:UK:leedscc:bin":"3477"}},"type":"Feature"},
	{"geometry":{"coordinates":[-1.567343,53.806272],"type":"Point"},"properties":{"amenity":"waste_basket","osm_id":"7429088535","tag":{"collection_times":"Mo","condition":"POOR","ref:UK:leedscc:bin":"3733","waste_basket:model":"METAL TWIN"}},"type":"Feature"},
	{"geometry":{"coordinates":[-1.555601,53.810414],"type":"Point"},"properties":{"amenity":"waste_basket","osm_id":"7429088541","tag":{"collection_times":"Su","ref:UK:leedscc:bin":"3698"}},"type":"Feature"},
	{"geometry":{"coordinates":[-1.544658,53.800666],"type":"Point"},"properties":{"amenity":"waste_basket","osm_id":"7429088543","tag":{"operator":"CITY CENTRE MANAGEMENT","ref:UK:leedscc:bin":"76"}},"type":"Feature"},
	{"geometry":{"coordinates":[-1.505648,53.827462],"type":"Point"},"properties":{"amenity":"waste_basket","osm_id":"7429088546","tag":{"collection_times":"Mo-Fr","ref:UK:leedscc:bin":"2771"}},"type":"Feature"},
	{"geometry":{"coordinates":[-1.5285,53.821784],"type":"Point"},"properties":{"amenity":"waste_basket","osm_id":"7429088547","tag":{"collection_times":"Mo; Th","ref:UK:leedscc:bin":"2299"}},"type":"Feature"},
	{"geometry":{"coordinates":[-1.544899,53.8416],"type":"Point"},"properties":{"amenity":"waste_basket","osm_id":"7429088548","tag":{"collection_times":"Tu; Th","ref:UK:leedscc:bin":"1589"}},"type":"Feature"},
	{"geometry":{"coordinates":[-1.536892,53.800672],"type":"Point"},"properties":{"amenity":"waste_basket","osm_id":"7429088551","tag":{"operator":"CITY CENTRE MANAGEMENT","ref:UK:leedscc:bin":"2276"}},"type":"Feature"},
	{"geometry":{"coordinates":[-1.505418,53.827447],"type":"Point"},"properties":{"amenity":"waste_basket","osm_id":"7429088555","tag":{"collection_times":"Mo-Fr","ref:UK:leedscc:bin":"2772"}},"type":"Feature"},
	{"geometry":{"coordinates":[-1.533371,53.826783],"type":"Point"},"properties":{"amenity":"waste_basket","osm_id":"7429088556","tag":{"collection_times":"We; Sa","ref:UK:leedscc:bin":"2169"}},"type":"Feature"},
	{"geometry":{"coordinates":[-1.534645,53.825972],"type":"Point"},"properties":{"amenity":"waste_basket","osm_id":"7429088560","tag":{"collection_times":"Mo-Fr","ref:UK:leedscc:bin":"1367"}},"type":"Feature"},
	{"geometry":{"coordinates":[-1.571309,53.820755],"type":"Point"},"properties":{"amenity":"waste_basket","osm_id":"7429088564","tag":{"collection_times":"Tu","condition":"FAIR","ref:UK:leedscc:bin":"1404","waste_basket:model":"METAL TWIN"}},"type":"Feature"},
	{"geometry":{"coordinates":[-1.504224,53.842464],"type":"Point"},"properties":{"amenity":"waste_basket","osm_id":"7429088573","tag":{"collection_times":"We; Su","ref:UK:leedscc:bin":"2507"}},"type":"Feature"},
	{"geometry":{"coordinates":[-1.53981,53.837463],"type":"Point"},"properties":{"amenity":"waste_basket","osm_id":"7429088576","tag":{"collection_times":"Tu; Th","ref:UK:leedscc:bin":"1344"}},"type":"Feature"},
	{"geometry":{"coordinates":[-1.529849,53.81749],"type":"Point"},"properties":{"amenity":"waste_basket","osm_id":"7429088578","tag":{"collection_times":"Mo; Th","ref:UK:leedscc:bin":"1240"}},"type":"Feature"},
	{"geometry":{"coordinates":[-1.536128,53.818684],"type":"Point"},"properties":{"amenity":"waste_basket","osm_id":"7429088581","tag":{"collection_times":"Mo; Th","ref:UK:leedscc:bin":"1218"}},"type":"Feature"},
	{"geometry":{"coordinates":[-1.534415,53.825957],"type":"Point"},"properties":{"amenity":"waste_basket","osm_id":"7429088582","tag":{"collection_times":"Mo-Fr","ref:UK:leedscc:bin":"1365"}},"type":"Feature"},
	{"geometry":{"coordinates":[-1.53264,53.827533],"type":"Point"},"properties":{"amenity":"waste_basket","osm_id":"7429088586","tag":{"ref:UK:leedscc:bin":"1584"}},"type":"Feature"},
	{"geometry":{"coordinates":[-1.534014,53.845629],"type":"Point"},"properties":{"amenity":"waste_basket","osm_id":"7429088587","tag":{"collection_times":"Tu; Th","ref:UK:leedscc:bin":"1319"}},"type":"Feature"},
	{"geometry":{"coordinates":[-1.546201,53.842799],"type":"Point"},"properties":{"amenity":"waste_basket","osm_id":"7429088591","tag":{"collection_times":"Tu; Th","condition":"GOOD","ref:UK:leedscc:bin":"3082","waste_basket:model":"METAL SQUARE"}},"type":"Feature"},
	{"geometry":{"coordinates":[-1.505581,53.827257],"type":"Point"},"properties":{"amenity":"waste_basket","osm_id":"7429088596","tag":{"collection_times":"Mo-Fr","ref:UK:leedscc:bin":"2770"}},"type":"Feature"},
	{"geometry":{"coordinates":[-1.527492,53.843768],"type":"Point"},"properties":{"amenity":"waste_basket","osm_id":"7429088597","tag":{"collection_times":"Tu; Th","ref:UK:leedscc:bin":"3109"}},"type":"Feature"},
	{"geometry":{"coordinates":[-1.528599,53.841005],"type":"Point"},"properties":{"amenity":"waste_basket","osm_id":"7429088601","tag":{"collection_times":"Mo; Th","ref:UK:leedscc:bin":"1822"}},"type":"Feature"},
	{"geometry":{"coordinates":[-1.540553,53.836785],"type":"Point"},"properties":{"amenity":"waste_basket","osm_id":"7429088603","tag":{"collection_times":"Tu; Th","ref:UK:leedscc:bin":"1595"}},"type":"Feature"},
	{"geometry":{"coordinates":[-1.505374,53.827257],"type":"Point"},"properties":{"amenity":"waste_basket","osm_id":"7429088605","tag":{"collection_times":"Mo-Fr","ref:UK:leedscc:bin":"2773"}},"type":"Feature"},
	{"geometry":{"coordinates":[-1.569688,53.815387],"type":"Point"},"properties":{"amenity":"waste_basket","osm_id":"7429088609","tag":{"collection_times":"Th","condition":"FAIR","ref:UK:leedscc:bin":"7236","waste_basket:model":"METAL TWIN"}},"type":"Feature"},
	{"geometry":{"coordinates":[-1.53852,53.831294],"type":"Point"},"properties":{"amenity":"waste_basket","osm_id":"7429088610","tag":{"collection_times":"We; Sa","ref:UK:leedscc:bin":"1381"}},"type":"Feature"},
	{"geometry":{"coordinates":[-1.570298,53.807615],"type":"Point"},"properties":{"amenity":"waste_basket","osm_id":"7429088613","tag":{"collection_times":"Th","condition":"POOR","ref:UK:leedscc:bin":"7217","waste_basket:model":"METAL TWIN"}},"type":"Feature"},
	{"geometry":{"coordinates":[-1.540005,53.803717],"type":"Point"},"properties":{"amenity":"waste_basket","osm_id":"7429088614","tag":{"collection_times":"Su","ref:UK:leedscc:bin":"1911"}},"type":"Feature"},
	{"geometry":{"coordinates":[-1.540005,53.803717],"type":"Point"},"properties":{"amenity":"waste_basket","osm_id":"7429088615","tag":{"collection_times":"Su","condition":"GOOD ","ref:UK:leedscc:bin":"1908","waste_basket:model":"METAL SQUARE"}},"type":"Feature"},
	{"geometry":{"coordinates":[-1.534371,53.825835],"type":"Point"},"properties":{"amenity":"waste_basket","osm_id":"7429088616","tag":{"collection_times":"Mo-Fr","ref:UK:leedscc:bin":"1366"}},"type":"Feature"},
	{"geometry":{"coordinates":[-1.569092,53.806619],"type":"Point"},"properties":{"amenity":"waste_basket","osm_id":"7429088620","tag":{"collection_times":"Mo","condition":"POOR","ref:UK:leedscc:bin":"82","waste_basket:model":"METAL TWIN"}},"type":"Feature"},
	{"geometry":{"coordinates":[-1.569092,53.806619],"type":"Point"},"properties":{"amenity":"waste_basket","osm_id":"7429088621","tag":{"collection_times":"Mo","ref:UK:leedscc:bin":"78"}},"type":"Feature"},
	{"geometry":{"coordinates":[-1.555881,53.810702],"type":"Point"},"properties":{"amenity":"waste_basket","osm_id":"7429088623","tag":{"collection_times":"Su","condition":"FAIR","ref:UK:leedscc:bin":"7203","waste_basket:model":"METAL TWIN"}},"type":"Feature"},
	{"geometry":{"coordinates":[-1.535702,53.83123],"type":"Point"},"properties":{"amenity":"waste_basket","osm_id":"7429088624","tag":{"collection_times":"We; Sa","ref:UK:leedscc:bin":"2531"}},"type":"Feature"},
	{"geometry":{"coordinates":[-1.508272,53.827117],"type":"Point"},"properties":{"amenity":"waste_basket","osm_id":"7429088628","tag":{"collection_times":"Mo; Th","ref:UK:leedscc:bin":"1048"}},"type":"Feature"},
	{"geometry":{"coordinates":[-1.57404,53.808576],"type":"Point"},"properties":{"amenity":"waste_basket","osm_id":"7429088630","tag":{"collection_times":"We","condition":"GOOD","ref:UK:leedscc:bin":"549","waste_basket:model":"METAL SQUARE"}},"type":"Feature"},
	{"geometry":{"coordinates":[-1.532727,53.826849],"type":"Point"},"properties":{"amenity":"waste_basket","osm_id":"7429088631","tag":{"collection_times":"We; Sa","ref:UK:leedscc:bin":"2168"}},"type":"Feature"},
	{"geometry":{"coordinates":[-1.545129,53.842305],"type":"Point"},"properties":{"amenity":"waste_basket","osm_id":"7429088632","tag":{"collection_times":"Tu; Th","ref:UK:leedscc:bin":"1594"}},"type":"Feature"},
	{"geometry":{"coordinates":[-1.553498,53.81145],"type":"Point"},"properties":{"amenity":"waste_basket","osm_id":"7429088635","tag":{"collection_times":"Su","condition":"GOOD","ref:UK:leedscc:bin":"7200","waste_basket:model":"METAL SQUARE"}},"type":"Feature"},
	{"geometry":{"coordinates":[-1.528567,53.817687],"type":"Point"},"properties":{"amenity":"waste_basket","osm_id":"7429088637","tag":{"collection_times":"Mo; Th","ref:UK:leedscc:bin":"1236"}},"type":"Feature"},
	{"geometry":{"coordinates":[-1.503849,53.827582],"type":"Point"},"properties":{"amenity":"waste_basket","osm_id":"7429088638","tag":{"collection_times":"We; Su","ref:UK:leedscc:bin":"3601"}},"type":"Feature"},
	{"geometry":{"coordinates":[-1.534394,53.845777],"type":"Point"},"properties":{"amenity":"waste_basket","osm_id":"7429088642","tag":{"collection_times":"Tu; Th","ref:UK:leedscc:bin":"1320"}},"type":"Feature"},
	{"geometry":{"coordinates":[-1.528785,53.800983],"type":"Point"},"properties":{"amenity":"waste_basket","osm_id":"7429088643","tag":{"ref:UK:leedscc:bin":"834"}},"type":"Feature"},
	{"geometry":{"coordinates":[-1.534326,53.845822],"type":"Point"},"properties":{"amenity":"waste_basket","osm_id":"7429088645","tag":{"collection_times":"Tu; Th","ref:UK:leedscc:bin":"1346"}},"type":"Feature"},
	{"geometry":{"coordinates":[-1.534282,53.840136],"type":"Point"},"properties":{"amenity":"waste_basket","osm_id":"7429088646","tag":{"collection_times":"Tu; Th","ref:UK:leedscc:bin":"1356"}},"type":"Feature"},
	{"geometry":{"coordinates":[-1.559418,53.807741],"type":"Point"},"properties":{"amenity":"waste_basket","osm_id":"7429088647","tag":{"collection_times":"Mo","condition":"FAIR","ref:UK:leedscc:bin":"709","waste_basket:model":"METAL TWIN"}},"type":"Feature"},
	{"geometry":{"coordinates":[-1.561214,53.83223],"type":"Point"},"properties":{"amenity":"waste_basket","osm_id":"7429088648","tag":{"collection_times":"Mo; Fr","ref:UK:leedscc:bin":"3072"}},"type":"Feature"},
	{"geometry":{"coordinates":[-1.538639,53.838238],"type":"Point"},"properties":{"amenity":"waste_basket","osm_id":"7429088650","tag":{"collection_times":"Tu; Th","ref:UK:leedscc:bin":"1325"}},"type":"Feature"},
	{"geometry":{"coordinates":[-1.560461,53.833185],"type":"Point"},"properties":{"amenity":"waste_basket","osm_id":"7429088651","tag":{"collection_times":"Mo; Fr","ref:UK:leedscc:bin":"3070"}},"type":"Feature"},
	{"geometry":{"coordinates":[-1.505169,53.827079],"type":"Point"},"properties":{"amenity":"waste_basket","osm_id":"7429088653","tag":{"collection_times":"Mo-Fr","ref:UK:leedscc:bin":"2768"}},"type":"Feature"},
	{"geometry":{"coordinates":[-1.539729,53.804093],"type":"Point"},"properties":{"amenity":"waste_basket","osm_id":"7429088657","tag":{"collection_times":"Su","condition":"GOOD","ref:UK:leedscc:bin":"4186","waste_basket:model":"METAL SQUARE"}},"type":"Feature"},
	{"geometry":{"coordinates":[-1.572025,53.807645],"type":"Point"},"properties":{"amenity":"waste_basket","osm_id":"7429088658","tag":{"collection_times":"We","condition":"FAIR","ref:UK:leedscc:bin":"81","waste_basket:model":"METALTWIN"}},"type":"Feature"},
	{"geometry":{"coordinates":[-1.531499,53.816868],"type":"Point"},"properties":{"amenity":"waste_basket","osm_id":"7429088659","tag":{"collection_times":"Mo; Th","ref:UK:leedscc:bin":"625"}},"type":"Feature"},
	{"geometry":{"coordinates":[-1.559058,53.808059],"type":"Point"},"properties":{"amenity":"waste_basket","osm_id":"7429088660","tag":{"collection_times":"Mo","condition":"GOOD","ref:UK:leedscc:bin":"5098","waste_basket:model":"METAL TWIN"}},"type":"Feature"},
	{"geometry":{"coordinates":[-1.504685,53.827159],"type":"Point"},"properties":{"amenity":"waste_basket","osm_id":"7429088661","tag":{"collection_times":"Mo; Th","ref:UK:leedscc:bin":"2769"}},"type":"Feature"},
	{"geometry":{"coordinates":[-1.505493,53.826958],"type":"Point"},"properties":{"amenity":"waste_basket","osm_id":"7429088665","tag":{"collection_times":"Mo-Fr","ref:UK:leedscc:bin":"2767"}},"type":"Feature"},
	{"geometry":{"coordinates":[-1.528162,53.800784],"type":"Point"},"properties":{"amenity":"waste_basket","osm_id":"7429088667","tag":{"ref:UK:leedscc:bin":"2209"}},"type":"Feature"},
	{"geometry":{"coordinates":[-1.565892,53.825247],"type":"Point"},"properties":{"amenity":"waste_basket","osm_id":"7429088672","tag":{"collection_times":"Mo-Fr","ref:UK:leedscc:bin":"246"}},"type":"Feature"},
	{"geometry":{"coordinates":[-1.506277,53.826798],"type":"Point"},"properties":{"amenity":"waste_basket","osm_id":"7429088678","tag":{"collection_times":"Mo-Fr","ref:UK:leedscc:bin":"2766"}},"type":"Feature"},
	{"geometry":{"coordinates":[-1.559114,53.828764],"type":"Point"},"properties":{"amenity":"waste_basket","osm_id":"7429088679","tag":{"collection_times":"Mo; Fr","ref:UK:leedscc:bin":"2986"}},"type":"Feature"},
	{"geometry":{"coordinates":[-1.565584,53.824569],"type":"Point"},"properties":{"amenity":"waste_basket","osm_id":"7429088680","tag":{"collection_times":"Mo-Fr","ref:UK:leedscc:bin":"3677"}},"type":"Feature"},
	{"geometry":{"coordinates":[-1.545993,53.842266],"type":"Point"},"properties":{"amenity":"waste_basket","osm_id":"7429088681","tag":{"collection_times":"Tu; Th","ref:UK:leedscc:bin":"3083"}},"type":"Feature"},
	{"geometry":{"coordinates":[-1.52682,53.843808],"type":"Point"},"properties":{"amenity":"waste_basket","osm_id":"7429088685","tag":{"collection_times":"Tu; Th","ref:UK:leedscc:bin":"245"}},"type":"Feature"},
	{"geometry":{"coordinates":[-1.558471,53.834295],"type":"Point"},"properties":{"amenity":"waste_basket","osm_id":"7429088686","tag":{"collection_times":"Mo; Fr","ref:UK:leedscc:bin":"3069"}},"type":"Feature"},
	{"geometry":{"coordinates":[-1.540972,53.801211],"type":"Point"},"properties":{"amenity":"waste_basket","osm_id":"7429088691","tag":{"operator":"CITY CENTRE MANAGEMENT","ref:UK:leedscc:bin":"208"}},"type":"Feature"},
	{"geometry":{"coordinates":[-1.54094,53.800893],"type":"Point"},"properties":{"amenity":"waste_basket","osm_id":"7429088693","tag":{"operator":"CITY CENTRE MANAGEMENT","ref:UK:leedscc:bin":"2229"}},"type":"Feature"},
	{"geometry":{"coordinates":[-1.506393,53.826703],"type":"Point"},"properties":{"amenity":"waste_basket","osm_id":"7429088694","tag":{"collection_times":"Mo-Fr","ref:UK:leedscc:bin":"2765"}},"type":"Feature"},
	{"geometry":{"coordinates":[-1.527759,53.817724],"type":"Point"},"properties":{"amenity":"waste_basket","osm_id":"7429088696","tag":{"collection_times":"Mo; Th","ref:UK:leedscc:bin":"1239"}},"type":"Feature"},
	{"geometry":{"coordinates":[-1.538515,53.831729],"type":"Point"},"properties":{"amenity":"waste_basket","osm_id":"7429088697","tag":{"collection_times":"We; Sa","ref:UK:leedscc:bin":"1382"}},"type":"Feature"},
	{"geometry":{"coordinates":[-1.556011,53.811157],"type":"Point"},"properties":{"amenity":"waste_basket","osm_id":"7429088698","tag":{"collection_times":"Su","condition":"FAIR","ref:UK:leedscc:bin":"3719","waste_basket:model":"METAL TWIN"}},"type":"Feature"},
	{"geometry":{"coordinates":[-1.502243,53.828085],"type":"Point"},"properties":{"amenity":"waste_basket","osm_id":"7429088699","tag":{"collection_times":"We; Su","ref:UK:leedscc:bin":"3600"}},"type":"Feature"},
	{"geometry":{"coordinates":[-1.56042,53.832879],"type":"Point"},"properties":{"amenity":"waste_basket","osm_id":"7429088700","tag":{"collection_times":"Mo; Fr","ref:UK:leedscc:bin":"3071"}},"type":"Feature"},
	{"geometry":{"coordinates":[-1.549123,53.845924],"type":"Point"},"properties":{"amenity":"waste_basket","osm_id":"7429088701","tag":{"ref:UK:leedscc:bin":"1614"}},"type":"Feature"},
	{"geometry":{"coordinates":[-1.558122,53.809418],"type":"Point"},"properties":{"amenity":"waste_basket","osm_id":"7429088703","tag":{"collection_times":"Mo","ref:UK:leedscc:bin":"704"}},"type":"Feature"},
	{"geometry":{"coordinates":[-1.558122,53.809418],"type":"Point"},"properties":{"amenity":"waste_basket","osm_id":"7429088704","tag":{"collection_times":"Mo","ref:UK:leedscc:bin":"710"}},"type":"Feature"},
	{"geometry":{"coordinates":[-1.553546,53.811837],"type":"Point"},"properties":{"amenity":"waste_basket","osm_id":"7429088705","tag":{"collection_times":"Su","condition":"GOOD","ref:UK:leedscc:bin":"7201","waste_basket:model":"METAL SQUARE"}},"type":"Feature"},
	{"geometry":{"coordinates":[-1.50621,53.82662],"type":"Point"},"properties":{"amenity":"waste_basket","osm_id":"7429088706","tag":{"collection_times":"Mo-Fr","ref:UK:leedscc:bin":"2764"}},"type":"Feature"},
	{"geometry":{"coordinates":[-1.540542,53.801315],"type":"Point"},"properties":{"amenity":"waste_basket","osm_id":"7429088707","tag":{"operator":"CITY CENTRE MANAGEMENT","ref:UK:leedscc:bin":"2231"}},"type":"Feature"},
	{"geometry":{"coordinates":[-1.55795,53.834626],"type":"Point"},"properties":{"amenity":"waste_basket","osm_id":"7429088708","tag":{"collection_times":"Mo; Fr","ref:UK:leedscc:bin":"3068"}},"type":"Feature"},
	{"geometry":{"coordinates":[-1.538245,53.800962],"type":"Point"},"properties":{"amenity":"waste_basket","osm_id":"7429088711","tag":{"operator":"CITY CENTRE MANAGEMENT","ref:UK:leedscc:bin":"2275"}},"type":"Feature"},
	{"geometry":{"coordinates":[-1.532083,53.823474],"type":"Point"},"properties":{"amenity":"waste_basket","osm_id":"7429088713","tag":{"collection_times":"Mo; Th","ref:UK:leedscc:bin":"618"}},"type":"Feature"},
	{"geometry":{"coordinates":[-1.542845,53.829847],"type":"Point"},"properties":{"amenity":"waste_basket","osm_id":"7429088716","tag":{"collection_times":"We; Sa","ref:UK:leedscc:bin":"3538"}},"type":"Feature"},
	{"geometry":{"coordinates":[-1.560881,53.822785],"type":"Point"},"properties":{"amenity":"waste_basket","osm_id":"7429088718","tag":{"collection_times":"Mo; Th","ref:UK:leedscc:bin":"2076"}},"type":"Feature"},
	{"geometry":{"coordinates":[-1.556454,53.811069],"type":"Point"},"properties":{"amenity":"waste_basket","osm_id":"7429088720","tag":{"collection_times":"Su","condition":"GOOD","ref:UK:leedscc:bin":"2680","waste_basket:model":"METAL SQUARE"}},"type":"Feature"},
	{"geometry":{"coordinates":[-1.531632,53.829165],"type":"Point"},"properties":{"amenity":"waste_basket","osm_id":"7429088721","tag":{"collection_times":"We; Sa","ref:UK:leedscc:bin":"1110"}},"type":"Feature"},
	{"geometry":{"coordinates":[-1.540653,53.800998],"type":"Point"},"properties":{"amenity":"waste_basket","osm_id":"7429088722","tag":{"operator":"CITY CENTRE MANAGEMENT","ref:UK:leedscc:bin":"2230"}},"type":"Feature"},
	{"geometry":{"coordinates":[-1.534953,53.846098],"type":"Point"},"properties":{"amenity":"waste_basket","osm_id":"7429088723","tag":{"collection_times":"Tu; Th","ref:UK:leedscc:bin":"2830"}},"type":"Feature"},
	{"geometry":{"coordinates":[-1.528532,53.822915],"type":"Point"},"properties":{"amenity":"waste_basket","osm_id":"7429088725","tag":{"collection_times":"Mo; Th","ref:UK:leedscc:bin":"1251"}},"type":"Feature"},
	{"geometry":{"coordinates":[-1.5629,53.824083],"type":"Point"},"properties":{"amenity":"waste_basket","osm_id":"7429088728","tag":{"collection_times":"Mo; Th","ref:UK:leedscc:bin":"2075"}},"type":"Feature"},
	{"geometry":{"coordinates":[-1.55639,53.812683],"type":"Point"},"properties":{"amenity":"waste_basket","osm_id":"7429088729","tag":{"collection_times":"Su","condition":"GOOD","ref:UK:leedscc:bin":"5777","waste_basket:model":"METAL SQUARE"}},"type":"Feature"},
	{"geometry":{"coordinates":[-1.557745,53.810227],"type":"Point"},"properties":{"amenity":"waste_basket","osm_id":"7429088730","tag":{"collection_times":"Mo","condition":"POOR","ref:UK:leedscc:bin":"711","waste_basket:model":"METAL TWIN"}},"type":"Feature"},
	{"geometry":{"coordinates":[-1.53918,53.804509],"type":"Point"},"properties":{"amenity":"waste_basket","osm_id":"7429088734","tag":{"collection_times":"Su","condition":"GOOD","ref:UK:leedscc:bin":"1907","waste_basket:model":"METAL SQUARE"}},"type":"Feature"},
	{"geometry":{"coordinates":[-1.566594,53.81651],"type":"Point"},"properties":{"amenity":"waste_basket","osm_id":"7429088736","tag":{"collection_times":"Tu","condition":"GOOD","ref:UK:leedscc:bin":"1400","waste_basket:model":"METAL SQUARE"}},"type":"Feature"},
	{"geometry":{"coordinates":[-1.549472,53.845994],"type":"Point"},"properties":{"amenity":"waste_basket","osm_id":"7429088741","tag":{"ref:UK:leedscc:bin":"1615"}},"type":"Feature"},
	{"geometry":{"coordinates":[-1.530626,53.846517],"type":"Point"},"properties":{"amenity":"waste_basket","osm_id":"7429088743","tag":{"collection_times":"Tu; Th","ref:UK:leedscc:bin":"2868"}},"type":"Feature"},
	{"geometry":{"coordinates":[-1.56293,53.801013],"type":"Point"},"properties":{"amenity":"waste_basket","osm_id":"7429088747","tag":{"collection_times":"Mo","condition":"GOOD","ref:UK:leedscc:bin":"4528","waste_basket:model":"METAL SQUARE"}},"type":"Feature"},
	{"geometry":{"coordinates":[-1.5018,53.843944],"type":"Point"},"properties":{"amenity":"waste_basket","osm_id":"7429088748","tag":{"collection_times":"We; Su","ref:UK:leedscc:bin":"2508"}},"type":"Feature"},
	{"geometry":{"coordinates":[-1.526159,53.844042],"type":"Point"},"properties":{"amenity":"waste_basket","osm_id":"7429088755","tag":{"collection_times":"Tu; Th","ref:UK:leedscc:bin":"3097"}},"type":"Feature"},
	{"geometry":{"coordinates":[-1.533504,53.825219],"type":"Point"},"properties":{"amenity":"waste_basket","osm_id":"7429088758","tag":{"collection_times":"We; Sa","ref:UK:leedscc:bin":"1364"}},"type":"Feature"},
	{"geometry":{"coordinates":[-1.538101,53.819141],"type":"Point"},"properties":{"amenity":"waste_basket","osm_id":"7429088760","tag":{"collection_times":"Mo; Th","ref:UK:leedscc:bin":"2892"}},"type":"Feature"},
	{"geometry":{"coordinates":[-1.549562,53.829079],"type":"Point"},"properties":{"amenity":"waste_basket","osm_id":"7429088761","tag":{"collection_times":"Mo; Fr","ref:UK:leedscc:bin":"581"}},"type":"Feature"},
	{"geometry":{"coordinates":[-1.540678,53.83171],"type":"Point"},"properties":{"amenity":"waste_basket","osm_id":"7429088762","tag":{"collection_times":"We; Sa","ref:UK:leedscc:bin":"3684"}},"type":"Feature"},
	{"geometry":{"coordinates":[-1.558138,53.82118],"type":"Point"},"properties":{"amenity":"waste_basket","osm_id":"7429088765","tag":{"collection_times":"Mo; Th","ref:UK:leedscc:bin":"2077"}},"type":"Feature"},
	{"geometry":{"coordinates":[-1.500913,53.828704],"type":"Point"},"properties":{"amenity":"waste_basket","osm_id":"7429088766","tag":{"collection_times":"We; Su","ref:UK:leedscc:bin":"3599"}},"type":"Feature"},
	{"geometry":{"coordinates":[-1.525952,53.842075],"type":"Point"},"properties":{"amenity":"waste_basket","osm_id":"7429088767","tag":{"collection_times":"Tu; Th","ref:UK:leedscc:bin":"244"}},"type":"Feature"},
	{"geometry":{"coordinates":[-1.53205,53.825988],"type":"Point"},"properties":{"amenity":"waste_basket","osm_id":"7429088769","tag":{"collection_times":"We; Sa","ref:UK:leedscc:bin":"1585"}},"type":"Feature"},
	{"geometry":{"coordinates":[-1.537337,53.838474],"type":"Point"},"properties":{"amenity":"waste_basket","osm_id":"7429088770","tag":{"collection_times":"Mo-Fr","ref:UK:leedscc:bin":"1362"}},"type":"Feature"},
	{"geometry":{"coordinates":[-1.497479,53.835416],"type":"Point"},"properties":{"amenity":"waste_basket","osm_id":"7429088772","tag":{"collection_times":"Mo-Fr","ref:UK:leedscc:bin":"3547"}},"type":"Feature"},
	{"geometry":{"coordinates":[-1.506997,53.826175],"type":"Point"},"properties":{"amenity":"waste_basket","osm_id":"7429088774","tag":{"collection_times":"Mo; Th","ref:UK:leedscc:bin":"2763"}},"type":"Feature"},
	{"geometry":{"coordinates":[-1.556233,53.812017],"type":"Point"},"properties":{"amenity":"waste_basket","osm_id":"7429088775","tag":{"collection_times":"Su","condition":"FAIR","ref:UK:leedscc:bin":"2679","waste_basket:model":"METAL TWIN"}},"type":"Feature"},
	{"geometry":{"coordinates":[-1.527956,53.801593],"type":"Point"},"properties":{"amenity":"waste_basket","osm_id":"7429088777","tag":{"ref:UK:leedscc:bin":"833"}},"type":"Feature"},
	{"geometry":{"coordinates":[-1.563702,53.825061],"type":"Point"},"properties":{"amenity":"waste_basket","osm_id":"7429088779","tag":{"collection_times":"Mo-Fr","ref:UK:leedscc:bin":"2081"}},"type":"Feature"},
	{"geometry":{"coordinates":[-1.574563,53.807595],"type":"Point"},"properties":{"amenity":"waste_basket","osm_id":"7429088781","tag":{"collection_times":"Mo","condition":"FAIR","ref:UK:leedscc:bin":"538","waste_basket:model":"METAL TWIN"}},"type":"Feature"},
	{"geometry":{"coordinates":[-1.580768,53.808852],"type":"Point"},"properties":{"amenity":"waste_basket","osm_id":"7429088782","tag":{"collection_times":"We; Su","condition":"GOOD","ref:UK:leedscc:bin":"536","waste_basket:model":"METAL SQUARE"}},"type":"Feature"},
	{"geometry":{"coordinates":[-1.573085,53.820261],"type":"Point"},"properties":{"amenity":"waste_basket","osm_id":"7429088784","tag":{"collection_times":"Tu","condition":"FAIR","ref:UK:leedscc:bin":"2890","waste_basket:model":"METAL TWIN"}},"type":"Feature"},
	{"geometry":{"coordinates":[-1.540606,53.824824],"type":"Point"},"properties":{"amenity":"waste_basket","osm_id":"7429088786","tag":{"collection_times":"We; Sa","ref:UK:leedscc:bin":"2572"}},"type":"Feature"},
	{"geometry":{"coordinates":[-1.549372,53.828965],"type":"Point"},"properties":{"amenity":"waste_basket","osm_id":"7429088788","tag":{"collection_times":"Mo; Fr","ref:UK:leedscc:bin":"582"}},"type":"Feature"},
	{"geometry":{"coordinates":[-1.512468,53.827825],"type":"Point"},"properties":{"amenity":"waste_basket","osm_id":"7429088790","tag":{"collection_times":"Mo; Th","ref:UK:leedscc:bin":"1104"}},"type":"Feature"},
	{"geometry":{"coordinates":[-1.529176,53.823622],"type":"Point"},"properties":{"amenity":"waste_basket","osm_id":"7429088792","tag":{"collection_times":"Mo; Th","ref:UK:leedscc:bin":"1250"}},"type":"Feature"},
	{"geometry":{"coordinates":[-1.539658,53.805944],"type":"Point"},"properties":{"amenity":"waste_basket","osm_id":"7429088794","tag":{"collection_times":"Su","condition":"GOOD","ref:UK:leedscc:bin":"1906","waste_basket:model":"METAL SQUARE"}},"type":"Feature"},
	{"geometry":{"coordinates":[-1.539658,53.805944],"type":"Point"},"properties":{"amenity":"waste_basket","osm_id":"7429088795","tag":{"collection_times":"Su","condition":"GOOD","ref:UK:leedscc:bin":"1909","waste_basket:model":"METAL SQUARE"}},"type":"Feature"},
	{"geometry":{"coordinates":[-1.531083,53.823949],"type":"Point"},"properties":{"amenity":"waste_basket","osm_id":"7429088797","tag":{"collection_times":"Mo; Th","ref:UK:leedscc:bin":"1249"}},"type":"Feature"},
	{"geometry":{"coordinates":[-1.560655,53.827149],"type":"Point"},"properties":{"amenity":"waste_basket","osm_id":"7429088798","tag":{"collection_times":"Mo; Fr","ref:UK:leedscc:bin":"2988"}},"type":"Feature"},
	{"geometry":{"coordinates":[-1.534569,53.832023],"type":"Point"},"properties":{"amenity":"waste_basket","osm_id":"7429088800","tag":{"collection_times":"We; Sa","ref:UK:leedscc:bin":"2532"}},"type":"Feature"},
	{"geometry":{"coordinates":[-1.503195,53.82671],"type":"Point"},"properties":{"amenity":"waste_basket","osm_id":"7429088801","tag":{"collection_times":"Mo; Th","ref:UK:leedscc:bin":"2352"}},"type":"Feature"},
	{"geometry":{"coordinates":[-1.554716,53.812242],"type":"Point"},"properties":{"amenity":"waste_basket","osm_id":"7429088802","tag":{"collection_times":"Su","condition":"POOR","ref:UK:leedscc:bin":"7202","waste_basket:model":"METAL TWIN"}},"type":"Feature"},
	{"geometry":{"coordinates":[-1.529856,53.846769],"type":"Point"},"properties":{"amenity":"waste_basket","osm_id":"7429088806","tag":{"collection_times":"Tu; Th","ref:UK:leedscc:bin":"2867"}},"type":"Feature"},
	{"geometry":{"coordinates":[-1.576437,53.816397],"type":"Point"},"properties":{"amenity":"waste_basket","osm_id":"7429088807","tag":{"collection_times":"We","condition":"GOOD","ref:UK:leedscc:bin":"543","waste_basket:model":"METAL SQUARE"}},"type":"Feature"},
	{"geometry":{"coordinates":[-1.573793,53.806058],"type":"Point"},"properties":{"amenity":"waste_basket","osm_id":"7429088808","tag":{"collection_times":"Mo","condition":"FAIR","ref:UK:leedscc:bin":"492","waste_basket:model":"METAL TWIN"}},"type":"Feature"},
	{"geometry":{"coordinates":[-1.560086,53.828209],"type":"Point"},"properties":{"amenity":"waste_basket","osm_id":"7429088809","tag":{"collection_times":"Mo; Fr","ref:UK:leedscc:bin":"2987"}},"type":"Feature"},
	{"geometry":{"coordinates":[-1.560283,53.805893],"type":"Point"},"properties":{"amenity":"waste_basket","osm_id":"7429088810","tag":{"collection_times":"Mo","condition":"GOOD","ref:UK:leedscc:bin":"706","waste_basket:model":"METAL SQURE"}},"type":"Feature"},
	{"geometry":{"coordinates":[-1.507802,53.843854],"type":"Point"},"properties":{"amenity":"waste_basket","osm_id":"7429088813","tag":{"collection_times":"We; Su","ref:UK:leedscc:bin":"3113"}},"type":"Feature"},
	{"geometry":{"coordinates":[-1.536278,53.846276],"type":"Point"},"properties":{"amenity":"waste_basket","osm_id":"7429088815","tag":{"collection_times":"Tu; Th","ref:UK:leedscc:bin":"3067"}},"type":"Feature"},
	{"geometry":{"coordinates":[-1.507894,53.843854],"type":"Point"},"properties":{"amenity":"waste_basket","osm_id":"7429088816","tag":{"collection_times":"We; Su","ref:UK:leedscc:bin":"3114"}},"type":"Feature"},
	{"geometry":{"coordinates":[-1.544743,53.849208],"type":"Point"},"properties":{"amenity":"waste_basket","osm_id":"7429088819","tag":{"ref:UK:leedscc:bin":"1877"}},"type":"Feature"},
	{"geometry":{"coordinates":[-1.536829,53.838608],"type":"Point"},"properties":{"amenity":"waste_basket","osm_id":"7429088820","tag":{"collection_times":"Mo-Fr","ref:UK:leedscc:bin":"1361"}},"type":"Feature"},
	{"geometry":{"coordinates":[-1.561276,53.803834],"type":"Point"},"properties":{"amenity":"waste_basket","osm_id":"7429088824","tag":{"collection_times":"Mo","condition":"POOR","ref:UK:leedscc:bin":"7205","waste_basket:model":"METAL TWIN"}},"type":"Feature"},
	{"geometry":{"coordinates":[-1.581991,53.829138],"type":"Point"},"properties":{"amenity":"waste_basket","osm_id":"7429088826","tag":{"collection_times":"Mo-Fr","ref:UK:leedscc:bin":"3511"}},"type":"Feature"},
	{"geometry":{"coordinates":[-1.544075,53.849305],"type":"Point"},"properties":{"amenity":"waste_basket","osm_id":"7429088827","tag":{"ref:UK:leedscc:bin":"1874"}},"type":"Feature"},
	{"geometry":{"coordinates":[-1.539221,53.805956],"type":"Point"},"properties":{"amenity":"waste_basket","osm_id":"7429088830","tag":{"collection_times":"Su","ref:UK:leedscc:bin":"2088"}},"type":"Feature"},
	{"geometry":{"coordinates":[-1.535396,53.846712],"type":"Point"},"properties":{"amenity":"waste_basket","osm_id":"7429088831","tag":{"collection_times":"Tu; Th","ref:UK:leedscc:bin":"3066"}},"type":"Feature"},
	{"geometry":{"coordinates":[-1.536668,53.838607],"type":"Point"},"properties":{"amenity":"waste_basket","osm_id":"7429088835","tag":{"collection_times":"Mo-Fr","ref:UK:leedscc:bin":"1357"}},"type":"Feature"},
	{"geometry":{"coordinates":[-1.534223,53.838952],"type":"Point"},"properties":{"amenity":"waste_basket","osm_id":"7429088837","tag":{"collection_times":"Tu; Th","ref:UK:leedscc:bin":"2999"}},"type":"Feature"},
	{"geometry":{"coordinates":[-1.554957,53.814111],"type":"Point"},"properties":{"amenity":"waste_basket","osm_id":"7429088838","tag":{"collection_times":"Su","condition":"GOOD","ref:UK:leedscc:bin":"5776","waste_basket:model":"METAL SQUARE"}},"type":"Feature"},
	{"geometry":{"coordinates":[-1.51358,53.828268],"type":"Point"},"properties":{"amenity":"waste_basket","osm_id":"7429088840","tag":{"collection_times":"Mo; Th","ref:UK:leedscc:bin":"1109"}},"type":"Feature"},
	{"geometry":{"coordinates":[-1.542188,53.849328],"type":"Point"},"properties":{"amenity":"waste_basket","osm_id":"7429088841","tag":{"ref:UK:leedscc:bin":"1876"}},"type":"Feature"},
	{"geometry":{"coordinates":[-1.581998,53.828999],"type":"Point"},"properties":{"amenity":"waste_basket","osm_id":"7429088842","tag":{"collection_times":"Mo-Fr","ref:UK:leedscc:bin":"3514"}},"type":"Feature"},
	{"geometry":{"coordinates":[-1.525999,53.800803],"type":"Point"},"properties":{"amenity":"waste_basket","osm_id":"7429088843","tag":{"ref:UK:leedscc:bin":"830"}},"type":"Feature"},
	{"geometry":{"coordinates":[-1.508446,53.843925],"type":"Point"},"properties":{"amenity":"waste_basket","osm_id":"7429088844","tag":{"collection_times":"We; Su","ref:UK:leedscc:bin":"2878"}},"type":"Feature"},
	{"geometry":{"coordinates":[-1.53521,53.839129],"type":"Point"},"properties":{"amenity":"waste_basket","osm_id":"7429088845","tag":{"collection_times":"Tu; Th","ref:UK:leedscc:bin":"1323"}},"type":"Feature"},
	{"geometry":{"coordinates":[-1.569317,53.816771],"type":"Point"},"properties":{"amenity":"waste_basket","osm_id":"7429088846","tag":{"collection_times":"Tu","condition":"POOR","ref:UK:leedscc:bin":"1396","waste_basket:model":"METAL TWIN"}},"type":"Feature"},
	{"geometry":{"coordinates":[-1.529566,53.846952],"type":"Point"},"properties":{"amenity":"waste_basket","osm_id":"7429088848","tag":{"collection_times":"Tu; Th","ref:UK:leedscc:bin":"2866"}},"type":"Feature"},
	{"geometry":{"coordinates":[-1.536541,53.838735],"type":"Point"},"properties":{"amenity":"waste_basket","osm_id":"7429088849","tag":{"collection_times":"Mo-Fr","ref:UK:leedscc:bin":"1324"}},"type":"Feature"},
	{"geometry":{"coordinates":[-1.536529,53.838648],"type":"Point"},"properties":{"amenity":"waste_basket","osm_id":"7429088852","tag":{"collection_times":"Mo-Fr","ref:UK:leedscc:bin":"1360"}},"type":"Feature"},
	{"geometry":{"coordinates":[-1.550646,53.812596],"type":"Point"},"properties":{"amenity":"waste_basket","osm_id":"7429088853","tag":{"collection_times":"Su","condition":"GOOD","ref:UK:leedscc:bin":"4184","waste_basket:model":"METAL SQUARE"}},"type":"Feature"},
	{"geometry":{"coordinates":[-1.550933,53.812653],"type":"Point"},"properties":{"amenity":"waste_basket","osm_id":"7429088854","tag":{"collection_times":"Su","condition":"GOOD","ref:UK:leedscc:bin":"4183","waste_basket:model":"METAL SQURE"}},"type":"Feature"},
	{"geometry":{"coordinates":[-1.499833,53.829003],"type":"Point"},"properties":{"amenity":"waste_basket","osm_id":"7429088857","tag":{"collection_times":"We; Su","ref:UK:leedscc:bin":"3631"}},"type":"Feature"},
	{"geometry":{"coordinates":[-1.51394,53.82838],"type":"Point"},"properties":{"amenity":"waste_basket","osm_id":"7429088858","tag":{"collection_times":"Mo; Th","ref:UK:leedscc:bin":"1119"}},"type":"Feature"},
	{"geometry":{"coordinates":[-1.561064,53.805313],"type":"Point"},"properties":{"amenity":"waste_basket","osm_id":"7429088860","tag":{"collection_times":"Mo","condition":"GOOD","ref:UK:leedscc:bin":"707","waste_basket:model":"METAL SQUARE"}},"type":"Feature"},
	{"geometry":{"coordinates":[-1.531604,53.824368],"type":"Point"},"properties":{"amenity":"waste_basket","osm_id":"7429088862","tag":{"collection_times":"We; Sa","ref:UK:leedscc:bin":"1284"}},"type":"Feature"},
	{"geometry":{"coordinates":[-1.536391,53.838715],"type":"Point"},"properties":{"amenity":"waste_basket","osm_id":"7429088863","tag":{"collection_times":"Mo-Fr","ref:UK:leedscc:bin":"1359"}},"type":"Feature"},
	{"geometry":{"coordinates":[-1.550693,53.84624],"type":"Point"},"properties":{"amenity":"waste_basket","osm_id":"7429088867","tag":{"ref:UK:leedscc:bin":"2813"}},"type":"Feature"},
	{"geometry":{"coordinates":[-1.560975,53.804557],"type":"Point"},"properties":{"amenity":"waste_basket","osm_id":"7429088868","tag":{"collection_times":"Mo","condition":"POOR","ref:UK:leedscc:bin":"708","waste_basket:model":"METAL TWIN"}},"type":"Feature"},
	{"geometry":{"coordinates":[-1.514238,53.828517],"type":"Point"},"properties":{"amenity":"waste_basket","osm_id":"7429088869","tag":{"collection_times":"Mo; Th","ref:UK:leedscc:bin":"1118"}},"type":"Feature"},
	{"geometry":{"coordinates":[-1.497183,53.834881],"type":"Point"},"properties":{"amenity":"waste_basket","osm_id":"7429088870","tag":{"collection_times":"Mo-Fr","ref:UK:leedscc:bin":"3549"}},"type":"Feature"},
	{"geometry":{"coordinates":[-1.508467,53.844102],"type":"Point"},"properties":{"amenity":"waste_basket","osm_id":"7429088871","tag":{"collection_times":"We; Su","ref:UK:leedscc:bin":"3115"}},"type":"Feature"},
	{"geometry":{"coordinates":[-1.551084,53.812819],"type":"Point"},"properties":{"amenity":"waste_basket","osm_id":"7429088874","tag":{"collection_times":"Su","condition":"FAIR","ref:UK:leedscc:bin":"4182","waste_basket:model":"PLASTIC POST BIN"}},"type":"Feature"},
	{"geometry":{"coordinates":[-1.532083,53.825004],"type":"Point"},"properties":{"amenity":"waste_basket","osm_id":"7429088875","tag":{"collection_times":"We; Sa","ref:UK:leedscc:bin":"1586"}},"type":"Feature"},
	{"geometry":{"coordinates":[-1.577118,53.816837],"type":"Point"},"properties":{"amenity":"waste_basket","osm_id":"7429088879","tag":{"collection_times":"We","ref:UK:leedscc:bin":"544"}},"type":"Feature"},
	{"geometry":{"coordinates":[-1.551021,53.84569],"type":"Point"},"properties":{"amenity":"waste_basket","osm_id":"7429088880","tag":{"ref:UK:leedscc:bin":"2817"}},"type":"Feature"},
	{"geometry":{"coordinates":[-1.538633,53.835703],"type":"Point"},"properties":{"amenity":"waste_basket","osm_id":"7429088881","tag":{"collection_times":"Tu; Th","ref:UK:leedscc:bin":"1600"}},"type":"Feature"},
	{"geometry":{"coordinates":[-1.531873,53.815533],"type":"Point"},"properties":{"amenity":"waste_basket","osm_id":"7429088882","tag":{"collection_times":"Mo; Th","ref:UK:leedscc:bin":"626"}},"type":"Feature"},
	{"geometry":{"coordinates":[-1.499937,53.845492],"type":"Point"},"properties":{"amenity":"waste_basket","osm_id":"7429088884","tag":{"collection_times":"We; Su","ref:UK:leedscc:bin":"2509"}},"type":"Feature"},
	{"geometry":{"coordinates":[-1.579602,53.807526],"type":"Point"},"properties":{"amenity":"waste_basket","osm_id":"7429088886","tag":{"collection_times":"We; Su","condition":"GOOD","ref:UK:leedscc:bin":"485","waste_basket:model":"METAL SQUARE"}},"type":"Feature"},
	{"geometry":{"coordinates":[-1.554488,53.81408],"type":"Point"},"properties":{"amenity":"waste_basket","osm_id":"7429088887","tag":{"collection_times":"Su","condition":"GOOD","ref:UK:leedscc:bin":"7207","waste_basket:model":"METAL SQUARE"}},"type":"Feature"},
	{"geometry":{"coordinates":[-1.53479,53.847214],"type":"Point"},"properties":{"amenity":"waste_basket","osm_id":"7429088888","tag":{"collection_times":"Mo-Fr","ref:UK:leedscc:bin":"1345"}},"type":"Feature"},
	{"geometry":{"coordinates":[-1.570414,53.817272],"type":"Point"},"properties":{"amenity":"waste_basket","osm_id":"7429088892","tag":{"collection_times":"Tu","condition":"FAIR","ref:UK:leedscc:bin":"1402","waste_basket:model":"PLASTIC OPEN TOP"}},"type":"Feature"},
	{"geometry":{"coordinates":[-1.536091,53.838768],"type":"Point"},"properties":{"amenity":"waste_basket","osm_id":"7429088893","tag":{"collection_times":"Mo-Fr","ref:UK:leedscc:bin":"1358"}},"type":"Feature"},
	{"geometry":{"coordinates":[-1.540932,53.807454],"type":"Point"},"properties":{"amenity":"waste_basket","osm_id":"7429088894","tag":{"collection_times":"Su","condition":"POOR","ref:UK:leedscc:bin":"2370","waste_basket:model":"METAL TWIN "}},"type":"Feature"},
	{"geometry":{"coordinates":[-1.532223,53.824575],"type":"Point"},"properties":{"amenity":"waste_basket","osm_id":"7429088898","tag":{"collection_times":"We; Sa","ref:UK:leedscc:bin":"1363"}},"type":"Feature"},
	{"geometry":{"coordinates":[-1.5727,53.824315],"type":"Point"},"properties":{"amenity":"waste_basket","osm_id":"7429088900","tag":{"collection_times":"Mo-Fr","ref:UK:leedscc:bin":"1191"}},"type":"Feature"},
	{"geometry":{"coordinates":[-1.538518,53.835634],"type":"Point"},"properties":{"amenity":"waste_basket","osm_id":"7429088901","tag":{"collection_times":"Tu; Th","ref:UK:leedscc:bin":"1599"}},"type":"Feature"},
	{"geometry":{"coordinates":[-1.535699,53.838889],"type":"Point"},"properties":{"amenity":"waste_basket","osm_id":"7429088902","tag":{"collection_times":"Tu; Th","ref:UK:leedscc:bin":"3001"}},"type":"Feature"},
	{"geometry":{"coordinates":[-1.545537,53.849612],"type":"Point"},"properties":{"amenity":"waste_basket","osm_id":"7429088904","tag":{"ref:UK:leedscc:bin":"1878"}},"type":"Feature"},
	{"geometry":{"coordinates":[-1.508995,53.844199],"type":"Point"},"properties":{"amenity":"waste_basket","osm_id":"7429088905","tag":{"collection_times":"We; Su","ref:UK:leedscc:bin":"3117"}},"type":"Feature"},
	{"geometry":{"coordinates":[-1.525245,53.817603],"type":"Point"},"properties":{"amenity":"waste_basket","osm_id":"7429088910","tag":{"collection_times":"Mo; Th","ref:UK:leedscc:bin":"1238"}},"type":"Feature"},
	{"geometry":{"coordinates":[-1.524681,53.844253],"type":"Point"},"properties":{"amenity":"waste_basket","osm_id":"7429088912","tag":{"collection_times":"Tu; Th","ref:UK:leedscc:bin":"3110"}},"type":"Feature"},
	{"geometry":{"coordinates":[-1.538427,53.83558],"type":"Point"},"properties":{"amenity":"waste_basket","osm_id":"7429088917","tag":{"collection_times":"Tu; Th","ref:UK:leedscc:bin":"1598"}},"type":"Feature"},
	{"geometry":{"coordinates":[-1.525315,53.80098],"type":"Point"},"properties":{"amenity":"waste_basket","osm_id":"7429088922","tag":{"ref:UK:leedscc:bin":"493"}},"type":"Feature"},
	{"geometry":{"coordinates":[-1.530705,53.82565],"type":"Point"},"properties":{"amenity":"waste_basket","osm_id":"7429088924","tag":{"collection_times":"We; Sa","ref:UK:leedscc:bin":"1126"}},"type":"Feature"},
	{"geometry":{"coordinates":[-1.509317,53.8442],"type":"Point"},"properties":{"amenity":"waste_basket","osm_id":"7429088926","tag":{"collection_times":"We; Su","ref:UK:leedscc:bin":"3118"}},"type":"Feature"},
	{"geometry":{"coordinates":[-1.540874,53.832664],"type":"Point"},"properties":{"amenity":"waste_basket","osm_id":"7429088927","tag":{"collection_times":"We; Sa","ref:UK:leedscc:bin":"3551"}},"type":"Feature"},
	{"geometry":{"coordinates":[-1.53442,53.847493],"type":"Point"},"properties":{"amenity":"waste_basket","osm_id":"7429088928","tag":{"collection_times":"Tu; Th","ref:UK:leedscc:bin":"1321"}},"type":"Feature"},
	{"geometry":{"coordinates":[-1.543051,53.82497],"type":"Point"},"properties":{"amenity":"waste_basket","osm_id":"7429088930","tag":{"collection_times":"We; Sa","ref:UK:leedscc:bin":"2574"}},"type":"Feature"},
	{"geometry":{"coordinates":[-1.531272,53.825147],"type":"Point"},"properties":{"amenity":"waste_basket","osm_id":"7429088931","tag":{"collection_times":"We; Sa","ref:UK:leedscc:bin":"1125"}},"type":"Feature"},
	{"geometry":{"coordinates":[-1.538405,53.835512],"type":"Point"},"properties":{"amenity":"waste_basket","osm_id":"7429088932","tag":{"collection_times":"Tu; Th","ref:UK:leedscc:bin":"1597"}},"type":"Feature"},
	{"geometry":{"coordinates":[-1.546196,53.834511],"type":"Point"},"properties":{"amenity":"waste_basket","osm_id":"7429088933","tag":{"collection_times":"Mo; Fr","ref:UK:leedscc:bin":"572"}},"type":"Feature"},
	{"geometry":{"coordinates":[-1.508901,53.844348],"type":"Point"},"properties":{"amenity":"waste_basket","osm_id":"7429088934","tag":{"collection_times":"We; Su","ref:UK:leedscc:bin":"3126"}},"type":"Feature"},
	{"geometry":{"coordinates":[-1.529408,53.82901],"type":"Point"},"properties":{"amenity":"waste_basket","osm_id":"7429088935","tag":{"collection_times":"We; Sa","ref:UK:leedscc:bin":"1111"}},"type":"Feature"},
	{"geometry":{"coordinates":[-1.58147,53.808061],"type":"Point"},"properties":{"amenity":"waste_basket","osm_id":"7429088936","tag":{"collection_times":"We; Su","condition":"GOOD","ref:UK:leedscc:bin":"480","waste_basket:model":"METAL SQUARE"}},"type":"Feature"},
	{"geometry":{"coordinates":[-1.550531,53.834896],"type":"Point"},"properties":{"amenity":"waste_basket","osm_id":"7429088941","tag":{"collection_times":"Mo; Fr","ref:UK:leedscc:bin":"573"}},"type":"Feature"},
	{"geometry":{"coordinates":[-1.524411,53.821795],"type":"Point"},"properties":{"amenity":"waste_basket","osm_id":"7429088946","tag":{"collection_times":"Mo; Th","ref:UK:leedscc:bin":"1283"}},"type":"Feature"},
	{"geometry":{"coordinates":[-1.551072,53.81315],"type":"Point"},"properties":{"amenity":"waste_basket","osm_id":"7429088947","tag":{"collection_times":"Su","condition":"FAIR","ref:UK:leedscc:bin":"4181","waste_basket:model":"PLASTIC OPEN TOP"}},"type":"Feature"},
	{"geometry":{"coordinates":[-1.57681,53.817144],"type":"Point"},"properties":{"amenity":"waste_basket","osm_id":"7429088948","tag":{"collection_times":"We","condition":"FAIR","ref:UK:leedscc:bin":"552","waste_basket:model":"METAL TWIN"}},"type":"Feature"},
	{"geometry":{"coordinates":[-1.532561,53.815242],"type":"Point"},"properties":{"amenity":"waste_basket","osm_id":"7429088952","tag":{"collection_times":"Mo; Th","ref:UK:leedscc:bin":"627"}},"type":"Feature"},
	{"geometry":{"coordinates":[-1.574752,53.806659],"type":"Point"},"properties":{"amenity":"waste_basket","osm_id":"7429088953","tag":{"collection_times":"Mo","condition":"FAIR","ref:UK:leedscc:bin":"537","waste_basket:model":"METAL TWIN"}},"type":"Feature"},
	{"geometry":{"coordinates":[-1.524293,53.8419],"type":"Point"},"properties":{"amenity":"waste_basket","osm_id":"7429088954","tag":{"collection_times":"Tu; Th","ref:UK:leedscc:bin":"3170"}},"type":"Feature"},
	{"geometry":{"coordinates":[-1.53829,53.835457],"type":"Point"},"properties":{"amenity":"waste_basket","osm_id":"7429088955","tag":{"collection_times":"Tu","ref:UK:leedscc:bin":"1596"}},"type":"Feature"},
	{"geometry":{"coordinates":[-1.526503,53.802086],"type":"Point"},"properties":{"amenity":"waste_basket","osm_id":"7429088958","tag":{"ref:UK:leedscc:bin":"829"}},"type":"Feature"},
	{"geometry":{"coordinates":[-1.542212,53.832342],"type":"Point"},"properties":{"amenity":"waste_basket","osm_id":"7429088959","tag":{"collection_times":"We; Sa","ref:UK:leedscc:bin":"3685"}},"type":"Feature"},
	{"geometry":{"coordinates":[-1.515947,53.82994],"type":"Point"},"properties":{"amenity":"waste_basket","osm_id":"7429088962","tag":{"collection_times":"We; Su","ref:UK:leedscc:bin":"1848"}},"type":"Feature"},
	{"geometry":{"coordinates":[-1.516298,53.83337],"type":"Point"},"properties":{"amenity":"waste_basket","osm_id":"7429088963","tag":{"collection_times":"We; Su","ref:UK:leedscc:bin":"1566"}},"type":"Feature"},
	{"geometry":{"coordinates":[-1.571057,53.817172],"type":"Point"},"properties":{"amenity":"waste_basket","osm_id":"7429088968","tag":{"collection_times":"Tu","condition":"POOR","ref:UK:leedscc:bin":"4176","waste_basket:model":"METAL TWIN"}},"type":"Feature"},
	{"geometry":{"coordinates":[-1.549922,53.83573],"type":"Point"},"properties":{"amenity":"waste_basket","osm_id":"7429088970","tag":{"collection_times":"Mo; Fr","ref:UK:leedscc:bin":"569"}},"type":"Feature"},
	{"geometry":{"coordinates":[-1.515397,53.828706],"type":"Point"},"properties":{"amenity":"waste_basket","osm_id":"7429088971","tag":{"collection_times":"Mo; Th","ref:UK:leedscc:bin":"1108"}},"type":"Feature"},
	{"geometry":{"coordinates":[-1.527684,53.80276],"type":"Point"},"properties":{"amenity":"waste_basket","osm_id":"7429088974","tag":{"ref:UK:leedscc:bin":"1860"}},"type":"Feature"},
	{"geometry":{"coordinates":[-1.526263,53.802132],"type":"Point"},"properties":{"amenity":"waste_basket","osm_id":"7429088980","tag":{"ref:UK:leedscc:bin":"828"}},"type":"Feature"},
	{"geometry":{"coordinates":[-1.526729,53.802393],"type":"Point"},"properties":{"amenity":"waste_basket","osm_id":"7429088982","tag":{"ref:UK:leedscc:bin":"1854"}},"type":"Feature"},
	{"geometry":{"coordinates":[-1.550209,53.835845],"type":"Point"},"properties":{"amenity":"waste_basket","osm_id":"7429088984","tag":{"collection_times":"Mo; Fr","ref:UK:leedscc:bin":"570"}},"type":"Feature"},
	{"geometry":{"coordinates":[-1.515478,53.828686],"type":"Point"},"properties":{"amenity":"waste_basket","osm_id":"7429088985","tag":{"collection_times":"Mo; Th","ref:UK:leedscc:bin":"1116"}},"type":"Feature"},
	{"geometry":{"coordinates":[-1.576591,53.804454],"type":"Point"},"properties":{"amenity":"waste_basket","osm_id":"7429088988","tag":{"collection_times":"Mo","condition":"FAIR","ref:UK:leedscc:bin":"5840","waste_basket:model":"METAL TWIN"}},"type":"Feature"},
	{"geometry":{"coordinates":[-1.529613,53.803375],"type":"Point"},"properties":{"amenity":"waste_basket","osm_id":"7429088990","tag":{"ref:UK:leedscc:bin":"1856"}},"type":"Feature"},
	{"geometry":{"coordinates":[-1.538002,53.848982],"type":"Point"},"properties":{"amenity":"waste_basket","osm_id":"7429088992","tag":{"ref:UK:leedscc:bin":"1875"}},"type":"Feature"},
	{"geometry":{"coordinates":[-1.555161,53.83677],"type":"Point"},"properties":{"amenity":"waste_basket","osm_id":"7429088996","tag":{"collection_times":"Mo-Fr","ref:UK:leedscc:bin":"3086"}},"type":"Feature"},
	{"geometry":{"coordinates":[-1.515479,53.828577],"type":"Point"},"properties":{"amenity":"waste_basket","osm_id":"7429088998","tag":{"collection_times":"Mo; Th","ref:UK:leedscc:bin":"1117"}},"type":"Feature"},
	{"geometry":{"coordinates":[-1.526432,53.802323],"type":"Point"},"properties":{"amenity":"waste_basket","osm_id":"7429089000","tag":{"ref:UK:leedscc:bin":"1853"}},"type":"Feature"},
	{"geometry":{"coordinates":[-1.5348,53.84776],"type":"Point"},"properties":{"amenity":"waste_basket","osm_id":"7429089001","tag":{"collection_times":"Mo-Fr","ref:UK:leedscc:bin":"1322"}},"type":"Feature"},
	{"geometry":{"coordinates":[-1.55021,53.835731],"type":"Point"},"properties":{"amenity":"waste_basket","osm_id":"7429089002","tag":{"collection_times":"Mo; Fr","ref:UK:leedscc:bin":"571"}},"type":"Feature"},
	{"geometry":{"coordinates":[-1.516315,53.829955],"type":"Point"},"properties":{"amenity":"waste_basket","osm_id":"7429089005","tag":{"collection_times":"We; Su","ref:UK:leedscc:bin":"1847"}},"type":"Feature"},
	{"geometry":{"coordinates":[-1.580594,53.816871],"type":"Point"},"properties":{"amenity":"waste_basket","osm_id":"7429089006","tag":{"collection_times":"We","condition":"GOOD","ref:UK:leedscc:bin":"2970","waste_basket:model":"METAL SQUARE"}},"type":"Feature"},
	{"geometry":{"coordinates":[-1.544266,53.831542],"type":"Point"},"properties":{"amenity":"waste_basket","osm_id":"7429089011","tag":{"collection_times":"We; Sa","ref:UK:leedscc:bin":"3537"}},"type":"Feature"},
	{"geometry":{"coordinates":[-1.507839,53.824967],"type":"Point"},"properties":{"amenity":"waste_basket","osm_id":"7429089014","tag":{"collection_times":"Mo; Th","ref:UK:leedscc:bin":"2762"}},"type":"Feature"},
	{"geometry":{"coordinates":[-1.526106,53.802272],"type":"Point"},"properties":{"amenity":"waste_basket","osm_id":"7429089015","tag":{"ref:UK:leedscc:bin":"1851"}},"type":"Feature"},
	{"geometry":{"coordinates":[-1.540561,53.807978],"type":"Point"},"properties":{"amenity":"waste_basket","osm_id":"7429089017","tag":{"collection_times":"Su","condition":"GOOD","ref:UK:leedscc:bin":"2369","waste_basket:model":"METAL SQUARE"}},"type":"Feature"},
	{"geometry":{"coordinates":[-1.515958,53.828919],"type":"Point"},"properties":{"amenity":"waste_basket","osm_id":"7429089019","tag":{"collection_times":"We; Su","ref:UK:leedscc:bin":"1849"}},"type":"Feature"},
	{"geometry":{"coordinates":[-1.526404,53.802462],"type":"Point"},"properties":{"amenity":"waste_basket","osm_id":"7429089020","tag":{"ref:UK:leedscc:bin":"1864"}},"type":"Feature"},
	{"geometry":{"coordinates":[-1.51005,53.844489],"type":"Point"},"properties":{"amenity":"waste_basket","osm_id":"7429089021","tag":{"collection_times":"We; Su","ref:UK:leedscc:bin":"3119"}},"type":"Feature"},
	{"geometry":{"coordinates":[-1.52636,53.802441],"type":"Point"},"properties":{"amenity":"waste_basket","osm_id":"7429089022","tag":{"ref:UK:leedscc:bin":"1852"}},"type":"Feature"},
	{"geometry":{"coordinates":[-1.545219,53.833954],"type":"Point"},"properties":{"amenity":"waste_basket","osm_id":"7429089023","tag":{"collection_times":"Mo; Fr","ref:UK:leedscc:bin":"181"}},"type":"Feature"},
	{"geometry":{"coordinates":[-1.534053,53.837981],"type":"Point"},"properties":{"amenity":"waste_basket","osm_id":"7429089024","tag":{"collection_times":"Tu; Th","ref:UK:leedscc:bin":"3000"}},"type":"Feature"},
	{"geometry":{"coordinates":[-1.559319,53.840288],"type":"Point"},"properties":{"amenity":"waste_basket","osm_id":"7429089028","tag":{"collection_times":"Mo; Fr","ref:UK:leedscc:bin":"3273"}},"type":"Feature"},
	{"geometry":{"coordinates":[-1.578177,53.817455],"type":"Point"},"properties":{"amenity":"waste_basket","osm_id":"7429089030","tag":{"collection_times":"We","ref:UK:leedscc:bin":"554"}},"type":"Feature"},
	{"geometry":{"coordinates":[-1.543972,53.824878],"type":"Point"},"properties":{"amenity":"waste_basket","osm_id":"7429089031","tag":{"collection_times":"We; Sa","ref:UK:leedscc:bin":"2575"}},"type":"Feature"},
	{"geometry":{"coordinates":[-1.523585,53.821642],"type":"Point"},"properties":{"amenity":"waste_basket","osm_id":"7429089033","tag":{"collection_times":"Mo; Th","ref:UK:leedscc:bin":"1282"}},"type":"Feature"},
	{"geometry":{"coordinates":[-1.529354,53.803547],"type":"Point"},"properties":{"amenity":"waste_basket","osm_id":"7429089037","tag":{"ref:UK:leedscc:bin":"1857"}},"type":"Feature"},
	{"geometry":{"coordinates":[-1.525754,53.839442],"type":"Point"},"properties":{"amenity":"waste_basket","osm_id":"7429089042","tag":{"collection_times":"We; Su","ref:UK:leedscc:bin":"1838"}},"type":"Feature"},
	{"geometry":{"coordinates":[-1.526081,53.802408],"type":"Point"},"properties":{"amenity":"waste_basket","osm_id":"7429089043","tag":{"ref:UK:leedscc:bin":"1866"}},"type":"Feature"},
	{"geometry":{"coordinates":[-1.51645,53.832173],"type":"Point"},"properties":{"amenity":"waste_basket","osm_id":"7429089044","tag":{"collection_times":"We; Su","ref:UK:leedscc:bin":"1564"}},"type":"Feature"},
	{"geometry":{"coordinates":[-1.523937,53.817749],"type":"Point"},"properties":{"amenity":"waste_basket","osm_id":"7429089046","tag":{"collection_times":"Mo; Th","ref:UK:leedscc:bin":"1237"}},"type":"Feature"},
	{"geometry":{"coordinates":[-1.528485,53.803383],"type":"Point"},"properties":{"amenity":"waste_basket","osm_id":"7429089049","tag":{"ref:UK:leedscc:bin":"1859"}},"type":"Feature"},
	{"geometry":{"coordinates":[-1.546349,53.828412],"type":"Point"},"properties":{"amenity":"waste_basket","osm_id":"7429089050","tag":{"collection_times":"We; Sa","ref:UK:leedscc:bin":"2982"}},"type":"Feature"},
	{"geometry":{"coordinates":[-1.515917,53.828551],"type":"Point"},"properties":{"amenity":"waste_basket","osm_id":"7429089052","tag":{"collection_times":"Mo; Th","ref:UK:leedscc:bin":"3237"}},"type":"Feature"},
	{"geometry":{"coordinates":[-1.516783,53.831195],"type":"Point"},"properties":{"amenity":"waste_basket","osm_id":"7429089053","tag":{"collection_times":"We; Su","ref:UK:leedscc:bin":"1565"}},"type":"Feature"},
	{"geometry":{"coordinates":[-1.516098,53.828743],"type":"Point"},"properties":{"amenity":"waste_basket","osm_id":"7429089054","tag":{"collection_times":"Mo; Th","ref:UK:leedscc:bin":"1115"}},"type":"Feature"},
	{"geometry":{"coordinates":[-1.511448,53.844155],"type":"Point"},"properties":{"amenity":"waste_basket","osm_id":"7429089055","tag":{"collection_times":"We; Su","ref:UK:leedscc:bin":"3116"}},"type":"Feature"},
	{"geometry":{"coordinates":[-1.551711,53.847277],"type":"Point"},"properties":{"amenity":"waste_basket","osm_id":"7429089056","tag":{"ref:UK:leedscc:bin":"2814"}},"type":"Feature"},
	{"geometry":{"coordinates":[-1.55468,53.836882],"type":"Point"},"properties":{"amenity":"waste_basket","osm_id":"7429089060","tag":{"collection_times":"Mo-Fr","ref:UK:leedscc:bin":"3085"}},"type":"Feature"},
	{"geometry":{"coordinates":[-1.575004,53.81928],"type":"Point"},"properties":{"amenity":"waste_basket","osm_id":"7429089061","tag":{"collection_times":"Tu","condition":"FAIR","ref:UK:leedscc:bin":"1406","waste_basket:model":"PLASTIC OPEN TOP"}},"type":"Feature"},
	{"geometry":{"coordinates":[-1.555505,53.838232],"type":"Point"},"properties":{"amenity":"waste_basket","osm_id":"7429089063","tag":{"collection_times":"Mo; Fr","ref:UK:leedscc:bin":"2527"}},"type":"Feature"},
	{"geometry":{"coordinates":[-1.496736,53.834013],"type":"Point"},"properties":{"amenity":"waste_basket","osm_id":"7429089064","tag":{"collection_times":"Mo-Fr","ref:UK:leedscc:bin":"3548"}},"type":"Feature"},
	{"geometry":{"coordinates":[-1.554727,53.837038],"type":"Point"},"properties":{"amenity":"waste_basket","osm_id":"7429089065","tag":{"collection_times":"Mo-Fr","ref:UK:leedscc:bin":"3084"}},"type":"Feature"},
	{"geometry":{"coordinates":[-1.554914,53.83745],"type":"Point"},"properties":{"amenity":"waste_basket","osm_id":"7429089068","tag":{"collection_times":"Mo; Fr","ref:UK:leedscc:bin":"2528"}},"type":"Feature"},
	{"geometry":{"coordinates":[-1.543497,53.833678],"type":"Point"},"properties":{"amenity":"waste_basket","osm_id":"7429089070","tag":{"collection_times":"Mo; Fr","ref:UK:leedscc:bin":"2838"}},"type":"Feature"},
	{"geometry":{"coordinates":[-1.529314,53.814895],"type":"Point"},"properties":{"amenity":"waste_basket","osm_id":"7429089071","tag":{"collection_times":"Mo; Th","ref:UK:leedscc:bin":"812"}},"type":"Feature"},
	{"geometry":{"coordinates":[-1.547201,53.828347],"type":"Point"},"properties":{"amenity":"waste_basket","osm_id":"7429089072","tag":{"collection_times":"Mo; Th","ref:UK:leedscc:bin":"2832"}},"type":"Feature"},
	{"geometry":{"coordinates":[-1.523309,53.841957],"type":"Point"},"properties":{"amenity":"waste_basket","osm_id":"7429089074","tag":{"collection_times":"Tu; Th","ref:UK:leedscc:bin":"3175"}},"type":"Feature"},
	{"geometry":{"coordinates":[-1.507957,53.824695],"type":"Point"},"properties":{"amenity":"waste_basket","osm_id":"7429089076","tag":{"collection_times":"Mo; Th","ref:UK:leedscc:bin":"2761"}},"type":"Feature"},
	{"geometry":{"coordinates":[-1.523026,53.818769],"type":"Point"},"properties":{"amenity":"waste_basket","osm_id":"7429089079","tag":{"collection_times":"Mo; Th","ref:UK:leedscc:bin":"143"}},"type":"Feature"},
	{"geometry":{"coordinates":[-1.530017,53.814726],"type":"Point"},"properties":{"amenity":"waste_basket","osm_id":"7429089082","tag":{"collection_times":"Mo; Th","ref:UK:leedscc:bin":"2210"}},"type":"Feature"},
	{"geometry":{"coordinates":[-1.559005,53.840485],"type":"Point"},"properties":{"amenity":"waste_basket","osm_id":"7429089085","tag":{"collection_times":"Mo; Fr","ref:UK:leedscc:bin":"3272"}},"type":"Feature"},
	{"geometry":{"coordinates":[-1.546702,53.828731],"type":"Point"},"properties":{"amenity":"waste_basket","osm_id":"7429089090","tag":{"collection_times":"Mo; Th","ref:UK:leedscc:bin":"2831"}},"type":"Feature"},
	{"geometry":{"coordinates":[-1.516103,53.828348],"type":"Point"},"properties":{"amenity":"waste_basket","osm_id":"7429089091","tag":{"collection_times":"Mo; Th","ref:UK:leedscc:bin":"3238"}},"type":"Feature"},
	{"geometry":{"coordinates":[-1.529172,53.803768],"type":"Point"},"properties":{"amenity":"waste_basket","osm_id":"7429089092","tag":{"ref:UK:leedscc:bin":"1858"}},"type":"Feature"},
	{"geometry":{"coordinates":[-1.578637,53.817705],"type":"Point"},"properties":{"amenity":"waste_basket","osm_id":"7429089095","tag":{"collection_times":"We","ref:UK:leedscc:bin":"2964"}},"type":"Feature"},
	{"geometry":{"coordinates":[-1.524122,53.817042],"type":"Point"},"properties":{"amenity":"waste_basket","osm_id":"7429089100","tag":{"collection_times":"Mo; Th","ref:UK:leedscc:bin":"2944"}},"type":"Feature"},
	{"geometry":{"coordinates":[-1.497671,53.830032],"type":"Point"},"properties":{"amenity":"waste_basket","osm_id":"7429089101","tag":{"collection_times":"We; Su","ref:UK:leedscc:bin":"3598"}},"type":"Feature"},
	{"geometry":{"coordinates":[-1.516377,53.82854],"type":"Point"},"properties":{"amenity":"waste_basket","osm_id":"7429089104","tag":{"collection_times":"Mo; Th","ref:UK:leedscc:bin":"3239"}},"type":"Feature"},
	{"geometry":{"coordinates":[-1.573954,53.817895],"type":"Point"},"properties":{"amenity":"waste_basket","osm_id":"7429089105","tag":{"collection_times":"Tu","condition":"POOR","ref:UK:leedscc:bin":"1395","waste_basket:model":"METAL TWIN"}},"type":"Feature"},
	{"geometry":{"coordinates":[-1.547252,53.827952],"type":"Point"},"properties":{"amenity":"waste_basket","osm_id":"7429089109","tag":{"collection_times":"We; Sa","ref:UK:leedscc:bin":"2839"}},"type":"Feature"},
	{"geometry":{"coordinates":[-1.525293,53.802407],"type":"Point"},"properties":{"amenity":"waste_basket","osm_id":"7429089112","tag":{"ref:UK:leedscc:bin":"1867"}},"type":"Feature"},
	{"geometry":{"coordinates":[-1.57889,53.81778],"type":"Point"},"properties":{"amenity":"waste_basket","osm_id":"7429089117","tag":{"collection_times":"We","ref:UK:leedscc:bin":"555"}},"type":"Feature"},
	{"geometry":{"coordinates":[-1.546894,53.827924],"type":"Point"},"properties":{"amenity":"waste_basket","osm_id":"7429089121","tag":{"collection_times":"Mo-Fr","ref:UK:leedscc:bin":"2840"}},"type":"Feature"},
	{"geometry":{"coordinates":[-1.523725,53.801156],"type":"Point"},"properties":{"amenity":"waste_basket","osm_id":"7429089122","tag":{"ref:UK:leedscc:bin":"827"}},"type":"Feature"},
	{"geometry":{"coordinates":[-1.574853,53.824261],"type":"Point"},"properties":{"amenity":"waste_basket","osm_id":"7429089123","tag":{"collection_times":"Mo-Fr","ref:UK:leedscc:bin":"1190"}},"type":"Feature"},
	{"geometry":{"coordinates":[-1.522895,53.841955],"type":"Point"},"properties":{"amenity":"waste_basket","osm_id":"7429089127","tag":{"collection_times":"Tu; Th","ref:UK:leedscc:bin":"3174"}},"type":"Feature"},
	{"geometry":{"coordinates":[-1.522572,53.821082],"type":"Point"},"properties":{"amenity":"waste_basket","osm_id":"7429089128","tag":{"collection_times":"Mo; Th","ref:UK:leedscc:bin":"1252"}},"type":"Feature"},
	{"geometry":{"coordinates":[-1.523435,53.800879],"type":"Point"},"properties":{"amenity":"waste_basket","osm_id":"7429089129","tag":{"ref:UK:leedscc:bin":"2208"}},"type":"Feature"},
	{"geometry":{"coordinates":[-1.546932,53.827679],"type":"Point"},"properties":{"amenity":"waste_basket","osm_id":"7429089132","tag":{"collection_times":"Mo-Fr","ref:UK:leedscc:bin":"2841"}},"type":"Feature"},
	{"geometry":{"coordinates":[-1.543596,53.833338],"type":"Point"},"properties":{"amenity":"waste_basket","osm_id":"7429089140","tag":{"collection_times":"Mo; Fr","ref:UK:leedscc:bin":"2837"}},"type":"Feature"},
	{"geometry":{"coordinates":[-1.575615,53.81915],"type":"Point"},"properties":{"amenity":"waste_basket","osm_id":"7429089142","tag":{"collection_times":"Tu","condition":"FAIR","ref:UK:leedscc:bin":"1405","waste_basket:model":"PLASTIC OPEN TOP"}},"type":"Feature"},
	{"geometry":{"coordinates":[-1.54698,53.827448],"type":"Point"},"properties":{"amenity":"waste_basket","osm_id":"7429089144","tag":{"collection_times":"Mo-Fr","ref:UK:leedscc:bin":"2842"}},"type":"Feature"},
	{"geometry":{"coordinates":[-1.528509,53.803906],"type":"Point"},"properties":{"amenity":"waste_basket","osm_id":"7429089147","tag":{"ref:UK:leedscc:bin":"832"}},"type":"Feature"},
	{"geometry":{"coordinates":[-1.576197,53.82003],"type":"Point"},"properties":{"amenity":"waste_basket","osm_id":"7429089150","tag":{"collection_times":"Tu","condition":"FAIR","ref:UK:leedscc:bin":"2973","waste_basket:model":"PLASTIC OPEN TOP"}},"type":"Feature"},
	{"geometry":{"coordinates":[-1.544053,53.833227],"type":"Point"},"properties":{"amenity":"waste_basket","osm_id":"7429089158","tag":{"collection_times":"Mo; Fr","ref:UK:leedscc:bin":"2998"}},"type":"Feature"},
	{"geometry":{"coordinates":[-1.538289,53.850092],"type":"Point"},"properties":{"amenity":"waste_basket","osm_id":"7429089161","tag":{"ref:UK:leedscc:bin":"1046"}},"type":"Feature"},
	{"geometry":{"coordinates":[-1.576434,53.820342],"type":"Point"},"properties":{"amenity":"waste_basket","osm_id":"7429089164","tag":{"collection_times":"Tu","condition":"POOR","ref:UK:leedscc:bin":"2485","waste_basket:model":"METAL TWIN"}},"type":"Feature"},
	{"geometry":{"coordinates":[-1.507721,53.824215],"type":"Point"},"properties":{"amenity":"waste_basket","osm_id":"7429089168","tag":{"collection_times":"Mo; Th","ref:UK:leedscc:bin":"2756"}},"type":"Feature"},
	{"geometry":{"coordinates":[-1.553355,53.84488],"type":"Point"},"properties":{"amenity":"waste_basket","osm_id":"7429089169","tag":{"ref:UK:leedscc:bin":"2816"}},"type":"Feature"},
	{"geometry":{"coordinates":[-1.544365,53.833171],"type":"Point"},"properties":{"amenity":"waste_basket","osm_id":"7429089171","tag":{"collection_times":"Mo; Fr","ref:UK:leedscc:bin":"2997"}},"type":"Feature"},
	{"geometry":{"coordinates":[-1.522001,53.819936],"type":"Point"},"properties":{"amenity":"waste_basket","osm_id":"7429089172","tag":{"collection_times":"Mo; Th","ref:UK:leedscc:bin":"144"}},"type":"Feature"},
	{"geometry":{"coordinates":[-1.524878,53.839056],"type":"Point"},"properties":{"amenity":"waste_basket","osm_id":"7429089174","tag":{"collection_times":"We; Su","ref:UK:leedscc:bin":"1821"}},"type":"Feature"},
	{"geometry":{"coordinates":[-1.525797,53.803127],"type":"Point"},"properties":{"amenity":"waste_basket","osm_id":"7429089176","tag":{"ref:UK:leedscc:bin":"1873"}},"type":"Feature"},
	{"geometry":{"coordinates":[-1.576187,53.819416],"type":"Point"},"properties":{"amenity":"waste_basket","osm_id":"7429089184","tag":{"collection_times":"Tu","ref:UK:leedscc:bin":"1408"}},"type":"Feature"},
	{"geometry":{"coordinates":[-1.522583,53.817853],"type":"Point"},"properties":{"amenity":"waste_basket","osm_id":"7429089185","tag":{"collection_times":"Mo; Th","ref:UK:leedscc:bin":"1242"}},"type":"Feature"},
	{"geometry":{"coordinates":[-1.522583,53.817853],"type":"Point"},"properties":{"amenity":"waste_basket","osm_id":"7429089186","tag":{"collection_times":"Mo; Th","ref:UK:leedscc:bin":"1244"}},"type":"Feature"},
	{"geometry":{"coordinates":[-1.544677,53.833102],"type":"Point"},"properties":{"amenity":"waste_basket","osm_id":"7429089191","tag":{"collection_times":"Mo; Fr","ref:UK:leedscc:bin":"2996"}},"type":"Feature"},
	{"geometry":{"coordinates":[-1.545651,53.824898],"type":"Point"},"properties":{"amenity":"waste_basket","osm_id":"7429089193","tag":{"collection_times":"We; Sa","ref:UK:leedscc:bin":"2576"}},"type":"Feature"},
	{"geometry":{"coordinates":[-1.57683,53.820682],"type":"Point"},"properties":{"amenity":"waste_basket","osm_id":"7429089195","tag":{"collection_times":"Tu","condition":"POOR","ref:UK:leedscc:bin":"242","waste_basket:model":"METAL TWIN"}},"type":"Feature"},
	{"geometry":{"coordinates":[-1.551246,53.849033],"type":"Point"},"properties":{"amenity":"waste_basket","osm_id":"7429089197","tag":{"ref:UK:leedscc:bin":"1613"}},"type":"Feature"},
	{"geometry":{"coordinates":[-1.581714,53.826382],"type":"Point"},"properties":{"amenity":"waste_basket","osm_id":"7429089201","tag":{"collection_times":"Mo-Fr","ref:UK:leedscc:bin":"2472"}},"type":"Feature"},
	{"geometry":{"coordinates":[-1.528205,53.848535],"type":"Point"},"properties":{"amenity":"waste_basket","osm_id":"7429089203","tag":{"collection_times":"Tu; Th","ref:UK:leedscc:bin":"2865"}},"type":"Feature"},
	{"geometry":{"coordinates":[-1.526077,53.824986],"type":"Point"},"properties":{"amenity":"waste_basket","osm_id":"7429089205","tag":{"collection_times":"We; Sa","ref:UK:leedscc:bin":"1123"}},"type":"Feature"},
	{"geometry":{"coordinates":[-1.525757,53.824876],"type":"Point"},"properties":{"amenity":"waste_basket","osm_id":"7429089208","tag":{"collection_times":"We; Sa","ref:UK:leedscc:bin":"1124"}},"type":"Feature"},
	{"geometry":{"coordinates":[-1.555895,53.839864],"type":"Point"},"properties":{"amenity":"waste_basket","osm_id":"7429089209","tag":{"collection_times":"Mo; Fr","ref:UK:leedscc:bin":"1582"}},"type":"Feature"},
	{"geometry":{"coordinates":[-1.524937,53.838703],"type":"Point"},"properties":{"amenity":"waste_basket","osm_id":"7429089210","tag":{"collection_times":"Mo-Fr","ref:UK:leedscc:bin":"1819"}},"type":"Feature"},
	{"geometry":{"coordinates":[-1.543737,53.811584],"type":"Point"},"properties":{"amenity":"waste_basket","osm_id":"7429089211","tag":{"collection_times":"Su","ref:UK:leedscc:bin":"2070"}},"type":"Feature"},
	{"geometry":{"coordinates":[-1.527298,53.826661],"type":"Point"},"properties":{"amenity":"waste_basket","osm_id":"7429089215","tag":{"collection_times":"We; Sa","ref:UK:leedscc:bin":"1128"}},"type":"Feature"},
	{"geometry":{"coordinates":[-1.545882,53.824777],"type":"Point"},"properties":{"amenity":"waste_basket","osm_id":"7429089216","tag":{"collection_times":"We; Sa","ref:UK:leedscc:bin":"2845"}},"type":"Feature"},
	{"geometry":{"coordinates":[-1.54686,53.825774],"type":"Point"},"properties":{"amenity":"waste_basket","osm_id":"7429089219","tag":{"collection_times":"Mo-Fr","ref:UK:leedscc:bin":"2843"}},"type":"Feature"},
	{"geometry":{"coordinates":[-1.500696,53.825117],"type":"Point"},"properties":{"amenity":"waste_basket","osm_id":"7429089220","tag":{"collection_times":"Mo; Th","ref:UK:leedscc:bin":"2353"}},"type":"Feature"},
	{"geometry":{"coordinates":[-1.522113,53.844513],"type":"Point"},"properties":{"amenity":"waste_basket","osm_id":"7429089221","tag":{"collection_times":"Tu; Th","ref:UK:leedscc:bin":"3111"}},"type":"Feature"},
	{"geometry":{"coordinates":[-1.522159,53.84464],"type":"Point"},"properties":{"amenity":"waste_basket","osm_id":"7429089223","tag":{"collection_times":"Tu; Th","ref:UK:leedscc:bin":"3112"}},"type":"Feature"},
	{"geometry":{"coordinates":[-1.521905,53.842019],"type":"Point"},"properties":{"amenity":"waste_basket","osm_id":"7429089224","tag":{"collection_times":"Tu; Th","ref:UK:leedscc:bin":"3173"}},"type":"Feature"},
	{"geometry":{"coordinates":[-1.523962,53.816008],"type":"Point"},"properties":{"amenity":"waste_basket","osm_id":"7429089226","tag":{"collection_times":"Mo; Th","ref:UK:leedscc:bin":"2943"}},"type":"Feature"},
	{"geometry":{"coordinates":[-1.543451,53.811521],"type":"Point"},"properties":{"amenity":"waste_basket","osm_id":"7429089230","tag":{"collection_times":"Su","ref:UK:leedscc:bin":"2082"}},"type":"Feature"},
	{"geometry":{"coordinates":[-1.546794,53.825569],"type":"Point"},"properties":{"amenity":"waste_basket","osm_id":"7429089232","tag":{"collection_times":"Mo-Fr","ref:UK:leedscc:bin":"2844"}},"type":"Feature"},
	{"geometry":{"coordinates":[-1.579192,53.80553],"type":"Point"},"properties":{"amenity":"waste_basket","osm_id":"7429089239","tag":{"collection_times":"We; Su","condition":"GOOD","ref:UK:leedscc:bin":"5843","waste_basket:model":"METAL SQUARE"}},"type":"Feature"},
	{"geometry":{"coordinates":[-1.546749,53.825447],"type":"Point"},"properties":{"amenity":"waste_basket","osm_id":"7429089240","tag":{"collection_times":"Mo-Fr","ref:UK:leedscc:bin":"2846"}},"type":"Feature"},
	{"geometry":{"coordinates":[-1.546614,53.825201],"type":"Point"},"properties":{"amenity":"waste_basket","osm_id":"7429089245","tag":{"collection_times":"Mo-Fr","ref:UK:leedscc:bin":"2848"}},"type":"Feature"},
	{"geometry":{"coordinates":[-1.546727,53.825324],"type":"Point"},"properties":{"amenity":"waste_basket","osm_id":"7429089246","tag":{"collection_times":"Mo-Fr","ref:UK:leedscc:bin":"2847"}},"type":"Feature"},
	{"geometry":{"coordinates":[-1.524498,53.815524],"type":"Point"},"properties":{"amenity":"waste_basket","osm_id":"7429089247","tag":{"collection_times":"Mo; Th","ref:UK:leedscc:bin":"2942"}},"type":"Feature"},
	{"geometry":{"coordinates":[-1.577389,53.821507],"type":"Point"},"properties":{"amenity":"waste_basket","osm_id":"7429089249","tag":{"collection_times":"Tu","ref:UK:leedscc:bin":"3678"}},"type":"Feature"},
	{"geometry":{"coordinates":[-1.521251,53.820653],"type":"Point"},"properties":{"amenity":"waste_basket","osm_id":"7429089256","tag":{"collection_times":"Mo; Th","ref:UK:leedscc:bin":"1281"}},"type":"Feature"},
	{"geometry":{"coordinates":[-1.548769,53.814398],"type":"Point"},"properties":{"amenity":"waste_basket","osm_id":"7429089260","tag":{"collection_times":"Su","condition":"GOOD","ref:UK:leedscc:bin":"7199","waste_basket:model":"METAL SQUARE"}},"type":"Feature"},
	{"geometry":{"coordinates":[-1.526106,53.803878],"type":"Point"},"properties":{"amenity":"waste_basket","osm_id":"7429089263","tag":{"ref:UK:leedscc:bin":"1861"}},"type":"Feature"},
	{"geometry":{"coordinates":[-1.512968,53.844828],"type":"Point"},"properties":{"amenity":"waste_basket","osm_id":"7429089265","tag":{"collection_times":"We; Su","ref:UK:leedscc:bin":"3120"}},"type":"Feature"},
	{"geometry":{"coordinates":[-1.546697,53.825086],"type":"Point"},"properties":{"amenity":"waste_basket","osm_id":"7429089268","tag":{"collection_times":"Mo-Fr","ref:UK:leedscc:bin":"2833"}},"type":"Feature"},
	{"geometry":{"coordinates":[-1.52436,53.838614],"type":"Point"},"properties":{"amenity":"waste_basket","osm_id":"7429089269","tag":{"collection_times":"Mo-Fr","ref:UK:leedscc:bin":"1835"}},"type":"Feature"},
	{"geometry":{"coordinates":[-1.499507,53.847552],"type":"Point"},"properties":{"amenity":"waste_basket","osm_id":"7429089273","tag":{"collection_times":"We; Su","ref:UK:leedscc:bin":"2510"}},"type":"Feature"},
	{"geometry":{"coordinates":[-1.581379,53.825803],"type":"Point"},"properties":{"amenity":"waste_basket","osm_id":"7429089275","tag":{"collection_times":"Mo-Fr","ref:UK:leedscc:bin":"2411"}},"type":"Feature"},
	{"geometry":{"coordinates":[-1.555319,53.840004],"type":"Point"},"properties":{"amenity":"waste_basket","osm_id":"7429089277","tag":{"collection_times":"Mo; Fr","ref:UK:leedscc:bin":"1581"}},"type":"Feature"},
	{"geometry":{"coordinates":[-1.526528,53.829199],"type":"Point"},"properties":{"amenity":"waste_basket","osm_id":"7429089281","tag":{"collection_times":"We; Sa","ref:UK:leedscc:bin":"1112"}},"type":"Feature"},
	{"geometry":{"coordinates":[-1.51299,53.844964],"type":"Point"},"properties":{"amenity":"waste_basket","osm_id":"7429089285","tag":{"collection_times":"We; Su","ref:UK:leedscc:bin":"3121"}},"type":"Feature"},
	{"geometry":{"coordinates":[-1.524164,53.838589],"type":"Point"},"properties":{"amenity":"waste_basket","osm_id":"7429089286","tag":{"collection_times":"Mo-Fr","ref:UK:leedscc:bin":"1834"}},"type":"Feature"},
	{"geometry":{"coordinates":[-1.578961,53.805127],"type":"Point"},"properties":{"amenity":"waste_basket","osm_id":"7429089287","tag":{"collection_times":"We; Su","condition":"GOOD","ref:UK:leedscc:bin":"5841","waste_basket:model":"METAL SQUARE"}},"type":"Feature"},
	{"geometry":{"coordinates":[-1.521329,53.842072],"type":"Point"},"properties":{"amenity":"waste_basket","osm_id":"7429089288","tag":{"collection_times":"Tu; Th","ref:UK:leedscc:bin":"3172"}},"type":"Feature"},
	{"geometry":{"coordinates":[-1.52683,53.804305],"type":"Point"},"properties":{"amenity":"waste_basket","osm_id":"7429089289","tag":{"ref:UK:leedscc:bin":"1855"}},"type":"Feature"},
	{"geometry":{"coordinates":[-1.577134,53.819194],"type":"Point"},"properties":{"amenity":"waste_basket","osm_id":"7429089290","tag":{"collection_times":"We","ref:UK:leedscc:bin":"2971"}},"type":"Feature"},
	{"geometry":{"coordinates":[-1.546499,53.82462],"type":"Point"},"properties":{"amenity":"waste_basket","osm_id":"7429089291","tag":{"collection_times":"We; Sa","ref:UK:leedscc:bin":"2835"}},"type":"Feature"},
	{"geometry":{"coordinates":[-1.526831,53.830277],"type":"Point"},"properties":{"amenity":"waste_basket","osm_id":"7429089296","tag":{"collection_times":"We; Sa","ref:UK:leedscc:bin":"1131"}},"type":"Feature"},
	{"geometry":{"coordinates":[-1.552117,53.849277],"type":"Point"},"properties":{"amenity":"waste_basket","osm_id":"7429089297","tag":{"ref:UK:leedscc:bin":"1612"}},"type":"Feature"},
	{"geometry":{"coordinates":[-1.579273,53.80519],"type":"Point"},"properties":{"amenity":"waste_basket","osm_id":"7429089298","tag":{"collection_times":"We; Su","condition":"GOOD","ref:UK:leedscc:bin":"5842","waste_basket:model":"METAL SQUARE"}},"type":"Feature"},
	{"geometry":{"coordinates":[-1.524188,53.838416],"type":"Point"},"properties":{"amenity":"waste_basket","osm_id":"7429089302","tag":{"collection_times":"Mo-Fr","ref:UK:leedscc:bin":"330"}},"type":"Feature"},
	{"geometry":{"coordinates":[-1.545408,53.823685],"type":"Point"},"properties":{"amenity":"waste_basket","osm_id":"7429089303","tag":{"collection_times":"Mo; Th","ref:UK:leedscc:bin":"2834"}},"type":"Feature"},
	{"geometry":{"coordinates":[-1.581667,53.825694],"type":"Point"},"properties":{"amenity":"waste_basket","osm_id":"7429089304","tag":{"collection_times":"Mo-Fr","ref:UK:leedscc:bin":"2473"}},"type":"Feature"},
	{"geometry":{"coordinates":[-1.523535,53.838821],"type":"Point"},"properties":{"amenity":"waste_basket","osm_id":"7429089308","tag":{"collection_times":"We; Su","ref:UK:leedscc:bin":"1836"}},"type":"Feature"},
	{"geometry":{"coordinates":[-1.540825,53.851624],"type":"Point"},"properties":{"amenity":"waste_basket","osm_id":"7429089312","tag":{"ref:UK:leedscc:bin":"2347"}},"type":"Feature"},
	{"geometry":{"coordinates":[-1.542613,53.811618],"type":"Point"},"properties":{"amenity":"waste_basket","osm_id":"7429089315","tag":{"collection_times":"Su","ref:UK:leedscc:bin":"2083"}},"type":"Feature"},
	{"geometry":{"coordinates":[-1.542716,53.811758],"type":"Point"},"properties":{"amenity":"waste_basket","osm_id":"7429089317","tag":{"collection_times":"Su","ref:UK:leedscc:bin":"2071"}},"type":"Feature"},
	{"geometry":{"coordinates":[-1.578083,53.821407],"type":"Point"},"properties":{"amenity":"waste_basket","osm_id":"7429089318","tag":{"collection_times":"Tu","condition":"POOR","ref:UK:leedscc:bin":"2324","waste_basket:model":"POST BIN"}},"type":"Feature"},
	{"geometry":{"coordinates":[-1.530055,53.833496],"type":"Point"},"properties":{"amenity":"waste_basket","osm_id":"7429089320","tag":{"collection_times":"We; Su","ref:UK:leedscc:bin":"1870"}},"type":"Feature"},
	{"geometry":{"coordinates":[-1.54726,53.824982],"type":"Point"},"properties":{"amenity":"waste_basket","osm_id":"7429089321","tag":{"collection_times":"We; Sa","ref:UK:leedscc:bin":"2573"}},"type":"Feature"},
	{"geometry":{"coordinates":[-1.525017,53.803868],"type":"Point"},"properties":{"amenity":"waste_basket","osm_id":"7429089323","tag":{"ref:UK:leedscc:bin":"831"}},"type":"Feature"},
	{"geometry":{"coordinates":[-1.520846,53.842094],"type":"Point"},"properties":{"amenity":"waste_basket","osm_id":"7429089328","tag":{"collection_times":"Tu; Th","ref:UK:leedscc:bin":"3169"}},"type":"Feature"},
	{"geometry":{"coordinates":[-1.552426,53.849474],"type":"Point"},"properties":{"amenity":"waste_basket","osm_id":"7429089335","tag":{"ref:UK:leedscc:bin":"1611"}},"type":"Feature"},
	{"geometry":{"coordinates":[-1.578325,53.820989],"type":"Point"},"properties":{"amenity":"waste_basket","osm_id":"7429089341","tag":{"collection_times":"Sa","ref:UK:leedscc:bin":"2323"}},"type":"Feature"},
	{"geometry":{"coordinates":[-1.544373,53.852061],"type":"Point"},"properties":{"amenity":"waste_basket","osm_id":"7429089347","tag":{"ref:UK:leedscc:bin":"2346"}},"type":"Feature"},
	{"geometry":{"coordinates":[-1.520153,53.820064],"type":"Point"},"properties":{"amenity":"waste_basket","osm_id":"7429089349","tag":{"collection_times":"Mo; Th","ref:UK:leedscc:bin":"1280"}},"type":"Feature"},
	{"geometry":{"coordinates":[-1.544228,53.822603],"type":"Point"},"properties":{"amenity":"waste_basket","osm_id":"7429089350","tag":{"collection_times":"Mo; Th","ref:UK:leedscc:bin":"2836"}},"type":"Feature"},
	{"geometry":{"coordinates":[-1.520427,53.834448],"type":"Point"},"properties":{"amenity":"waste_basket","osm_id":"7429089353","tag":{"collection_times":"We; Su","ref:UK:leedscc:bin":"601"}},"type":"Feature"},
	{"geometry":{"coordinates":[-1.578614,53.821225],"type":"Point"},"properties":{"amenity":"waste_basket","osm_id":"7429089360","tag":{"collection_times":"Sa","ref:UK:leedscc:bin":"2318"}},"type":"Feature"},
	{"geometry":{"coordinates":[-1.524492,53.814532],"type":"Point"},"properties":{"amenity":"waste_basket","osm_id":"7429089361","tag":{"collection_times":"Mo; Th","ref:UK:leedscc:bin":"2941"}},"type":"Feature"},
	{"geometry":{"coordinates":[-1.520507,53.817969],"type":"Point"},"properties":{"amenity":"waste_basket","osm_id":"7429089362","tag":{"ref:UK:leedscc:bin":"1245"}},"type":"Feature"},
	{"geometry":{"coordinates":[-1.520696,53.835088],"type":"Point"},"properties":{"amenity":"waste_basket","osm_id":"7429089369","tag":{"collection_times":"We; Su","ref:UK:leedscc:bin":"1844"}},"type":"Feature"},
	{"geometry":{"coordinates":[-1.578762,53.822178],"type":"Point"},"properties":{"amenity":"waste_basket","osm_id":"7429089375","tag":{"collection_times":"Tu","condition":"FAIR","ref:UK:leedscc:bin":"2419","waste_basket:model":"TWIN METAL"}},"type":"Feature"},
	{"geometry":{"coordinates":[-1.525137,53.804456],"type":"Point"},"properties":{"amenity":"waste_basket","osm_id":"7429089381","tag":{"ref:UK:leedscc:bin":"1863"}},"type":"Feature"},
	{"geometry":{"coordinates":[-1.520786,53.835252],"type":"Point"},"properties":{"amenity":"waste_basket","osm_id":"7429089382","tag":{"collection_times":"We; Su","ref:UK:leedscc:bin":"1843"}},"type":"Feature"},
	{"geometry":{"coordinates":[-1.520737,53.845329],"type":"Point"},"properties":{"amenity":"waste_basket","osm_id":"7429089383","tag":{"collection_times":"Tu; Th","ref:UK:leedscc:bin":"629"}},"type":"Feature"},
	{"geometry":{"coordinates":[-1.552988,53.849637],"type":"Point"},"properties":{"amenity":"waste_basket","osm_id":"7429089384","tag":{"ref:UK:leedscc:bin":"1610"}},"type":"Feature"},
	{"geometry":{"coordinates":[-1.520642,53.845187],"type":"Point"},"properties":{"amenity":"waste_basket","osm_id":"7429089386","tag":{"collection_times":"Tu; Th","ref:UK:leedscc:bin":"630"}},"type":"Feature"},
	{"geometry":{"coordinates":[-1.520758,53.845599],"type":"Point"},"properties":{"amenity":"waste_basket","osm_id":"7429089392","tag":{"collection_times":"Tu; Th","ref:UK:leedscc:bin":"628"}},"type":"Feature"},
	{"geometry":{"coordinates":[-1.520264,53.84473],"type":"Point"},"properties":{"amenity":"waste_basket","osm_id":"7429089394","tag":{"collection_times":"We; Su","ref:UK:leedscc:bin":"3125"}},"type":"Feature"},
	{"geometry":{"coordinates":[-1.57905,53.820934],"type":"Point"},"properties":{"amenity":"waste_basket","osm_id":"7429089397","tag":{"collection_times":"Sa","condition":"GOOD","ref:UK:leedscc:bin":"2319","waste_basket:model":"METAL SQUARE"}},"type":"Feature"},
	{"geometry":{"coordinates":[-1.580565,53.824615],"type":"Point"},"properties":{"amenity":"waste_basket","osm_id":"7429089400","tag":{"collection_times":"Mo-Fr","ref:UK:leedscc:bin":"2474"}},"type":"Feature"},
	{"geometry":{"coordinates":[-1.578889,53.82273],"type":"Point"},"properties":{"amenity":"waste_basket","osm_id":"7429089401","tag":{"collection_times":"Tu","condition":"FAIR","ref:UK:leedscc:bin":"2477","waste_basket:model":"RED BASKET"}},"type":"Feature"},
	{"geometry":{"coordinates":[-1.520958,53.83426],"type":"Point"},"properties":{"amenity":"waste_basket","osm_id":"7429089405","tag":{"collection_times":"We; Su","ref:UK:leedscc:bin":"602"}},"type":"Feature"},
	{"geometry":{"coordinates":[-1.524972,53.82757],"type":"Point"},"properties":{"amenity":"waste_basket","osm_id":"7429089409","tag":{"collection_times":"We; Sa","ref:UK:leedscc:bin":"1132"}},"type":"Feature"},
	{"geometry":{"coordinates":[-1.520985,53.835974],"type":"Point"},"properties":{"amenity":"waste_basket","osm_id":"7429089411","tag":{"collection_times":"We; Su","ref:UK:leedscc:bin":"1842"}},"type":"Feature"},
	{"geometry":{"coordinates":[-1.521003,53.834341],"type":"Point"},"properties":{"amenity":"waste_basket","osm_id":"7429089412","tag":{"collection_times":"We; Su","ref:UK:leedscc:bin":"603"}},"type":"Feature"},
	{"geometry":{"coordinates":[-1.524999,53.837024],"type":"Point"},"properties":{"amenity":"waste_basket","osm_id":"7429089415","tag":{"collection_times":"We; Su","ref:UK:leedscc:bin":"328"}},"type":"Feature"},
	{"geometry":{"coordinates":[-1.524362,53.804356],"type":"Point"},"properties":{"amenity":"waste_basket","osm_id":"7429089419","tag":{"ref:UK:leedscc:bin":"1862"}},"type":"Feature"},
	{"geometry":{"coordinates":[-1.520586,53.832924],"type":"Point"},"properties":{"amenity":"waste_basket","osm_id":"7429089425","tag":{"collection_times":"We; Su","ref:UK:leedscc:bin":"1820"}},"type":"Feature"},
	{"geometry":{"coordinates":[-1.521052,53.836151],"type":"Point"},"properties":{"amenity":"waste_basket","osm_id":"7429089426","tag":{"collection_times":"We; Su","ref:UK:leedscc:bin":"1841"}},"type":"Feature"},
	{"geometry":{"coordinates":[-1.520583,53.832884],"type":"Point"},"properties":{"amenity":"waste_basket","osm_id":"7429089427","tag":{"collection_times":"We; Su","ref:UK:leedscc:bin":"1846"}},"type":"Feature"},
	{"geometry":{"coordinates":[-1.524815,53.837024],"type":"Point"},"properties":{"amenity":"waste_basket","osm_id":"7429089429","tag":{"collection_times":"We; Su","ref:UK:leedscc:bin":"329"}},"type":"Feature"},
	{"geometry":{"coordinates":[-1.522428,53.815062],"type":"Point"},"properties":{"amenity":"waste_basket","osm_id":"7429089440","tag":{"collection_times":"Mo; Th","ref:UK:leedscc:bin":"2053"}},"type":"Feature"},
	{"geometry":{"coordinates":[-1.550014,53.851601],"type":"Point"},"properties":{"amenity":"waste_basket","osm_id":"7429089442","tag":{"ref:UK:leedscc:bin":"2348"}},"type":"Feature"},
	{"geometry":{"coordinates":[-1.524929,53.813754],"type":"Point"},"properties":{"amenity":"waste_basket","osm_id":"7429089444","tag":{"collection_times":"Mo; Th","ref:UK:leedscc:bin":"2940"}},"type":"Feature"},
	{"geometry":{"coordinates":[-1.580763,53.802119],"type":"Point"},"properties":{"amenity":"waste_basket","osm_id":"7429089455","tag":{"collection_times":"Mo; Th","condition":"GOOD","ref:UK:leedscc:bin":"530","waste_basket:model":"METAL SQUARE"}},"type":"Feature"},
	{"geometry":{"coordinates":[-1.581424,53.819409],"type":"Point"},"properties":{"amenity":"waste_basket","osm_id":"7429089457","tag":{"collection_times":"Sa","condition":"POOR","ref:UK:leedscc:bin":"2328","waste_basket:model":"METAL TWIN"}},"type":"Feature"},
	{"geometry":{"coordinates":[-1.526205,53.832021],"type":"Point"},"properties":{"amenity":"waste_basket","osm_id":"7429089459","tag":{"collection_times":"We; Su","ref:UK:leedscc:bin":"1871"}},"type":"Feature"},
	{"geometry":{"coordinates":[-1.526277,53.849707],"type":"Point"},"properties":{"amenity":"waste_basket","osm_id":"7429089461","tag":{"ref:UK:leedscc:bin":"2877"}},"type":"Feature"},
	{"geometry":{"coordinates":[-1.533096,53.850614],"type":"Point"},"properties":{"amenity":"waste_basket","osm_id":"7429089470","tag":{"ref:UK:leedscc:bin":"1327"}},"type":"Feature"},
	{"geometry":{"coordinates":[-1.519044,53.826921],"type":"Point"},"properties":{"amenity":"waste_basket","osm_id":"7429089471","tag":{"collection_times":"Mo; Th","ref:UK:leedscc:bin":"1047"}},"type":"Feature"},
	{"geometry":{"coordinates":[-1.519281,53.842077],"type":"Point"},"properties":{"amenity":"waste_basket","osm_id":"7429089474","tag":{"collection_times":"We; Su","ref:UK:leedscc:bin":"3171"}},"type":"Feature"},
	{"geometry":{"coordinates":[-1.525868,53.831966],"type":"Point"},"properties":{"amenity":"waste_basket","osm_id":"7429089476","tag":{"collection_times":"We; Su","ref:UK:leedscc:bin":"1872"}},"type":"Feature"},
	{"geometry":{"coordinates":[-1.579825,53.820769],"type":"Point"},"properties":{"amenity":"waste_basket","osm_id":"7429089481","tag":{"collection_times":"Sa","condition":"GOOD","ref:UK:leedscc:bin":"2317","waste_basket:model":"METAL SQUARE"}},"type":"Feature"},
	{"geometry":{"coordinates":[-1.521553,53.836589],"type":"Point"},"properties":{"amenity":"waste_basket","osm_id":"7429089483","tag":{"collection_times":"We; Su","ref:UK:leedscc:bin":"1840"}},"type":"Feature"},
	{"geometry":{"coordinates":[-1.525996,53.832225],"type":"Point"},"properties":{"amenity":"waste_basket","osm_id":"7429089488","tag":{"collection_times":"We; Su","ref:UK:leedscc:bin":"318"}},"type":"Feature"},
	{"geometry":{"coordinates":[-1.579501,53.823348],"type":"Point"},"properties":{"amenity":"waste_basket","osm_id":"7429089491","tag":{"collection_times":"Tu","condition":"POOR","ref:UK:leedscc:bin":"2482","waste_basket:model":"POST BIN"}},"type":"Feature"},
	{"geometry":{"coordinates":[-1.527164,53.81276],"type":"Point"},"properties":{"amenity":"waste_basket","osm_id":"7429089492","tag":{"collection_times":"Mo; Th","ref:UK:leedscc:bin":"1905"}},"type":"Feature"},
	{"geometry":{"coordinates":[-1.521453,53.815261],"type":"Point"},"properties":{"amenity":"waste_basket","osm_id":"7429089493","tag":{"collection_times":"Mo; Th","ref:UK:leedscc:bin":"2887"}},"type":"Feature"},
	{"geometry":{"coordinates":[-1.524376,53.826636],"type":"Point"},"properties":{"amenity":"waste_basket","osm_id":"7429089495","tag":{"collection_times":"We; Sa","ref:UK:leedscc:bin":"1127"}},"type":"Feature"},
	{"geometry":{"coordinates":[-1.58167,53.81961],"type":"Point"},"properties":{"amenity":"waste_basket","osm_id":"7429089496","tag":{"collection_times":"Sa","condition":"GOOD","ref:UK:leedscc:bin":"2330","waste_basket:model":"METAL SQUARE"}},"type":"Feature"},
	{"geometry":{"coordinates":[-1.526427,53.832716],"type":"Point"},"properties":{"amenity":"waste_basket","osm_id":"7429089497","tag":{"collection_times":"We; Su","ref:UK:leedscc:bin":"317"}},"type":"Feature"},
	{"geometry":{"coordinates":[-1.521007,53.832001],"type":"Point"},"properties":{"amenity":"waste_basket","osm_id":"7429089499","tag":{"collection_times":"We; Su","ref:UK:leedscc:bin":"326"}},"type":"Feature"},
	{"geometry":{"coordinates":[-1.509811,53.822334],"type":"Point"},"properties":{"amenity":"waste_basket","osm_id":"7429089506","tag":{"collection_times":"Mo; Th","ref:UK:leedscc:bin":"2755"}},"type":"Feature"},
	{"geometry":{"coordinates":[-1.580064,53.823793],"type":"Point"},"properties":{"amenity":"waste_basket","osm_id":"7429089508","tag":{"collection_times":"Mo-Fr","ref:UK:leedscc:bin":"2410"}},"type":"Feature"},
	{"geometry":{"coordinates":[-1.521711,53.836862],"type":"Point"},"properties":{"amenity":"waste_basket","osm_id":"7429089509","tag":{"collection_times":"We; Su","ref:UK:leedscc:bin":"1839"}},"type":"Feature"},
	{"geometry":{"coordinates":[-1.579611,53.823551],"type":"Point"},"properties":{"amenity":"waste_basket","osm_id":"7429089510","tag":{"collection_times":"Tu","condition":"FAIR","ref:UK:leedscc:bin":"2422","waste_basket:model":"PLASTIC OPEN TOP"}},"type":"Feature"},
	{"geometry":{"coordinates":[-1.580991,53.819891],"type":"Point"},"properties":{"amenity":"waste_basket","osm_id":"7429089513","tag":{"collection_times":"Sa","condition":"GOOD","ref:UK:leedscc:bin":"2327","waste_basket:model":"METAL SQUARE"}},"type":"Feature"},
	{"geometry":{"coordinates":[-1.525401,53.831923],"type":"Point"},"properties":{"amenity":"waste_basket","osm_id":"7429089515","tag":{"collection_times":"We; Su","ref:UK:leedscc:bin":"319"}},"type":"Feature"},
	{"geometry":{"coordinates":[-1.5295,53.834903],"type":"Point"},"properties":{"amenity":"waste_basket","osm_id":"7429089523","tag":{"collection_times":"We; Su","ref:UK:leedscc:bin":"1869"}},"type":"Feature"},
	{"geometry":{"coordinates":[-1.527573,53.833932],"type":"Point"},"properties":{"amenity":"waste_basket","osm_id":"7429089528","tag":{"collection_times":"We; Su","ref:UK:leedscc:bin":"327"}},"type":"Feature"},
	{"geometry":{"coordinates":[-1.520351,53.802645],"type":"Point"},"properties":{"amenity":"waste_basket","osm_id":"7429089529","tag":{"ref:UK:leedscc:bin":"3089"}},"type":"Feature"},
	{"geometry":{"coordinates":[-1.517135,53.844695],"type":"Point"},"properties":{"amenity":"waste_basket","osm_id":"7429089531","tag":{"collection_times":"We; Su","ref:UK:leedscc:bin":"3122"}},"type":"Feature"},
	{"geometry":{"coordinates":[-1.580049,53.82328],"type":"Point"},"properties":{"amenity":"waste_basket","osm_id":"7429089533","tag":{"collection_times":"Tu","condition":"FAIR","ref:UK:leedscc:bin":"2421","waste_basket:model":"METAL TWIN"}},"type":"Feature"},
	{"geometry":{"coordinates":[-1.55687,53.843518],"type":"Point"},"properties":{"amenity":"waste_basket","osm_id":"7429089535","tag":{"ref:UK:leedscc:bin":"2815"}},"type":"Feature"},
	{"geometry":{"coordinates":[-1.580411,53.82365],"type":"Point"},"properties":{"amenity":"waste_basket","osm_id":"7429089538","tag":{"collection_times":"Mo-Fr","ref:UK:leedscc:bin":"2475"}},"type":"Feature"},
	{"geometry":{"coordinates":[-1.521581,53.832085],"type":"Point"},"properties":{"amenity":"waste_basket","osm_id":"7429089547","tag":{"collection_times":"We; Su","ref:UK:leedscc:bin":"325"}},"type":"Feature"},
	{"geometry":{"coordinates":[-1.580497,53.820247],"type":"Point"},"properties":{"amenity":"waste_basket","osm_id":"7429089550","tag":{"collection_times":"Sa","condition":"POOR","ref:UK:leedscc:bin":"2326","waste_basket:model":"METAL TWIN"}},"type":"Feature"},
	{"geometry":{"coordinates":[-1.581726,53.801581],"type":"Point"},"properties":{"amenity":"waste_basket","osm_id":"7429089558","tag":{"collection_times":"Mo; Th","condition":"GOOD","ref:UK:leedscc:bin":"4662","waste_basket:model":"METAL SQUARE"}},"type":"Feature"},
	{"geometry":{"coordinates":[-1.524956,53.812843],"type":"Point"},"properties":{"amenity":"waste_basket","osm_id":"7429089562","tag":{"collection_times":"Mo; Th","ref:UK:leedscc:bin":"2939"}},"type":"Feature"},
	{"geometry":{"coordinates":[-1.522128,53.804447],"type":"Point"},"properties":{"amenity":"waste_basket","osm_id":"7429089566","tag":{"ref:UK:leedscc:bin":"496"}},"type":"Feature"},
	{"geometry":{"coordinates":[-1.580787,53.820778],"type":"Point"},"properties":{"amenity":"waste_basket","osm_id":"7429089567","tag":{"collection_times":"Sa","condition":"GOOD","ref:UK:leedscc:bin":"7212","waste_basket:model":"GREEN WIRE BASKET"}},"type":"Feature"},
	{"geometry":{"coordinates":[-1.51771,53.84467],"type":"Point"},"properties":{"amenity":"waste_basket","osm_id":"7429089569","tag":{"collection_times":"We; Su","ref:UK:leedscc:bin":"3123"}},"type":"Feature"},
	{"geometry":{"coordinates":[-1.55721,53.847171],"type":"Point"},"properties":{"amenity":"waste_basket","osm_id":"7429089570","tag":{"ref:UK:leedscc:bin":"822"}},"type":"Feature"},
	{"geometry":{"coordinates":[-1.518287,53.817767],"type":"Point"},"properties":{"amenity":"waste_basket","osm_id":"7429089571","tag":{"collection_times":"Mo; Th","ref:UK:leedscc:bin":"1247"}},"type":"Feature"},
	{"geometry":{"coordinates":[-1.580995,53.820363],"type":"Point"},"properties":{"amenity":"waste_basket","osm_id":"7429089576","tag":{"collection_times":"Sa","condition":"POOR","ref:UK:leedscc:bin":"2315","waste_basket:model":"METAL TWIN"}},"type":"Feature"},
	{"geometry":{"coordinates":[-1.555258,53.849862],"type":"Point"},"properties":{"amenity":"waste_basket","osm_id":"7429089577","tag":{"ref:UK:leedscc:bin":"821"}},"type":"Feature"},
	{"geometry":{"coordinates":[-1.520259,53.824877],"type":"Point"},"properties":{"amenity":"waste_basket","osm_id":"7429089584","tag":{"collection_times":"We; Sa","ref:UK:leedscc:bin":"1134"}},"type":"Feature"},
	{"geometry":{"coordinates":[-1.51794,53.844671],"type":"Point"},"properties":{"amenity":"waste_basket","osm_id":"7429089587","tag":{"collection_times":"We; Su","ref:UK:leedscc:bin":"3124"}},"type":"Feature"},
	{"geometry":{"coordinates":[-1.5813,53.820439],"type":"Point"},"properties":{"amenity":"waste_basket","osm_id":"7429089591","tag":{"collection_times":"Sa","condition":"GOOD","ref:UK:leedscc:bin":"7214","waste_basket:model":"GREEN WIRE BASKET"}},"type":"Feature"},
	{"geometry":{"coordinates":[-1.555687,53.849704],"type":"Point"},"properties":{"amenity":"waste_basket","osm_id":"7429089592","tag":{"ref:UK:leedscc:bin":"820"}},"type":"Feature"},
	{"geometry":{"coordinates":[-1.524048,53.831577],"type":"Point"},"properties":{"amenity":"waste_basket","osm_id":"7429089596","tag":{"collection_times":"We; Su","ref:UK:leedscc:bin":"320"}},"type":"Feature"},
	{"geometry":{"coordinates":[-1.522224,53.832155],"type":"Point"},"properties":{"amenity":"waste_basket","osm_id":"7429089599","tag":{"collection_times":"We; Su","ref:UK:leedscc:bin":"324"}},"type":"Feature"},
	{"geometry":{"coordinates":[-1.55752,53.847253],"type":"Point"},"properties":{"amenity":"waste_basket","osm_id":"7429089601","tag":{"ref:UK:leedscc:bin":"824"}},"type":"Feature"},
	{"geometry":{"coordinates":[-1.519943,53.80322],"type":"Point"},"properties":{"amenity":"waste_basket","osm_id":"7429089604","tag":{"ref:UK:leedscc:bin":"3088"}},"type":"Feature"},
	{"geometry":{"coordinates":[-1.520434,53.82525],"type":"Point"},"properties":{"amenity":"waste_basket","osm_id":"7429089607","tag":{"collection_times":"We; Sa","ref:UK:leedscc:bin":"1130"}},"type":"Feature"},
	{"geometry":{"coordinates":[-1.522318,53.831952],"type":"Point"},"properties":{"amenity":"waste_basket","osm_id":"7429089609","tag":{"collection_times":"We; Su","ref:UK:leedscc:bin":"322"}},"type":"Feature"},
	{"geometry":{"coordinates":[-1.581364,53.820675],"type":"Point"},"properties":{"amenity":"waste_basket","osm_id":"7429089621","tag":{"collection_times":"Sa","condition":"GOOD","ref:UK:leedscc:bin":"7213","waste_basket:model":"GREEN WIRE BASKET"}},"type":"Feature"},
	{"geometry":{"coordinates":[-1.554527,53.851009],"type":"Point"},"properties":{"amenity":"waste_basket","osm_id":"7429089636","tag":{"ref:UK:leedscc:bin":"1609"}},"type":"Feature"},
	{"geometry":{"coordinates":[-1.522617,53.832021],"type":"Point"},"properties":{"amenity":"waste_basket","osm_id":"7429089639","tag":{"collection_times":"We; Su","ref:UK:leedscc:bin":"323"}},"type":"Feature"},
	{"geometry":{"coordinates":[-1.557769,53.847564],"type":"Point"},"properties":{"amenity":"waste_basket","osm_id":"7429089640","tag":{"ref:UK:leedscc:bin":"823"}},"type":"Feature"},
	{"geometry":{"coordinates":[-1.520549,53.825746],"type":"Point"},"properties":{"amenity":"waste_basket","osm_id":"7429089650","tag":{"collection_times":"We; Sa","ref:UK:leedscc:bin":"1845"}},"type":"Feature"},
	{"geometry":{"coordinates":[-1.557925,53.847518],"type":"Point"},"properties":{"amenity":"waste_basket","osm_id":"7429089652","tag":{"ref:UK:leedscc:bin":"825"}},"type":"Feature"},
	{"geometry":{"coordinates":[-1.524299,53.850497],"type":"Point"},"properties":{"amenity":"waste_basket","osm_id":"7429089653","tag":{"ref:UK:leedscc:bin":"2882"}},"type":"Feature"},
	{"geometry":{"coordinates":[-1.517062,53.818534],"type":"Point"},"properties":{"amenity":"waste_basket","osm_id":"7429089660","tag":{"collection_times":"Mo; Th","ref:UK:leedscc:bin":"1248"}},"type":"Feature"},
	{"geometry":{"coordinates":[-1.525462,53.811954],"type":"Point"},"properties":{"amenity":"waste_basket","osm_id":"7429089667","tag":{"collection_times":"Mo; Th","ref:UK:leedscc:bin":"2938"}},"type":"Feature"},
	{"geometry":{"coordinates":[-1.519146,53.803223],"type":"Point"},"properties":{"amenity":"waste_basket","osm_id":"7429089671","tag":{"ref:UK:leedscc:bin":"1071"}},"type":"Feature"},
	{"geometry":{"coordinates":[-1.554224,53.851542],"type":"Point"},"properties":{"amenity":"waste_basket","osm_id":"7429089673","tag":{"ref:UK:leedscc:bin":"2345"}},"type":"Feature"},
	{"geometry":{"coordinates":[-1.523081,53.831628],"type":"Point"},"properties":{"amenity":"waste_basket","osm_id":"7429089675","tag":{"collection_times":"We; Su","ref:UK:leedscc:bin":"321"}},"type":"Feature"},
	{"geometry":{"coordinates":[-1.558117,53.847691],"type":"Point"},"properties":{"amenity":"waste_basket","osm_id":"7429089677","tag":{"ref:UK:leedscc:bin":"826"}},"type":"Feature"},
	{"geometry":{"coordinates":[-1.517537,53.823017],"type":"Point"},"properties":{"amenity":"waste_basket","osm_id":"7429089678","tag":{"collection_times":"Mo; Th","ref:UK:leedscc:bin":"1129"}},"type":"Feature"},
	{"geometry":{"coordinates":[-1.516886,53.818382],"type":"Point"},"properties":{"amenity":"waste_basket","osm_id":"7429089679","tag":{"collection_times":"Mo; Th","ref:UK:leedscc:bin":"1246"}},"type":"Feature"},
	{"geometry":{"coordinates":[-1.519412,53.814764],"type":"Point"},"properties":{"amenity":"waste_basket","osm_id":"7429089684","tag":{"collection_times":"Mo; Th","ref:UK:leedscc:bin":"2778"}},"type":"Feature"},
	{"geometry":{"coordinates":[-1.554835,53.851298],"type":"Point"},"properties":{"amenity":"waste_basket","osm_id":"7429089688","tag":{"ref:UK:leedscc:bin":"1608"}},"type":"Feature"},
	{"geometry":{"coordinates":[-1.518727,53.803091],"type":"Point"},"properties":{"amenity":"waste_basket","osm_id":"7429089691","tag":{"ref:UK:leedscc:bin":"1072"}},"type":"Feature"},
	{"geometry":{"coordinates":[-1.520162,53.814066],"type":"Point"},"properties":{"amenity":"waste_basket","osm_id":"7429089694","tag":{"collection_times":"Mo; Th","ref:UK:leedscc:bin":"2760"}},"type":"Feature"},
	{"geometry":{"coordinates":[-1.517463,53.816567],"type":"Point"},"properties":{"amenity":"waste_basket","osm_id":"7429089706","tag":{"collection_times":"Mo-Fr","ref:UK:leedscc:bin":"2779"}},"type":"Feature"},
	{"geometry":{"coordinates":[-1.581163,53.844996],"type":"Point"},"properties":{"amenity":"waste_basket","osm_id":"7429089731","tag":{"collection_times":"Mo; Fr","ref:UK:leedscc:bin":"1904"}},"type":"Feature"},
	{"geometry":{"coordinates":[-1.521359,53.805475],"type":"Point"},"properties":{"amenity":"waste_basket","osm_id":"7429089734","tag":{"collection_times":"Mo-Fr","ref:UK:leedscc:bin":"4334"}},"type":"Feature"},
	{"geometry":{"coordinates":[-1.516124,53.819079],"type":"Point"},"properties":{"amenity":"waste_basket","osm_id":"7429089737","tag":{"collection_times":"Mo; Th","ref:UK:leedscc:bin":"2780"}},"type":"Feature"},
	{"geometry":{"coordinates":[-1.532558,53.852358],"type":"Point"},"properties":{"amenity":"waste_basket","osm_id":"7429089738","tag":{"ref:UK:leedscc:bin":"1328"}},"type":"Feature"},
	{"geometry":{"coordinates":[-1.516315,53.821789],"type":"Point"},"properties":{"amenity":"waste_basket","osm_id":"7429089739","tag":{"collection_times":"Mo; Th","ref:UK:leedscc:bin":"1133"}},"type":"Feature"},
	{"geometry":{"coordinates":[-1.523839,53.811929],"type":"Point"},"properties":{"amenity":"waste_basket","osm_id":"7429089743","tag":{"collection_times":"Mo; Th","ref:UK:leedscc:bin":"2774"}},"type":"Feature"},
	{"geometry":{"coordinates":[-1.516006,53.819327],"type":"Point"},"properties":{"amenity":"waste_basket","osm_id":"7429089748","tag":{"collection_times":"Mo; Th","ref:UK:leedscc:bin":"1243"}},"type":"Feature"},
	{"geometry":{"coordinates":[-1.520569,53.813392],"type":"Point"},"properties":{"amenity":"waste_basket","osm_id":"7429089751","tag":{"collection_times":"Mo; Th","ref:UK:leedscc:bin":"2777"}},"type":"Feature"},
	{"geometry":{"coordinates":[-1.516508,53.817469],"type":"Point"},"properties":{"amenity":"waste_basket","osm_id":"7429089757","tag":{"collection_times":"Mo-Fr","ref:UK:leedscc:bin":"2757"}},"type":"Feature"},
	{"geometry":{"coordinates":[-1.521224,53.812942],"type":"Point"},"properties":{"amenity":"waste_basket","osm_id":"7429089761","tag":{"collection_times":"Mo; Th","ref:UK:leedscc:bin":"2776"}},"type":"Feature"},
	{"geometry":{"coordinates":[-1.525436,53.811275],"type":"Point"},"properties":{"amenity":"waste_basket","osm_id":"7429089767","tag":{"collection_times":"Mo; Th","ref:UK:leedscc:bin":"2937"}},"type":"Feature"},
	{"geometry":{"coordinates":[-1.515945,53.818043],"type":"Point"},"properties":{"amenity":"waste_basket","osm_id":"7429089777","tag":{"collection_times":"Mo-Fr","ref:UK:leedscc:bin":"2759"}},"type":"Feature"},
	{"geometry":{"coordinates":[-1.580307,53.84578],"type":"Point"},"properties":{"amenity":"waste_basket","osm_id":"7429089787","tag":{"collection_times":"Mo; Fr","ref:UK:leedscc:bin":"1903"}},"type":"Feature"},
	{"geometry":{"coordinates":[-1.512279,53.820854],"type":"Point"},"properties":{"amenity":"waste_basket","osm_id":"7429089788","tag":{"collection_times":"Mo; Th","ref:UK:leedscc:bin":"2754"}},"type":"Feature"},
	{"geometry":{"coordinates":[-1.51718,53.815623],"type":"Point"},"properties":{"amenity":"waste_basket","osm_id":"7429089793","tag":{"collection_times":"Mo-Fr","ref:UK:leedscc:bin":"1309"}},"type":"Feature"},
	{"geometry":{"coordinates":[-1.519658,53.805037],"type":"Point"},"properties":{"amenity":"waste_basket","osm_id":"7429089796","tag":{"ref:UK:leedscc:bin":"4502"}},"type":"Feature"},
	{"geometry":{"coordinates":[-1.522094,53.81204],"type":"Point"},"properties":{"amenity":"waste_basket","osm_id":"7429089803","tag":{"collection_times":"Mo; Th","ref:UK:leedscc:bin":"2775"}},"type":"Feature"},
	{"geometry":{"coordinates":[-1.515682,53.817662],"type":"Point"},"properties":{"amenity":"waste_basket","osm_id":"7429089805","tag":{"collection_times":"Mo-Fr","ref:UK:leedscc:bin":"2758"}},"type":"Feature"},
	{"geometry":{"coordinates":[-1.510722,53.849413],"type":"Point"},"properties":{"amenity":"waste_basket","osm_id":"7429089807","tag":{"collection_times":"We; Su","ref:UK:leedscc:bin":"2752"}},"type":"Feature"},
	{"geometry":{"coordinates":[-1.517162,53.815332],"type":"Point"},"properties":{"amenity":"waste_basket","osm_id":"7429089808","tag":{"collection_times":"Mo-Fr","ref:UK:leedscc:bin":"1308"}},"type":"Feature"},
	{"geometry":{"coordinates":[-1.518191,53.804206],"type":"Point"},"properties":{"amenity":"waste_basket","osm_id":"7429089818","tag":{"ref:UK:leedscc:bin":"3064"}},"type":"Feature"},
	{"geometry":{"coordinates":[-1.520331,53.805758],"type":"Point"},"properties":{"amenity":"waste_basket","osm_id":"7429089822","tag":{"collection_times":"Mo-Fr","ref:UK:leedscc:bin":"4333"}},"type":"Feature"},
	{"geometry":{"coordinates":[-1.515111,53.818741],"type":"Point"},"properties":{"amenity":"waste_basket","osm_id":"7429089825","tag":{"collection_times":"Mo; Th","ref:UK:leedscc:bin":"2781"}},"type":"Feature"},
	{"geometry":{"coordinates":[-1.517369,53.814719],"type":"Point"},"properties":{"amenity":"waste_basket","osm_id":"7429089834","tag":{"collection_times":"Mo-Fr","ref:UK:leedscc:bin":"1307"}},"type":"Feature"},
	{"geometry":{"coordinates":[-1.515041,53.817941],"type":"Point"},"properties":{"amenity":"waste_basket","osm_id":"7429089850","tag":{"collection_times":"Mo-Fr","ref:UK:leedscc:bin":"953"}},"type":"Feature"},
	{"geometry":{"coordinates":[-1.561005,53.846404],"type":"Point"},"properties":{"amenity":"waste_basket","osm_id":"7429089856","tag":{"ref:UK:leedscc:bin":"257"}},"type":"Feature"},
	{"geometry":{"coordinates":[-1.496271,53.821814],"type":"Point"},"properties":{"amenity":"waste_basket","osm_id":"7429089878","tag":{"collection_times":"Mo; Th","ref:UK:leedscc:bin":"2355"}},"type":"Feature"},
	{"geometry":{"coordinates":[-1.580069,53.846633],"type":"Point"},"properties":{"amenity":"waste_basket","osm_id":"7429089880","tag":{"collection_times":"Mo; Fr","ref:UK:leedscc:bin":"1900"}},"type":"Feature"},
	{"geometry":{"coordinates":[-1.58044,53.846578],"type":"Point"},"properties":{"amenity":"waste_basket","osm_id":"7429089885","tag":{"collection_times":"Mo; Fr","ref:UK:leedscc:bin":"1891"}},"type":"Feature"},
	{"geometry":{"coordinates":[-1.58039,53.846661],"type":"Point"},"properties":{"amenity":"waste_basket","osm_id":"7429089892","tag":{"collection_times":"Mo; Fr","ref:UK:leedscc:bin":"1902"}},"type":"Feature"},
	{"geometry":{"coordinates":[-1.518808,53.805633],"type":"Point"},"properties":{"amenity":"waste_basket","osm_id":"7429089899","tag":{"ref:UK:leedscc:bin":"4503"}},"type":"Feature"},
	{"geometry":{"coordinates":[-1.517212,53.813732],"type":"Point"},"properties":{"amenity":"waste_basket","osm_id":"7429089917","tag":{"collection_times":"Mo-Fr","ref:UK:leedscc:bin":"1306"}},"type":"Feature"},
	{"geometry":{"coordinates":[-1.513728,53.819916],"type":"Point"},"properties":{"amenity":"waste_basket","osm_id":"7429089922","tag":{"collection_times":"Mo; Th","ref:UK:leedscc:bin":"2753"}},"type":"Feature"},
	{"geometry":{"coordinates":[-1.519548,53.806386],"type":"Point"},"properties":{"amenity":"waste_basket","osm_id":"7429089926","tag":{"collection_times":"Mo-Fr","ref:UK:leedscc:bin":"4332"}},"type":"Feature"},
	{"geometry":{"coordinates":[-1.498203,53.820581],"type":"Point"},"properties":{"amenity":"waste_basket","osm_id":"7429089928","tag":{"collection_times":"Mo; Th","ref:UK:leedscc:bin":"958"}},"type":"Feature"},
	{"geometry":{"coordinates":[-1.500608,53.819882],"type":"Point"},"properties":{"amenity":"waste_basket","osm_id":"7429089933","tag":{"collection_times":"Mo; Th","ref:UK:leedscc:bin":"959"}},"type":"Feature"},
	{"geometry":{"coordinates":[-1.496007,53.821281],"type":"Point"},"properties":{"amenity":"waste_basket","osm_id":"7429089942","tag":{"collection_times":"Mo; Th","ref:UK:leedscc:bin":"957"}},"type":"Feature"},
	{"geometry":{"coordinates":[-1.513317,53.849965],"type":"Point"},"properties":{"amenity":"waste_basket","osm_id":"7429089948","tag":{"ref:UK:leedscc:bin":"253"}},"type":"Feature"},
	{"geometry":{"coordinates":[-1.580062,53.847352],"type":"Point"},"properties":{"amenity":"waste_basket","osm_id":"7429089960","tag":{"collection_times":"Mo; Fr","ref:UK:leedscc:bin":"1901"}},"type":"Feature"},
	{"geometry":{"coordinates":[-1.518824,53.806347],"type":"Point"},"properties":{"amenity":"waste_basket","osm_id":"7429089969","tag":{"ref:UK:leedscc:bin":"4504"}},"type":"Feature"},
	{"geometry":{"coordinates":[-1.497631,53.820418],"type":"Point"},"properties":{"amenity":"waste_basket","osm_id":"7429089972","tag":{"collection_times":"Mo-Fr","ref:UK:leedscc:bin":"963"}},"type":"Feature"},
	{"geometry":{"coordinates":[-1.502808,53.819197],"type":"Point"},"properties":{"amenity":"waste_basket","osm_id":"7429089976","tag":{"collection_times":"Mo; Th","ref:UK:leedscc:bin":"952"}},"type":"Feature"},
	{"geometry":{"coordinates":[-1.517389,53.812933],"type":"Point"},"properties":{"amenity":"waste_basket","osm_id":"7429089979","tag":{"collection_times":"Mo-Fr","ref:UK:leedscc:bin":"1305"}},"type":"Feature"},
	{"geometry":{"coordinates":[-1.513288,53.818063],"type":"Point"},"properties":{"amenity":"waste_basket","osm_id":"7429089986","tag":{"collection_times":"We; Sa","ref:UK:leedscc:bin":"4339"}},"type":"Feature"},
	{"geometry":{"coordinates":[-1.496081,53.820854],"type":"Point"},"properties":{"amenity":"waste_basket","osm_id":"7429089990","tag":{"collection_times":"Mo-Fr","ref:UK:leedscc:bin":"962"}},"type":"Feature"},
	{"geometry":{"coordinates":[-1.503308,53.819013],"type":"Point"},"properties":{"amenity":"waste_basket","osm_id":"7429089996","tag":{"collection_times":"Mo; Th","ref:UK:leedscc:bin":"951"}},"type":"Feature"},
	{"geometry":{"coordinates":[-1.503645,53.81892],"type":"Point"},"properties":{"amenity":"waste_basket","osm_id":"7429090006","tag":{"collection_times":"Mo; Th","ref:UK:leedscc:bin":"960"}},"type":"Feature"},
	{"geometry":{"coordinates":[-1.517225,53.812622],"type":"Point"},"properties":{"amenity":"waste_basket","osm_id":"7429090017","tag":{"collection_times":"Mo-Fr","ref:UK:leedscc:bin":"1304"}},"type":"Feature"},
	{"geometry":{"coordinates":[-1.513793,53.815653],"type":"Point"},"properties":{"amenity":"waste_basket","osm_id":"7429090036","tag":{"collection_times":"Mo-Fr","ref:UK:leedscc:bin":"1287"}},"type":"Feature"},
	{"geometry":{"coordinates":[-1.518918,53.807186],"type":"Point"},"properties":{"amenity":"waste_basket","osm_id":"7429090040","tag":{"collection_times":"Mo-Fr","ref:UK:leedscc:bin":"4335"}},"type":"Feature"},
	{"geometry":{"coordinates":[-1.517404,53.812164],"type":"Point"},"properties":{"amenity":"waste_basket","osm_id":"7429090045","tag":{"collection_times":"Mo-Fr","ref:UK:leedscc:bin":"1303"}},"type":"Feature"},
	{"geometry":{"coordinates":[-1.512621,53.817379],"type":"Point"},"properties":{"amenity":"waste_basket","osm_id":"7429090052","tag":{"collection_times":"We; Sa","ref:UK:leedscc:bin":"961"}},"type":"Feature"},
	{"geometry":{"coordinates":[-1.50389,53.818447],"type":"Point"},"properties":{"amenity":"waste_basket","osm_id":"7429090062","tag":{"collection_times":"We; Sa","ref:UK:leedscc:bin":"965"}},"type":"Feature"},
	{"geometry":{"coordinates":[-1.494618,53.820784],"type":"Point"},"properties":{"amenity":"waste_basket","osm_id":"7429090067","tag":{"collection_times":"Mo-Fr","ref:UK:leedscc:bin":"2366"}},"type":"Feature"},
	{"geometry":{"coordinates":[-1.513744,53.815023],"type":"Point"},"properties":{"amenity":"waste_basket","osm_id":"7429090078","tag":{"collection_times":"Mo-Fr","ref:UK:leedscc:bin":"1288"}},"type":"Feature"},
	{"geometry":{"coordinates":[-1.494146,53.820842],"type":"Point"},"properties":{"amenity":"waste_basket","osm_id":"7429090085","tag":{"ref:UK:leedscc:bin":"4593"}},"type":"Feature"},
	{"geometry":{"coordinates":[-1.580074,53.848368],"type":"Point"},"properties":{"amenity":"waste_basket","osm_id":"7429090086","tag":{"collection_times":"Mo; Fr","ref:UK:leedscc:bin":"1899"}},"type":"Feature"},
	{"geometry":{"coordinates":[-1.517413,53.81173],"type":"Point"},"properties":{"amenity":"waste_basket","osm_id":"7429090087","tag":{"collection_times":"Mo-Fr","ref:UK:leedscc:bin":"1302"}},"type":"Feature"},
	{"geometry":{"coordinates":[-1.515637,53.805785],"type":"Point"},"properties":{"amenity":"waste_basket","osm_id":"7429090111","tag":{"ref:UK:leedscc:bin":"3087"}},"type":"Feature"},
	{"geometry":{"coordinates":[-1.507493,53.817867],"type":"Point"},"properties":{"amenity":"waste_basket","osm_id":"7429090124","tag":{"collection_times":"Mo; Th","ref:UK:leedscc:bin":"964"}},"type":"Feature"},
	{"geometry":{"coordinates":[-1.51162,53.81754],"type":"Point"},"properties":{"amenity":"waste_basket","osm_id":"7429090137","tag":{"collection_times":"Mo; Th","ref:UK:leedscc:bin":"967"}},"type":"Feature"},
	{"geometry":{"coordinates":[-1.517198,53.811307],"type":"Point"},"properties":{"amenity":"waste_basket","osm_id":"7429090145","tag":{"ref:UK:leedscc:bin":"1301"}},"type":"Feature"},
	{"geometry":{"coordinates":[-1.580324,53.849041],"type":"Point"},"properties":{"amenity":"waste_basket","osm_id":"7429090192","tag":{"collection_times":"Mo; Fr","ref:UK:leedscc:bin":"1892"}},"type":"Feature"},
	{"geometry":{"coordinates":[-1.513475,53.813663],"type":"Point"},"properties":{"amenity":"waste_basket","osm_id":"7429090194","tag":{"collection_times":"Mo-Fr","ref:UK:leedscc:bin":"1290"}},"type":"Feature"},
	{"geometry":{"coordinates":[-1.509479,53.817254],"type":"Point"},"properties":{"amenity":"waste_basket","osm_id":"7429090224","tag":{"collection_times":"We; Sa","ref:UK:leedscc:bin":"966"}},"type":"Feature"},
	{"geometry":{"coordinates":[-1.51487,53.811994],"type":"Point"},"properties":{"amenity":"waste_basket","osm_id":"7429090226","tag":{"collection_times":"Mo; Th","ref:UK:leedscc:bin":"112"}},"type":"Feature"},
	{"geometry":{"coordinates":[-1.580248,53.849399],"type":"Point"},"properties":{"amenity":"waste_basket","osm_id":"7429090228","tag":{"collection_times":"Mo; Fr","ref:UK:leedscc:bin":"1898"}},"type":"Feature"},
	{"geometry":{"coordinates":[-1.517176,53.810476],"type":"Point"},"properties":{"amenity":"waste_basket","osm_id":"7429090231","tag":{"collection_times":"Mo-Fr","ref:UK:leedscc:bin":"1300"}},"type":"Feature"},
	{"geometry":{"coordinates":[-1.57882,53.849964],"type":"Point"},"properties":{"amenity":"waste_basket","osm_id":"7429090253","tag":{"collection_times":"Mo; Fr","ref:UK:leedscc:bin":"1897"}},"type":"Feature"},
	{"geometry":{"coordinates":[-1.510164,53.816183],"type":"Point"},"properties":{"amenity":"waste_basket","osm_id":"7429090289","tag":{"collection_times":"We; Sa","ref:UK:leedscc:bin":"4338"}},"type":"Feature"},
	{"geometry":{"coordinates":[-1.510484,53.80268],"type":"Point"},"properties":{"amenity":"waste_basket","osm_id":"7429090292","tag":{"ref:UK:leedscc:bin":"4201"}},"type":"Feature"},
	{"geometry":{"coordinates":[-1.51726,53.809596],"type":"Point"},"properties":{"amenity":"waste_basket","osm_id":"7429090309","tag":{"collection_times":"Mo-Fr","ref:UK:leedscc:bin":"1299"}},"type":"Feature"},
	{"geometry":{"coordinates":[-1.516317,53.808455],"type":"Point"},"properties":{"amenity":"waste_basket","osm_id":"7429090310","tag":{"collection_times":"Mo; Th","ref:UK:leedscc:bin":"4336"}},"type":"Feature"},
	{"geometry":{"coordinates":[-1.517273,53.809373],"type":"Point"},"properties":{"amenity":"waste_basket","osm_id":"7429090328","tag":{"collection_times":"Mo-Fr","ref:UK:leedscc:bin":"1298"}},"type":"Feature"},
	{"geometry":{"coordinates":[-1.509629,53.815905],"type":"Point"},"properties":{"amenity":"waste_basket","osm_id":"7429090342","tag":{"collection_times":"We; Sa","ref:UK:leedscc:bin":"4337"}},"type":"Feature"},
	{"geometry":{"coordinates":[-1.579732,53.85055],"type":"Point"},"properties":{"amenity":"waste_basket","osm_id":"7429090351","tag":{"collection_times":"Mo; Fr","ref:UK:leedscc:bin":"1896"}},"type":"Feature"},
	{"geometry":{"coordinates":[-1.512349,53.811982],"type":"Point"},"properties":{"amenity":"waste_basket","osm_id":"7429090378","tag":{"collection_times":"Mo-Fr","ref:UK:leedscc:bin":"1293"}},"type":"Feature"},
	{"geometry":{"coordinates":[-1.512083,53.811398],"type":"Point"},"properties":{"amenity":"waste_basket","osm_id":"7429090431","tag":{"collection_times":"Mo-Fr","ref:UK:leedscc:bin":"1294"}},"type":"Feature"},
	{"geometry":{"coordinates":[-1.508138,53.802016],"type":"Point"},"properties":{"amenity":"waste_basket","osm_id":"7429090434","tag":{"ref:UK:leedscc:bin":"1962"}},"type":"Feature"},
	{"geometry":{"coordinates":[-1.51504,53.809311],"type":"Point"},"properties":{"amenity":"waste_basket","osm_id":"7429090440","tag":{"collection_times":"Mo; Th","ref:UK:leedscc:bin":"110"}},"type":"Feature"},
	{"geometry":{"coordinates":[-1.510635,53.805902],"type":"Point"},"properties":{"amenity":"waste_basket","osm_id":"7429090442","tag":{"ref:UK:leedscc:bin":"1516"}},"type":"Feature"},
	{"geometry":{"coordinates":[-1.579562,53.851498],"type":"Point"},"properties":{"amenity":"waste_basket","osm_id":"7429090450","tag":{"collection_times":"Mo; Fr","ref:UK:leedscc:bin":"1895"}},"type":"Feature"},
	{"geometry":{"coordinates":[-1.513968,53.809719],"type":"Point"},"properties":{"amenity":"waste_basket","osm_id":"7429090460","tag":{"collection_times":"Mo; Th","ref:UK:leedscc:bin":"111"}},"type":"Feature"},
	{"geometry":{"coordinates":[-1.509767,53.805295],"type":"Point"},"properties":{"amenity":"waste_basket","osm_id":"7429090464","tag":{"ref:UK:leedscc:bin":"4198"}},"type":"Feature"},
	{"geometry":{"coordinates":[-1.498103,53.81573],"type":"Point"},"properties":{"amenity":"waste_basket","osm_id":"7429090509","tag":{"collection_times":"We; Sa","ref:UK:leedscc:bin":"90"}},"type":"Feature"},
	{"geometry":{"coordinates":[-1.511434,53.807701],"type":"Point"},"properties":{"amenity":"waste_basket","osm_id":"7429090512","tag":{"ref:UK:leedscc:bin":"768"}},"type":"Feature"},
	{"geometry":{"coordinates":[-1.510893,53.811022],"type":"Point"},"properties":{"amenity":"waste_basket","osm_id":"7429090519","tag":{"collection_times":"Mo-Fr","ref:UK:leedscc:bin":"3090"}},"type":"Feature"},
	{"geometry":{"coordinates":[-1.506254,53.814606],"type":"Point"},"properties":{"amenity":"waste_basket","osm_id":"7429090534","tag":{"collection_times":"We; Sa","ref:UK:leedscc:bin":"4324"}},"type":"Feature"},
	{"geometry":{"coordinates":[-1.510885,53.810801],"type":"Point"},"properties":{"amenity":"waste_basket","osm_id":"7429090539","tag":{"collection_times":"Mo-Fr","ref:UK:leedscc:bin":"3091"}},"type":"Feature"},
	{"geometry":{"coordinates":[-1.507479,53.804038],"type":"Point"},"properties":{"amenity":"waste_basket","osm_id":"7429090551","tag":{"ref:UK:leedscc:bin":"4200"}},"type":"Feature"},
	{"geometry":{"coordinates":[-1.507716,53.804402],"type":"Point"},"properties":{"amenity":"waste_basket","osm_id":"7429090552","tag":{"ref:UK:leedscc:bin":"4199"}},"type":"Feature"},
	{"geometry":{"coordinates":[-1.511026,53.810445],"type":"Point"},"properties":{"amenity":"waste_basket","osm_id":"7429090561","tag":{"collection_times":"Mo; Th","ref:UK:leedscc:bin":"1297"}},"type":"Feature"},
	{"geometry":{"coordinates":[-1.579758,53.852475],"type":"Point"},"properties":{"amenity":"waste_basket","osm_id":"7429090569","tag":{"collection_times":"Mo; Fr","ref:UK:leedscc:bin":"3508"}},"type":"Feature"},
	{"geometry":{"coordinates":[-1.50708,53.804276],"type":"Point"},"properties":{"amenity":"waste_basket","osm_id":"7429090589","tag":{"ref:UK:leedscc:bin":"1963"}},"type":"Feature"},
	{"geometry":{"coordinates":[-1.510014,53.810291],"type":"Point"},"properties":{"amenity":"waste_basket","osm_id":"7429090624","tag":{"collection_times":"Mo; Th","ref:UK:leedscc:bin":"3092"}},"type":"Feature"},
	{"geometry":{"coordinates":[-1.505371,53.813775],"type":"Point"},"properties":{"amenity":"waste_basket","osm_id":"7429090637","tag":{"collection_times":"We; Sa","ref:UK:leedscc:bin":"4323"}},"type":"Feature"},
	{"geometry":{"coordinates":[-1.506783,53.805327],"type":"Point"},"properties":{"amenity":"waste_basket","osm_id":"7429090653","tag":{"ref:UK:leedscc:bin":"1964"}},"type":"Feature"},
	{"geometry":{"coordinates":[-1.502635,53.813797],"type":"Point"},"properties":{"amenity":"waste_basket","osm_id":"7429090658","tag":{"collection_times":"We; Sa","ref:UK:leedscc:bin":"1050"}},"type":"Feature"},
	{"geometry":{"coordinates":[-1.507032,53.812437],"type":"Point"},"properties":{"amenity":"waste_basket","osm_id":"7429090668","tag":{"collection_times":"We; Sa","ref:UK:leedscc:bin":"1052"}},"type":"Feature"},
	{"geometry":{"coordinates":[-1.502121,53.813676],"type":"Point"},"properties":{"amenity":"waste_basket","osm_id":"7429090672","tag":{"collection_times":"We; Sa","ref:UK:leedscc:bin":"1049"}},"type":"Feature"},
	{"geometry":{"coordinates":[-1.509894,53.809498],"type":"Point"},"properties":{"amenity":"waste_basket","osm_id":"7429090681","tag":{"collection_times":"Mo-Fr","ref:UK:leedscc:bin":"1296"}},"type":"Feature"},
	{"geometry":{"coordinates":[-1.508959,53.808687],"type":"Point"},"properties":{"amenity":"waste_basket","osm_id":"7429090698","tag":{"ref:UK:leedscc:bin":"1258"}},"type":"Feature"},
	{"geometry":{"coordinates":[-1.506577,53.811711],"type":"Point"},"properties":{"amenity":"waste_basket","osm_id":"7429090705","tag":{"collection_times":"We; Sa","ref:UK:leedscc:bin":"4321"}},"type":"Feature"},
	{"geometry":{"coordinates":[-1.509259,53.809204],"type":"Point"},"properties":{"amenity":"waste_basket","osm_id":"7429090711","tag":{"collection_times":"Mo-Fr","ref:UK:leedscc:bin":"1295"}},"type":"Feature"},
	{"geometry":{"coordinates":[-1.508154,53.808356],"type":"Point"},"properties":{"amenity":"waste_basket","osm_id":"7429090717","tag":{"ref:UK:leedscc:bin":"1261"}},"type":"Feature"},
	{"geometry":{"coordinates":[-1.506726,53.811341],"type":"Point"},"properties":{"amenity":"waste_basket","osm_id":"7429090720","tag":{"collection_times":"We; Sa","ref:UK:leedscc:bin":"4322"}},"type":"Feature"},
	{"geometry":{"coordinates":[-1.508392,53.808609],"type":"Point"},"properties":{"amenity":"waste_basket","osm_id":"7429090722","tag":{"ref:UK:leedscc:bin":"1260"}},"type":"Feature"},
	{"geometry":{"coordinates":[-1.508673,53.808845],"type":"Point"},"properties":{"amenity":"waste_basket","osm_id":"7429090723","tag":{"ref:UK:leedscc:bin":"1259"}},"type":"Feature"},
	{"geometry":{"coordinates":[-1.503116,53.81281],"type":"Point"},"properties":{"amenity":"waste_basket","osm_id":"7429090731","tag":{"collection_times":"We; Sa","ref:UK:leedscc:bin":"4310"}},"type":"Feature"},
	{"geometry":{"coordinates":[-1.499374,53.813236],"type":"Point"},"properties":{"amenity":"waste_basket","osm_id":"7429090733","tag":{"collection_times":"We; Sa","ref:UK:leedscc:bin":"4316"}},"type":"Feature"},
	{"geometry":{"coordinates":[-1.506197,53.806959],"type":"Point"},"properties":{"amenity":"waste_basket","osm_id":"7429090737","tag":{"ref:UK:leedscc:bin":"1270"}},"type":"Feature"},
	{"geometry":{"coordinates":[-1.494625,53.813923],"type":"Point"},"properties":{"amenity":"waste_basket","osm_id":"7429090751","tag":{"collection_times":"We; Sa","ref:UK:leedscc:bin":"2350"}},"type":"Feature"},
	{"geometry":{"coordinates":[-1.503241,53.812439],"type":"Point"},"properties":{"amenity":"waste_basket","osm_id":"7429090755","tag":{"collection_times":"We; Sa","ref:UK:leedscc:bin":"4311"}},"type":"Feature"},
	{"geometry":{"coordinates":[-1.507378,53.809174],"type":"Point"},"properties":{"amenity":"waste_basket","osm_id":"7429090776","tag":{"collection_times":"We; Sa","ref:UK:leedscc:bin":"4320"}},"type":"Feature"},
	{"geometry":{"coordinates":[-1.497982,53.812717],"type":"Point"},"properties":{"amenity":"waste_basket","osm_id":"7429090787","tag":{"collection_times":"We; Sa","ref:UK:leedscc:bin":"4315"}},"type":"Feature"},
	{"geometry":{"coordinates":[-1.502881,53.804278],"type":"Point"},"properties":{"amenity":"waste_basket","osm_id":"7429090793","tag":{"ref:UK:leedscc:bin":"1263"}},"type":"Feature"},
	{"geometry":{"coordinates":[-1.498322,53.812465],"type":"Point"},"properties":{"amenity":"waste_basket","osm_id":"7429090799","tag":{"collection_times":"We; Sa","ref:UK:leedscc:bin":"2351"}},"type":"Feature"},
	{"geometry":{"coordinates":[-1.497311,53.812372],"type":"Point"},"properties":{"amenity":"waste_basket","osm_id":"7429090817","tag":{"collection_times":"We; Su","ref:UK:leedscc:bin":"4314"}},"type":"Feature"},
	{"geometry":{"coordinates":[-1.501317,53.80319],"type":"Point"},"properties":{"amenity":"waste_basket","osm_id":"7429090833","tag":{"ref:UK:leedscc:bin":"1277"}},"type":"Feature"},
	{"geometry":{"coordinates":[-1.500123,53.801362],"type":"Point"},"properties":{"amenity":"waste_basket","osm_id":"7429090853","tag":{"ref:UK:leedscc:bin":"3767"}},"type":"Feature"},
	{"geometry":{"coordinates":[-1.499892,53.802172],"type":"Point"},"properties":{"amenity":"waste_basket","osm_id":"7429090872","tag":{"ref:UK:leedscc:bin":"1279"}},"type":"Feature"},
	{"geometry":{"coordinates":[-1.501549,53.810791],"type":"Point"},"properties":{"amenity":"waste_basket","osm_id":"7429090876","tag":{"collection_times":"We; Sa","ref:UK:leedscc:bin":"4312"}},"type":"Feature"},
	{"geometry":{"coordinates":[-1.499375,53.801087],"type":"Point"},"properties":{"amenity":"waste_basket","osm_id":"7429090878","tag":{"ref:UK:leedscc:bin":"3771"}},"type":"Feature"},
	{"geometry":{"coordinates":[-1.499501,53.801848],"type":"Point"},"properties":{"amenity":"waste_basket","osm_id":"7429090880","tag":{"ref:UK:leedscc:bin":"1267"}},"type":"Feature"},
	{"geometry":{"coordinates":[-1.499431,53.802047],"type":"Point"},"properties":{"amenity":"waste_basket","osm_id":"7429090885","tag":{"ref:UK:leedscc:bin":"1256"}},"type":"Feature"},
	{"geometry":{"coordinates":[-1.499336,53.802127],"type":"Point"},"properties":{"amenity":"waste_basket","osm_id":"7429090894","tag":{"ref:UK:leedscc:bin":"1255"}},"type":"Feature"},
	{"geometry":{"coordinates":[-1.500756,53.810531],"type":"Point"},"properties":{"amenity":"waste_basket","osm_id":"7429090906","tag":{"collection_times":"We; Su","ref:UK:leedscc:bin":"4313"}},"type":"Feature"},
	{"geometry":{"coordinates":[-1.49758,53.801362],"type":"Point"},"properties":{"amenity":"waste_basket","osm_id":"7429090953","tag":{"ref:UK:leedscc:bin":"3770"}},"type":"Feature"},
	{"geometry":{"coordinates":[-1.49419,53.809062],"type":"Point"},"properties":{"amenity":"waste_basket","osm_id":"7429091018","tag":{"collection_times":"We; Su","ref:UK:leedscc:bin":"740"}},"type":"Feature"}
]
}
