{
"type": "FeatureCollection",
"lastupdate": "2020-07-24T00:48:03Z",
"features": [
	{"geometry":{"coordinates":[-1.543751,53.781826],"type":"Point"},"properties":{"amenity":"recycling","osm_id":"308513447","tag":{"recycling:glass_bottles":"yes"}},"type":"Feature"},
	{"geometry":{"coordinates":[-1.541564,53.7793],"type":"Point"},"properties":{"amenity":"recycling","osm_id":"389996299","tag":{"recycling:glass_bottles":"brown","recycling_type":"container"}},"type":"Feature"},
	{"geometry":{"coordinates":[-1.54889,53.773104],"type":"Point"},"properties":{"amenity":"recycling","osm_id":"392007374","tag":{"operator":"SavetheMothersTrust","recycling:clothes":"yes"}},"type":"Feature"},
	{"geometry":{"coordinates":[-1.55186,53.776456],"type":"Point"},"properties":{"amenity":"recycling","osm_id":"392047370","tag":{"operator":"SavetheMothersTrust","recycling:clothes":"yes"}},"type":"Feature"},
	{"geometry":{"coordinates":[-1.541952,53.779013],"type":"Point"},"properties":{"amenity":"recycling","osm_id":"393838658","tag":{"recycling:glass_bottles":"yes"}},"type":"Feature"},
	{"geometry":{"coordinates":[-1.555036,53.778444],"type":"Point"},"properties":{"amenity":"recycling","osm_id":"405435128","tag":{"recycling:glass_bottles":"yes"}},"type":"Feature"},
	{"geometry":{"coordinates":[-1.554785,53.779409],"type":"Point"},"properties":{"amenity":"recycling","osm_id":"522977031","tag":{"recycling:glass_bottles":"yes","recycling_type":"container"}},"type":"Feature"},
	{"geometry":{"coordinates":[-1.565553,53.772407],"type":"Point"},"properties":{"amenity":"recycling","name":"Bottle bank","osm_id":"737224738"},"type":"Feature"},
	{"geometry":{"coordinates":[-1.544194,53.795303],"type":"Point"},"properties":{"amenity":"waste_basket","osm_id":"2101532104","tag":{"addr:city":"Leeds","addr:street":"Trevelyan Square"}},"type":"Feature"},
	{"geometry":{"coordinates":[-1.56017,53.785985],"type":"Point"},"properties":{"amenity":"recycling","osm_id":"3714849998","tag":{"location":"overground","operator":"Leeds City Council","recycling:cans":"no","recycling:clothes":"no","recycling:glass":"yes","recycling:paper":"no","recycling_type":"container"}},"type":"Feature"},
	{"geometry":{"coordinates":[-1.532222,53.798329],"type":"Point"},"properties":{"amenity":"waste_basket","osm_id":"4361248190"},"type":"Feature"},
	{"geometry":{"coordinates":[-1.532271,53.79817],"type":"Point"},"properties":{"amenity":"waste_basket","osm_id":"4361248191"},"type":"Feature"},
	{"geometry":{"coordinates":[-1.532275,53.798252],"type":"Point"},"properties":{"amenity":"waste_basket","osm_id":"4361248192"},"type":"Feature"},
	{"geometry":{"coordinates":[-1.53213,53.798617],"type":"Point"},"properties":{"amenity":"waste_basket","osm_id":"4361248194"},"type":"Feature"},
	{"geometry":{"coordinates":[-1.537158,53.795251],"type":"Point"},"properties":{"amenity":"waste_basket","osm_id":"4362453635"},"type":"Feature"},
	{"geometry":{"coordinates":[-1.539318,53.796488],"type":"Point"},"properties":{"amenity":"waste_basket","osm_id":"4362557276"},"type":"Feature"},
	{"geometry":{"coordinates":[-1.554667,53.799251],"type":"Point"},"properties":{"amenity":"waste_basket","osm_id":"4434225670"},"type":"Feature"},
	{"geometry":{"coordinates":[-1.553994,53.797998],"type":"Point"},"properties":{"amenity":"waste_basket","osm_id":"4434225671"},"type":"Feature"},
	{"geometry":{"coordinates":[-1.555385,53.800118],"type":"Point"},"properties":{"amenity":"waste_basket","osm_id":"4621501498"},"type":"Feature"},
	{"geometry":{"coordinates":[-1.557707,53.799043],"type":"Point"},"properties":{"amenity":"waste_basket","osm_id":"4740732703"},"type":"Feature"},
	{"geometry":{"coordinates":[-1.545364,53.7527],"type":"Point"},"properties":{"amenity":"waste_basket","osm_id":"5474949833"},"type":"Feature"},
	{"geometry":{"coordinates":[-1.534227,53.798446],"type":"Point"},"properties":{"amenity":"waste_basket","osm_id":"5506378769"},"type":"Feature"},
	{"geometry":{"coordinates":[-1.533873,53.798382],"type":"Point"},"properties":{"amenity":"waste_basket","osm_id":"5506378771"},"type":"Feature"},
	{"geometry":{"coordinates":[-1.533234,53.797311],"type":"Point"},"properties":{"amenity":"waste_basket","osm_id":"5506378794"},"type":"Feature"},
	{"geometry":{"coordinates":[-1.543191,53.797844],"type":"Point"},"properties":{"amenity":"waste_basket","osm_id":"6183459986"},"type":"Feature"},
	{"geometry":{"coordinates":[-1.557965,53.797098],"type":"Point"},"properties":{"amenity":"waste_basket","osm_id":"6653424132"},"type":"Feature"},
	{"geometry":{"coordinates":[-1.560245,53.78807],"type":"Point"},"properties":{"amenity":"waste_basket","osm_id":"6659202104","tag":{"material":"metal"}},"type":"Feature"},
	{"geometry":{"coordinates":[-1.547899,53.796437],"type":"Point"},"properties":{"amenity":"waste_basket","osm_id":"6693574670","tag":{"material":"metal"}},"type":"Feature"},
	{"geometry":{"coordinates":[-1.547782,53.796435],"type":"Point"},"properties":{"amenity":"waste_basket","osm_id":"6693574671","tag":{"material":"metal"}},"type":"Feature"},
	{"geometry":{"coordinates":[-1.54768,53.796486],"type":"Point"},"properties":{"amenity":"waste_basket","osm_id":"6693574672","tag":{"material":"metal"}},"type":"Feature"},
	{"geometry":{"coordinates":[-1.547676,53.796571],"type":"Point"},"properties":{"amenity":"waste_basket","osm_id":"6693574673","tag":{"material":"metal"}},"type":"Feature"},
	{"geometry":{"coordinates":[-1.543678,53.795383],"type":"Point"},"properties":{"amenity":"waste_basket","osm_id":"7029962656"},"type":"Feature"},
	{"geometry":{"coordinates":[-1.543423,53.797894],"type":"Point"},"properties":{"amenity":"waste_basket","osm_id":"7429085321","tag":{"operator":"CITY CENTRE MANAGEMENT","ref:UK:leedscc:bin":"49"}},"type":"Feature"},
	{"geometry":{"coordinates":[-1.539071,53.796506],"type":"Point"},"properties":{"amenity":"waste_basket","osm_id":"7429085323","tag":{"operator":"CITY CENTRE MANAGEMENT","ref:UK:leedscc:bin":"2282"}},"type":"Feature"},
	{"geometry":{"coordinates":[-1.543012,53.797737],"type":"Point"},"properties":{"amenity":"waste_basket","osm_id":"7429085324","tag":{"operator":"CITY CENTRE MANAGEMENT","ref:UK:leedscc:bin":"47"}},"type":"Feature"},
	{"geometry":{"coordinates":[-1.534566,53.798507],"type":"Point"},"properties":{"amenity":"waste_basket","osm_id":"7429085341","tag":{"operator":"CITY CENTRE MANAGEMENT","ref:UK:leedscc:bin":"2626"}},"type":"Feature"},
	{"geometry":{"coordinates":[-1.558074,53.796886],"type":"Point"},"properties":{"amenity":"waste_basket","osm_id":"7429085344","tag":{"operator":"CITY CENTRE MANAGEMENT","ref:UK:leedscc:bin":"3533"}},"type":"Feature"},
	{"geometry":{"coordinates":[-1.538993,53.796607],"type":"Point"},"properties":{"amenity":"waste_basket","osm_id":"7429085345","tag":{"operator":"CITY CENTRE MANAGEMENT","ref:UK:leedscc:bin":"2281"}},"type":"Feature"},
	{"geometry":{"coordinates":[-1.539597,53.796654],"type":"Point"},"properties":{"amenity":"waste_basket","osm_id":"7429085346","tag":{"operator":"CITY CENTRE MANAGEMENT","ref:UK:leedscc:bin":"1640"}},"type":"Feature"},
	{"geometry":{"coordinates":[-1.536978,53.795469],"type":"Point"},"properties":{"amenity":"waste_basket","osm_id":"7429085349","tag":{"operator":"CITY CENTRE MANAGEMENT","ref:UK:leedscc:bin":"1437"}},"type":"Feature"},
	{"geometry":{"coordinates":[-1.543498,53.798065],"type":"Point"},"properties":{"amenity":"waste_basket","osm_id":"7429085357","tag":{"operator":"CITY CENTRE MANAGEMENT","ref:UK:leedscc:bin":"1697"}},"type":"Feature"},
	{"geometry":{"coordinates":[-1.547681,53.796152],"type":"Point"},"properties":{"amenity":"waste_basket","osm_id":"7429085358","tag":{"operator":"CITY CENTRE MANAGEMENT","ref:UK:leedscc:bin":"2271"}},"type":"Feature"},
	{"geometry":{"coordinates":[-1.548019,53.796154],"type":"Point"},"properties":{"amenity":"waste_basket","osm_id":"7429085359","tag":{"operator":"CITY CENTRE MANAGEMENT","ref:UK:leedscc:bin":"2272"}},"type":"Feature"},
	{"geometry":{"coordinates":[-1.537195,53.795558],"type":"Point"},"properties":{"amenity":"waste_basket","osm_id":"7429085363","tag":{"operator":"CITY CENTRE MANAGEMENT","ref:UK:leedscc:bin":"1637"}},"type":"Feature"},
	{"geometry":{"coordinates":[-1.539827,53.796588],"type":"Point"},"properties":{"amenity":"waste_basket","osm_id":"7429085366","tag":{"operator":"CITY CENTRE MANAGEMENT","ref:UK:leedscc:bin":"1641"}},"type":"Feature"},
	{"geometry":{"coordinates":[-1.537629,53.795095],"type":"Point"},"properties":{"amenity":"waste_basket","osm_id":"7429085367","tag":{"operator":"CITY CENTRE MANAGEMENT","ref:UK:leedscc:bin":"1435"}},"type":"Feature"},
	{"geometry":{"coordinates":[-1.547454,53.796905],"type":"Point"},"properties":{"amenity":"waste_basket","osm_id":"7429085377","tag":{"operator":"CITY CENTRE MANAGEMENT","ref:UK:leedscc:bin":"1525"}},"type":"Feature"},
	{"geometry":{"coordinates":[-1.557494,53.79685],"type":"Point"},"properties":{"amenity":"waste_basket","osm_id":"7429085380","tag":{"operator":"CITY CENTRE MANAGEMENT","ref:UK:leedscc:bin":"3520"}},"type":"Feature"},
	{"geometry":{"coordinates":[-1.547303,53.796116],"type":"Point"},"properties":{"amenity":"waste_basket","osm_id":"7429087887","tag":{"operator":"CITY CENTRE MANAGEMENT","ref:UK:leedscc:bin":"2270"}},"type":"Feature"},
	{"geometry":{"coordinates":[-1.543051,53.797419],"type":"Point"},"properties":{"amenity":"waste_basket","osm_id":"7429087888","tag":{"operator":"CITY CENTRE MANAGEMENT","ref:UK:leedscc:bin":"751"}},"type":"Feature"},
	{"geometry":{"coordinates":[-1.543605,53.797474],"type":"Point"},"properties":{"amenity":"waste_basket","osm_id":"7429087891","tag":{"operator":"CITY CENTRE MANAGEMENT","ref:UK:leedscc:bin":"753"}},"type":"Feature"},
	{"geometry":{"coordinates":[-1.54795,53.79699],"type":"Point"},"properties":{"amenity":"waste_basket","osm_id":"7429087894","tag":{"operator":"CITY CENTRE MANAGEMENT","ref:UK:leedscc:bin":"1526"}},"type":"Feature"},
	{"geometry":{"coordinates":[-1.54703,53.796196],"type":"Point"},"properties":{"amenity":"waste_basket","osm_id":"7429087898","tag":{"operator":"CITY CENTRE MANAGEMENT","ref:UK:leedscc:bin":"699"}},"type":"Feature"},
	{"geometry":{"coordinates":[-1.542351,53.797879],"type":"Point"},"properties":{"amenity":"waste_basket","osm_id":"7429087903","tag":{"operator":"CITY CENTRE MANAGEMENT","ref:UK:leedscc:bin":"411"}},"type":"Feature"},
	{"geometry":{"coordinates":[-1.543249,53.797346],"type":"Point"},"properties":{"amenity":"waste_basket","osm_id":"7429087904","tag":{"operator":"CITY CENTRE MANAGEMENT","ref:UK:leedscc:bin":"752"}},"type":"Feature"},
	{"geometry":{"coordinates":[-1.538484,53.796576],"type":"Point"},"properties":{"amenity":"waste_basket","osm_id":"7429087905","tag":{"operator":"CITY CENTRE MANAGEMENT","ref:UK:leedscc:bin":"2278"}},"type":"Feature"},
	{"geometry":{"coordinates":[-1.544028,53.797761],"type":"Point"},"properties":{"amenity":"waste_basket","osm_id":"7429087906","tag":{"operator":"CITY CENTRE MANAGEMENT","ref:UK:leedscc:bin":"50"}},"type":"Feature"},
	{"geometry":{"coordinates":[-1.543433,53.798325],"type":"Point"},"properties":{"amenity":"waste_basket","osm_id":"7429087907","tag":{"operator":"CITY CENTRE MANAGEMENT","ref:UK:leedscc:bin":"1696"}},"type":"Feature"},
	{"geometry":{"coordinates":[-1.544645,53.795748],"type":"Point"},"properties":{"amenity":"waste_basket","osm_id":"7429087915","tag":{"operator":"CITY CENTRE MANAGEMENT","ref:UK:leedscc:bin":"261"}},"type":"Feature"},
	{"geometry":{"coordinates":[-1.536399,53.795548],"type":"Point"},"properties":{"amenity":"waste_basket","osm_id":"7429087920","tag":{"operator":"CITY CENTRE MANAGEMENT","ref:UK:leedscc:bin":"1636"}},"type":"Feature"},
	{"geometry":{"coordinates":[-1.54295,53.797326],"type":"Point"},"properties":{"amenity":"waste_basket","osm_id":"7429087921","tag":{"operator":"CITY CENTRE MANAGEMENT","ref:UK:leedscc:bin":"759"}},"type":"Feature"},
	{"geometry":{"coordinates":[-1.543714,53.797369],"type":"Point"},"properties":{"amenity":"waste_basket","osm_id":"7429087929","tag":{"operator":"CITY CENTRE MANAGEMENT","ref:UK:leedscc:bin":"754"}},"type":"Feature"},
	{"geometry":{"coordinates":[-1.543945,53.797465],"type":"Point"},"properties":{"amenity":"waste_basket","osm_id":"7429087933","tag":{"operator":"CITY CENTRE MANAGEMENT","ref:UK:leedscc:bin":"755"}},"type":"Feature"},
	{"geometry":{"coordinates":[-1.540104,53.79687],"type":"Point"},"properties":{"amenity":"waste_basket","osm_id":"7429087934","tag":{"operator":"CITY CENTRE MANAGEMENT","ref:UK:leedscc:bin":"1643"}},"type":"Feature"},
	{"geometry":{"coordinates":[-1.540185,53.79617],"type":"Point"},"properties":{"amenity":"waste_basket","osm_id":"7429087935","tag":{"operator":"CITY CENTRE MANAGEMENT","ref:UK:leedscc:bin":"859"}},"type":"Feature"},
	{"geometry":{"coordinates":[-1.540277,53.796715],"type":"Point"},"properties":{"amenity":"waste_basket","osm_id":"7429087938","tag":{"operator":"CITY CENTRE MANAGEMENT","ref:UK:leedscc:bin":"1642"}},"type":"Feature"},
	{"geometry":{"coordinates":[-1.546872,53.796093],"type":"Point"},"properties":{"amenity":"waste_basket","osm_id":"7429087941","tag":{"operator":"CITY CENTRE MANAGEMENT","ref:UK:leedscc:bin":"269"}},"type":"Feature"},
	{"geometry":{"coordinates":[-1.54251,53.797358],"type":"Point"},"properties":{"amenity":"waste_basket","osm_id":"7429087943","tag":{"operator":"CITY CENTRE MANAGEMENT","ref:UK:leedscc:bin":"758"}},"type":"Feature"},
	{"geometry":{"coordinates":[-1.546717,53.796206],"type":"Point"},"properties":{"amenity":"waste_basket","osm_id":"7429087944","tag":{"operator":"CITY CENTRE MANAGEMENT","ref:UK:leedscc:bin":"263"}},"type":"Feature"},
	{"geometry":{"coordinates":[-1.544695,53.795891],"type":"Point"},"properties":{"amenity":"waste_basket","osm_id":"7429087949","tag":{"operator":"CITY CENTRE MANAGEMENT","ref:UK:leedscc:bin":"260"}},"type":"Feature"},
	{"geometry":{"coordinates":[-1.540312,53.796181],"type":"Point"},"properties":{"amenity":"waste_basket","osm_id":"7429087950","tag":{"operator":"CITY CENTRE MANAGEMENT","ref:UK:leedscc:bin":"512"}},"type":"Feature"},
	{"geometry":{"coordinates":[-1.542082,53.797957],"type":"Point"},"properties":{"amenity":"waste_basket","osm_id":"7429087951","tag":{"operator":"CITY CENTRE MANAGEMENT","ref:UK:leedscc:bin":"408"}},"type":"Feature"},
	{"geometry":{"coordinates":[-1.545114,53.795712],"type":"Point"},"properties":{"amenity":"waste_basket","osm_id":"7429087953","tag":{"operator":"CITY CENTRE MANAGEMENT","ref:UK:leedscc:bin":"264"}},"type":"Feature"},
	{"geometry":{"coordinates":[-1.543385,53.796052],"type":"Point"},"properties":{"amenity":"waste_basket","osm_id":"7429087955","tag":{"operator":"CITY CENTRE MANAGEMENT","ref:UK:leedscc:bin":"259"}},"type":"Feature"},
	{"geometry":{"coordinates":[-1.540196,53.796952],"type":"Point"},"properties":{"amenity":"waste_basket","osm_id":"7429087957","tag":{"operator":"CITY CENTRE MANAGEMENT","ref:UK:leedscc:bin":"3431"}},"type":"Feature"},
	{"geometry":{"coordinates":[-1.549032,53.79624],"type":"Point"},"properties":{"amenity":"waste_basket","osm_id":"7429087959","tag":{"operator":"CITY CENTRE MANAGEMENT","ref:UK:leedscc:bin":"3522"}},"type":"Feature"},
	{"geometry":{"coordinates":[-1.539863,53.795851],"type":"Point"},"properties":{"amenity":"waste_basket","osm_id":"7429087961","tag":{"operator":"CITY CENTRE MANAGEMENT","ref:UK:leedscc:bin":"860"}},"type":"Feature"},
	{"geometry":{"coordinates":[-1.538408,53.796013],"type":"Point"},"properties":{"amenity":"waste_basket","osm_id":"7429087963","tag":{"operator":"CITY CENTRE MANAGEMENT","ref:UK:leedscc:bin":"1638"}},"type":"Feature"},
	{"geometry":{"coordinates":[-1.54042,53.796139],"type":"Point"},"properties":{"amenity":"waste_basket","osm_id":"7429087967","tag":{"operator":"CITY CENTRE MANAGEMENT","ref:UK:leedscc:bin":"511"}},"type":"Feature"},
	{"geometry":{"coordinates":[-1.542887,53.795959],"type":"Point"},"properties":{"amenity":"waste_basket","osm_id":"7429087968","tag":{"operator":"CITY CENTRE MANAGEMENT","ref:UK:leedscc:bin":"258"}},"type":"Feature"},
	{"geometry":{"coordinates":[-1.544252,53.797433],"type":"Point"},"properties":{"amenity":"waste_basket","osm_id":"7429087972","tag":{"operator":"CITY CENTRE MANAGEMENT","ref:UK:leedscc:bin":"760"}},"type":"Feature"},
	{"geometry":{"coordinates":[-1.54446,53.797785],"type":"Point"},"properties":{"amenity":"waste_basket","osm_id":"7429087973","tag":{"operator":"CITY CENTRE MANAGEMENT","ref:UK:leedscc:bin":"48"}},"type":"Feature"},
	{"geometry":{"coordinates":[-1.538039,53.796437],"type":"Point"},"properties":{"amenity":"waste_basket","osm_id":"7429087978","tag":{"operator":"CITY CENTRE MANAGEMENT","ref:UK:leedscc:bin":"2279"}},"type":"Feature"},
	{"geometry":{"coordinates":[-1.549034,53.796075],"type":"Point"},"properties":{"amenity":"waste_basket","osm_id":"7429087979","tag":{"operator":"CITY CENTRE MANAGEMENT","ref:UK:leedscc:bin":"3521"}},"type":"Feature"},
	{"geometry":{"coordinates":[-1.548385,53.797227],"type":"Point"},"properties":{"amenity":"waste_basket","osm_id":"7429087982","tag":{"operator":"CITY CENTRE MANAGEMENT","ref:UK:leedscc:bin":"1527"}},"type":"Feature"},
	{"geometry":{"coordinates":[-1.542249,53.7984],"type":"Point"},"properties":{"amenity":"waste_basket","osm_id":"7429087984","tag":{"operator":"CITY CENTRE MANAGEMENT","ref:UK:leedscc:bin":"407"}},"type":"Feature"},
	{"geometry":{"coordinates":[-1.542454,53.797188],"type":"Point"},"properties":{"amenity":"waste_basket","osm_id":"7429087985","tag":{"operator":"CITY CENTRE MANAGEMENT","ref:UK:leedscc:bin":"415"}},"type":"Feature"},
	{"geometry":{"coordinates":[-1.546488,53.796114],"type":"Point"},"properties":{"amenity":"waste_basket","osm_id":"7429087988","tag":{"operator":"CITY CENTRE MANAGEMENT","ref:UK:leedscc:bin":"262"}},"type":"Feature"},
	{"geometry":{"coordinates":[-1.532055,53.796921],"type":"Point"},"properties":{"amenity":"waste_basket","osm_id":"7429087989","tag":{"operator":"CITY CENTRE MANAGEMENT","ref:UK:leedscc:bin":"3790"}},"type":"Feature"},
	{"geometry":{"coordinates":[-1.543512,53.798627],"type":"Point"},"properties":{"amenity":"waste_basket","osm_id":"7429087991","tag":{"operator":"CITY CENTRE MANAGEMENT","ref:UK:leedscc:bin":"1693"}},"type":"Feature"},
	{"geometry":{"coordinates":[-1.548145,53.797355],"type":"Point"},"properties":{"amenity":"waste_basket","osm_id":"7429088001","tag":{"operator":"CITY CENTRE MANAGEMENT","ref:UK:leedscc:bin":"1522"}},"type":"Feature"},
	{"geometry":{"coordinates":[-1.547067,53.795719],"type":"Point"},"properties":{"amenity":"waste_basket","osm_id":"7429088002","tag":{"operator":"CITY CENTRE MANAGEMENT","ref:UK:leedscc:bin":"2267"}},"type":"Feature"},
	{"geometry":{"coordinates":[-1.546547,53.79599],"type":"Point"},"properties":{"amenity":"waste_basket","osm_id":"7429088004","tag":{"operator":"CITY CENTRE MANAGEMENT","ref:UK:leedscc:bin":"268"}},"type":"Feature"},
	{"geometry":{"coordinates":[-1.540599,53.796863],"type":"Point"},"properties":{"amenity":"waste_basket","osm_id":"7429088007","tag":{"operator":"CITY CENTRE MANAGEMENT","ref:UK:leedscc:bin":"756"}},"type":"Feature"},
	{"geometry":{"coordinates":[-1.537877,53.796563],"type":"Point"},"properties":{"amenity":"waste_basket","osm_id":"7429088010","tag":{"operator":"CITY CENTRE MANAGEMENT","ref:UK:leedscc:bin":"2280"}},"type":"Feature"},
	{"geometry":{"coordinates":[-1.542016,53.797341],"type":"Point"},"properties":{"amenity":"waste_basket","osm_id":"7429088011","tag":{"operator":"CITY CENTRE MANAGEMENT","ref:UK:leedscc:bin":"1648"}},"type":"Feature"},
	{"geometry":{"coordinates":[-1.540155,53.79719],"type":"Point"},"properties":{"amenity":"waste_basket","osm_id":"7429088012","tag":{"operator":"CITY CENTRE MANAGEMENT","ref:UK:leedscc:bin":"3430"}},"type":"Feature"},
	{"geometry":{"coordinates":[-1.534653,53.797509],"type":"Point"},"properties":{"amenity":"waste_basket","osm_id":"7429088013","tag":{"operator":"CITY CENTRE MANAGEMENT","ref:UK:leedscc:bin":"2976"}},"type":"Feature"},
	{"geometry":{"coordinates":[-1.540502,53.796999],"type":"Point"},"properties":{"amenity":"waste_basket","osm_id":"7429088016","tag":{"operator":"CITY CENTRE MANAGEMENT","ref:UK:leedscc:bin":"3432"}},"type":"Feature"},
	{"geometry":{"coordinates":[-1.544957,53.796052],"type":"Point"},"properties":{"amenity":"waste_basket","osm_id":"7429088019","tag":{"operator":"CITY CENTRE MANAGEMENT","ref:UK:leedscc:bin":"698"}},"type":"Feature"},
	{"geometry":{"coordinates":[-1.540085,53.795736],"type":"Point"},"properties":{"amenity":"waste_basket","osm_id":"7429088022","tag":{"operator":"CITY CENTRE MANAGEMENT","ref:UK:leedscc:bin":"729"}},"type":"Feature"},
	{"geometry":{"coordinates":[-1.542,53.798411],"type":"Point"},"properties":{"amenity":"waste_basket","osm_id":"7429088029","tag":{"operator":"CITY CENTRE MANAGEMENT","ref:UK:leedscc:bin":"409"}},"type":"Feature"},
	{"geometry":{"coordinates":[-1.545515,53.795759],"type":"Point"},"properties":{"amenity":"waste_basket","osm_id":"7429088030","tag":{"operator":"CITY CENTRE MANAGEMENT","ref:UK:leedscc:bin":"265"}},"type":"Feature"},
	{"geometry":{"coordinates":[-1.542225,53.79713],"type":"Point"},"properties":{"amenity":"waste_basket","osm_id":"7429088033","tag":{"operator":"CITY CENTRE MANAGEMENT","ref:UK:leedscc:bin":"412"}},"type":"Feature"},
	{"geometry":{"coordinates":[-1.54037,53.795811],"type":"Point"},"properties":{"amenity":"waste_basket","osm_id":"7429088036","tag":{"operator":"CITY CENTRE MANAGEMENT","ref:UK:leedscc:bin":"728"}},"type":"Feature"},
	{"geometry":{"coordinates":[-1.537742,53.796468],"type":"Point"},"properties":{"amenity":"waste_basket","osm_id":"7429088039","tag":{"operator":"CITY CENTRE MANAGEMENT","ref:UK:leedscc:bin":"2277"}},"type":"Feature"},
	{"geometry":{"coordinates":[-1.544281,53.794354],"type":"Point"},"properties":{"amenity":"waste_basket","osm_id":"7429088047","tag":{"operator":"CITY CENTRE MANAGEMENT","ref:UK:leedscc:bin":"3152"}},"type":"Feature"},
	{"geometry":{"coordinates":[-1.537738,53.79614],"type":"Point"},"properties":{"amenity":"waste_basket","osm_id":"7429088048","tag":{"operator":"CITY CENTRE MANAGEMENT","ref:UK:leedscc:bin":"1313"}},"type":"Feature"},
	{"geometry":{"coordinates":[-1.544994,53.796143],"type":"Point"},"properties":{"amenity":"waste_basket","osm_id":"7429088049","tag":{"operator":"CITY CENTRE MANAGEMENT","ref:UK:leedscc:bin":"61"}},"type":"Feature"},
	{"geometry":{"coordinates":[-1.542676,53.796145],"type":"Point"},"properties":{"amenity":"waste_basket","osm_id":"7429088050","tag":{"operator":"CITY CENTRE MANAGEMENT","ref:UK:leedscc:bin":"419"}},"type":"Feature"},
	{"geometry":{"coordinates":[-1.53169,53.796976],"type":"Point"},"properties":{"amenity":"waste_basket","osm_id":"7429088053","tag":{"operator":"CITY CENTRE MANAGEMENT","ref:UK:leedscc:bin":"3789"}},"type":"Feature"},
	{"geometry":{"coordinates":[-1.541926,53.797222],"type":"Point"},"properties":{"amenity":"waste_basket","osm_id":"7429088054","tag":{"operator":"CITY CENTRE MANAGEMENT","ref:UK:leedscc:bin":"1647"}},"type":"Feature"},
	{"geometry":{"coordinates":[-1.540708,53.795939],"type":"Point"},"properties":{"amenity":"waste_basket","osm_id":"7429088057","tag":{"operator":"CITY CENTRE MANAGEMENT","ref:UK:leedscc:bin":"727"}},"type":"Feature"},
	{"geometry":{"coordinates":[-1.540743,53.797011],"type":"Point"},"properties":{"amenity":"waste_basket","osm_id":"7429088059","tag":{"operator":"CITY CENTRE MANAGEMENT","ref:UK:leedscc:bin":"1644"}},"type":"Feature"},
	{"geometry":{"coordinates":[-1.540442,53.797237],"type":"Point"},"properties":{"amenity":"waste_basket","osm_id":"7429088064","tag":{"operator":"CITY CENTRE MANAGEMENT","ref:UK:leedscc:bin":"3433"}},"type":"Feature"},
	{"geometry":{"coordinates":[-1.549263,53.800633],"type":"Point"},"properties":{"amenity":"waste_basket","osm_id":"7429088065","tag":{"operator":"CITY CENTRE MANAGEMENT","ref:UK:leedscc:bin":"521"}},"type":"Feature"},
	{"geometry":{"coordinates":[-1.544918,53.797809],"type":"Point"},"properties":{"amenity":"waste_basket","osm_id":"7429088067","tag":{"operator":"CITY CENTRE MANAGEMENT","ref:UK:leedscc:bin":"51"}},"type":"Feature"},
	{"geometry":{"coordinates":[-1.545886,53.795091],"type":"Point"},"properties":{"amenity":"waste_basket","osm_id":"7429088068","tag":{"operator":"CITY CENTRE MANAGEMENT","ref:UK:leedscc:bin":"2269"}},"type":"Feature"},
	{"geometry":{"coordinates":[-1.543292,53.798877],"type":"Point"},"properties":{"amenity":"waste_basket","osm_id":"7429088074","tag":{"operator":"CITY CENTRE MANAGEMENT","ref:UK:leedscc:bin":"1694"}},"type":"Feature"},
	{"geometry":{"coordinates":[-1.544694,53.79731],"type":"Point"},"properties":{"amenity":"waste_basket","osm_id":"7429088075","tag":{"operator":"CITY CENTRE MANAGEMENT","ref:UK:leedscc:bin":"761"}},"type":"Feature"},
	{"geometry":{"coordinates":[-1.549648,53.796301],"type":"Point"},"properties":{"amenity":"waste_basket","osm_id":"7429088079","tag":{"operator":"CITY CENTRE MANAGEMENT","ref:UK:leedscc:bin":"3523"}},"type":"Feature"},
	{"geometry":{"coordinates":[-1.542142,53.795925],"type":"Point"},"properties":{"amenity":"waste_basket","osm_id":"7429088084","tag":{"operator":"CITY CENTRE MANAGEMENT","ref:UK:leedscc:bin":"940"}},"type":"Feature"},
	{"geometry":{"coordinates":[-1.545821,53.795783],"type":"Point"},"properties":{"amenity":"waste_basket","osm_id":"7429088085","tag":{"operator":"CITY CENTRE MANAGEMENT","ref:UK:leedscc:bin":"266"}},"type":"Feature"},
	{"geometry":{"coordinates":[-1.540947,53.796978],"type":"Point"},"properties":{"amenity":"waste_basket","osm_id":"7429088087","tag":{"operator":"CITY CENTRE MANAGEMENT","ref:UK:leedscc:bin":"757"}},"type":"Feature"},
	{"geometry":{"coordinates":[-1.546166,53.795863],"type":"Point"},"properties":{"amenity":"waste_basket","osm_id":"7429088090","tag":{"operator":"CITY CENTRE MANAGEMENT","ref:UK:leedscc:bin":"267"}},"type":"Feature"},
	{"geometry":{"coordinates":[-1.540133,53.797474],"type":"Point"},"properties":{"amenity":"waste_basket","osm_id":"7429088092","tag":{"operator":"CITY CENTRE MANAGEMENT","ref:UK:leedscc:bin":"3429"}},"type":"Feature"},
	{"geometry":{"coordinates":[-1.542611,53.796803],"type":"Point"},"properties":{"amenity":"waste_basket","osm_id":"7429088093","tag":{"operator":"CITY CENTRE MANAGEMENT","ref:UK:leedscc:bin":"416"}},"type":"Feature"},
	{"geometry":{"coordinates":[-1.5488,53.797452],"type":"Point"},"properties":{"amenity":"waste_basket","osm_id":"7429088095","tag":{"operator":"CITY CENTRE MANAGEMENT","ref:UK:leedscc:bin":"1528"}},"type":"Feature"},
	{"geometry":{"coordinates":[-1.545033,53.798093],"type":"Point"},"properties":{"amenity":"waste_basket","osm_id":"7429088097","tag":{"operator":"CITY CENTRE MANAGEMENT","ref:UK:leedscc:bin":"55"}},"type":"Feature"},
	{"geometry":{"coordinates":[-1.541117,53.796842],"type":"Point"},"properties":{"amenity":"waste_basket","osm_id":"7429088098","tag":{"operator":"CITY CENTRE MANAGEMENT","ref:UK:leedscc:bin":"598"}},"type":"Feature"},
	{"geometry":{"coordinates":[-1.545092,53.797753],"type":"Point"},"properties":{"amenity":"waste_basket","osm_id":"7429088099","tag":{"operator":"CITY CENTRE MANAGEMENT","ref:UK:leedscc:bin":"66"}},"type":"Feature"},
	{"geometry":{"coordinates":[-1.541239,53.796514],"type":"Point"},"properties":{"amenity":"waste_basket","osm_id":"7429088101","tag":{"operator":"CITY CENTRE MANAGEMENT","ref:UK:leedscc:bin":"600"}},"type":"Feature"},
	{"geometry":{"coordinates":[-1.547723,53.797707],"type":"Point"},"properties":{"amenity":"waste_basket","osm_id":"7429088102","tag":{"operator":"CITY CENTRE MANAGEMENT","ref:UK:leedscc:bin":"285"}},"type":"Feature"},
	{"geometry":{"coordinates":[-1.541939,53.798728],"type":"Point"},"properties":{"amenity":"waste_basket","osm_id":"7429088110","tag":{"operator":"CITY CENTRE MANAGEMENT","ref:UK:leedscc:bin":"410"}},"type":"Feature"},
	{"geometry":{"coordinates":[-1.542673,53.796372],"type":"Point"},"properties":{"amenity":"waste_basket","osm_id":"7429088111","tag":{"operator":"CITY CENTRE MANAGEMENT","ref:UK:leedscc:bin":"418"}},"type":"Feature"},
	{"geometry":{"coordinates":[-1.540459,53.79743],"type":"Point"},"properties":{"amenity":"waste_basket","osm_id":"7429088113","tag":{"operator":"CITY CENTRE MANAGEMENT","ref:UK:leedscc:bin":"3434"}},"type":"Feature"},
	{"geometry":{"coordinates":[-1.557316,53.800326],"type":"Point"},"properties":{"amenity":"waste_basket","osm_id":"7429088114","tag":{"collection_times":"Mo","condition":"FAIR","ref:UK:leedscc:bin":"7231","waste_basket:model":"METAL TWIN"}},"type":"Feature"},
	{"geometry":{"coordinates":[-1.55303,53.799894],"type":"Point"},"properties":{"amenity":"waste_basket","osm_id":"7429088115","tag":{"operator":"CITY CENTRE MANAGEMENT","ref:UK:leedscc:bin":"2511"}},"type":"Feature"},
	{"geometry":{"coordinates":[-1.548161,53.797697],"type":"Point"},"properties":{"amenity":"waste_basket","osm_id":"7429088116","tag":{"operator":"CITY CENTRE MANAGEMENT","ref:UK:leedscc:bin":"281"}},"type":"Feature"},
	{"geometry":{"coordinates":[-1.542267,53.79679],"type":"Point"},"properties":{"amenity":"waste_basket","osm_id":"7429088121","tag":{"operator":"CITY CENTRE MANAGEMENT","ref:UK:leedscc:bin":"413"}},"type":"Feature"},
	{"geometry":{"coordinates":[-1.545049,53.796381],"type":"Point"},"properties":{"amenity":"waste_basket","osm_id":"7429088123","tag":{"operator":"CITY CENTRE MANAGEMENT","ref:UK:leedscc:bin":"60"}},"type":"Feature"},
	{"geometry":{"coordinates":[-1.548639,53.797628],"type":"Point"},"properties":{"amenity":"waste_basket","osm_id":"7429088124","tag":{"operator":"CITY CENTRE MANAGEMENT","ref:UK:leedscc:bin":"1523"}},"type":"Feature"},
	{"geometry":{"coordinates":[-1.556027,53.796737],"type":"Point"},"properties":{"amenity":"waste_basket","osm_id":"7429088125","tag":{"operator":"CITY CENTRE MANAGEMENT","ref:UK:leedscc:bin":"3532"}},"type":"Feature"},
	{"geometry":{"coordinates":[-1.542082,53.796129],"type":"Point"},"properties":{"amenity":"waste_basket","osm_id":"7429088126","tag":{"operator":"CITY CENTRE MANAGEMENT","ref:UK:leedscc:bin":"939"}},"type":"Feature"},
	{"geometry":{"coordinates":[-1.541315,53.796253],"type":"Point"},"properties":{"amenity":"waste_basket","osm_id":"7429088128","tag":{"operator":"CITY CENTRE MANAGEMENT","ref:UK:leedscc:bin":"599"}},"type":"Feature"},
	{"geometry":{"coordinates":[-1.547186,53.797752],"type":"Point"},"properties":{"amenity":"waste_basket","osm_id":"7429088133","tag":{"operator":"CITY CENTRE MANAGEMENT","ref:UK:leedscc:bin":"2522"}},"type":"Feature"},
	{"geometry":{"coordinates":[-1.543276,53.799062],"type":"Point"},"properties":{"amenity":"waste_basket","osm_id":"7429088134","tag":{"operator":"CITY CENTRE MANAGEMENT","ref:UK:leedscc:bin":"1695"}},"type":"Feature"},
	{"geometry":{"coordinates":[-1.541091,53.797118],"type":"Point"},"properties":{"amenity":"waste_basket","osm_id":"7429088135","tag":{"operator":"CITY CENTRE MANAGEMENT","ref:UK:leedscc:bin":"1645"}},"type":"Feature"},
	{"geometry":{"coordinates":[-1.535124,53.795489],"type":"Point"},"properties":{"amenity":"waste_basket","osm_id":"7429088137","tag":{"operator":"CITY CENTRE MANAGEMENT","ref:UK:leedscc:bin":"1635"}},"type":"Feature"},
	{"geometry":{"coordinates":[-1.545241,53.79814],"type":"Point"},"properties":{"amenity":"waste_basket","osm_id":"7429088139","tag":{"operator":"CITY CENTRE MANAGEMENT","ref:UK:leedscc:bin":"67"}},"type":"Feature"},
	{"geometry":{"coordinates":[-1.53504,53.795346],"type":"Point"},"properties":{"amenity":"waste_basket","osm_id":"7429088142","tag":{"operator":"CITY CENTRE MANAGEMENT","ref:UK:leedscc:bin":"1634"}},"type":"Feature"},
	{"geometry":{"coordinates":[-1.540438,53.797566],"type":"Point"},"properties":{"amenity":"waste_basket","osm_id":"7429088145","tag":{"operator":"CITY CENTRE MANAGEMENT","ref:UK:leedscc:bin":"3435"}},"type":"Feature"},
	{"geometry":{"coordinates":[-1.545097,53.797266],"type":"Point"},"properties":{"amenity":"waste_basket","osm_id":"7429088146","tag":{"operator":"CITY CENTRE MANAGEMENT","ref:UK:leedscc:bin":"64"}},"type":"Feature"},
	{"geometry":{"coordinates":[-1.546701,53.797714],"type":"Point"},"properties":{"amenity":"waste_basket","osm_id":"7429088151","tag":{"operator":"CITY CENTRE MANAGEMENT","ref:UK:leedscc:bin":"280"}},"type":"Feature"},
	{"geometry":{"coordinates":[-1.542701,53.799094],"type":"Point"},"properties":{"amenity":"waste_basket","osm_id":"7429088153","tag":{"operator":"CITY CENTRE MANAGEMENT","ref:UK:leedscc:bin":"3208"}},"type":"Feature"},
	{"geometry":{"coordinates":[-1.5481,53.797838],"type":"Point"},"properties":{"amenity":"waste_basket","osm_id":"7429088155","tag":{"operator":"CITY CENTRE MANAGEMENT","ref:UK:leedscc:bin":"284"}},"type":"Feature"},
	{"geometry":{"coordinates":[-1.546186,53.797531],"type":"Point"},"properties":{"amenity":"waste_basket","osm_id":"7429088157","tag":{"operator":"CITY CENTRE MANAGEMENT","ref:UK:leedscc:bin":"288"}},"type":"Feature"},
	{"geometry":{"coordinates":[-1.546384,53.795138],"type":"Point"},"properties":{"amenity":"waste_basket","osm_id":"7429088158","tag":{"operator":"CITY CENTRE MANAGEMENT","ref:UK:leedscc:bin":"2268"}},"type":"Feature"},
	{"geometry":{"coordinates":[-1.554317,53.796707],"type":"Point"},"properties":{"amenity":"waste_basket","osm_id":"7429088159","tag":{"operator":"CITY CENTRE MANAGEMENT","ref:UK:leedscc:bin":"3529"}},"type":"Feature"},
	{"geometry":{"coordinates":[-1.542614,53.79653],"type":"Point"},"properties":{"amenity":"waste_basket","osm_id":"7429088161","tag":{"operator":"CITY CENTRE MANAGEMENT","ref:UK:leedscc:bin":"417"}},"type":"Feature"},
	{"geometry":{"coordinates":[-1.541279,53.797179],"type":"Point"},"properties":{"amenity":"waste_basket","osm_id":"7429088162","tag":{"operator":"CITY CENTRE MANAGEMENT","ref:UK:leedscc:bin":"1646"}},"type":"Feature"},
	{"geometry":{"coordinates":[-1.548319,53.797827],"type":"Point"},"properties":{"amenity":"waste_basket","osm_id":"7429088163","tag":{"operator":"CITY CENTRE MANAGEMENT","ref:UK:leedscc:bin":"282"}},"type":"Feature"},
	{"geometry":{"coordinates":[-1.542798,53.794172],"type":"Point"},"properties":{"amenity":"waste_basket","osm_id":"7429088167","tag":{"operator":"CITY CENTRE MANAGEMENT","ref:UK:leedscc:bin":"3153"}},"type":"Feature"},
	{"geometry":{"coordinates":[-1.543128,53.799165],"type":"Point"},"properties":{"amenity":"waste_basket","osm_id":"7429088168","tag":{"operator":"CITY CENTRE MANAGEMENT","ref:UK:leedscc:bin":"3205"}},"type":"Feature"},
	{"geometry":{"coordinates":[-1.54228,53.799058],"type":"Point"},"properties":{"amenity":"waste_basket","osm_id":"7429088170","tag":{"operator":"CITY CENTRE MANAGEMENT","ref:UK:leedscc:bin":"3214"}},"type":"Feature"},
	{"geometry":{"coordinates":[-1.545238,53.7984],"type":"Point"},"properties":{"amenity":"waste_basket","osm_id":"7429088172","tag":{"operator":"CITY CENTRE MANAGEMENT","ref:UK:leedscc:bin":"68"}},"type":"Feature"},
	{"geometry":{"coordinates":[-1.561946,53.787198],"type":"Point"},"properties":{"amenity":"waste_basket","osm_id":"7429088173","tag":{"ref:UK:leedscc:bin":"923"}},"type":"Feature"},
	{"geometry":{"coordinates":[-1.555748,53.796842],"type":"Point"},"properties":{"amenity":"waste_basket","osm_id":"7429088174","tag":{"operator":"CITY CENTRE MANAGEMENT","ref:UK:leedscc:bin":"3531"}},"type":"Feature"},
	{"geometry":{"coordinates":[-1.549267,53.800292],"type":"Point"},"properties":{"amenity":"waste_basket","osm_id":"7429088176","tag":{"operator":"CITY CENTRE MANAGEMENT","ref:UK:leedscc:bin":"522"}},"type":"Feature"},
	{"geometry":{"coordinates":[-1.541493,53.79609],"type":"Point"},"properties":{"amenity":"waste_basket","osm_id":"7429088179","tag":{"operator":"CITY CENTRE MANAGEMENT","ref:UK:leedscc:bin":"938"}},"type":"Feature"},
	{"geometry":{"coordinates":[-1.542166,53.799047],"type":"Point"},"properties":{"amenity":"waste_basket","osm_id":"7429088180","tag":{"operator":"CITY CENTRE MANAGEMENT","ref:UK:leedscc:bin":"3209"}},"type":"Feature"},
	{"geometry":{"coordinates":[-1.549803,53.795678],"type":"Point"},"properties":{"amenity":"waste_basket","osm_id":"7429088184","tag":{"operator":"CITY CENTRE MANAGEMENT","ref:UK:leedscc:bin":"41"}},"type":"Feature"},
	{"geometry":{"coordinates":[-1.545326,53.797335],"type":"Point"},"properties":{"amenity":"waste_basket","osm_id":"7429088185","tag":{"operator":"CITY CENTRE MANAGEMENT","ref:UK:leedscc:bin":"65"}},"type":"Feature"},
	{"geometry":{"coordinates":[-1.545241,53.798479],"type":"Point"},"properties":{"amenity":"waste_basket","osm_id":"7429088186","tag":{"operator":"CITY CENTRE MANAGEMENT","ref:UK:leedscc:bin":"52"}},"type":"Feature"},
	{"geometry":{"coordinates":[-1.555132,53.796805],"type":"Point"},"properties":{"amenity":"waste_basket","osm_id":"7429088187","tag":{"operator":"CITY CENTRE MANAGEMENT","ref:UK:leedscc:bin":"3530"}},"type":"Feature"},
	{"geometry":{"coordinates":[-1.541513,53.795879],"type":"Point"},"properties":{"amenity":"waste_basket","osm_id":"7429088189","tag":{"operator":"CITY CENTRE MANAGEMENT","ref:UK:leedscc:bin":"937"}},"type":"Feature"},
	{"geometry":{"coordinates":[-1.543524,53.799211],"type":"Point"},"properties":{"amenity":"waste_basket","osm_id":"7429088192","tag":{"operator":"CITY CENTRE MANAGEMENT","ref:UK:leedscc:bin":"3207"}},"type":"Feature"},
	{"geometry":{"coordinates":[-1.549009,53.800232],"type":"Point"},"properties":{"amenity":"waste_basket","osm_id":"7429088194","tag":{"operator":"CITY CENTRE MANAGEMENT","ref:UK:leedscc:bin":"520"}},"type":"Feature"},
	{"geometry":{"coordinates":[-1.542327,53.796529],"type":"Point"},"properties":{"amenity":"waste_basket","osm_id":"7429088196","tag":{"operator":"CITY CENTRE MANAGEMENT","ref:UK:leedscc:bin":"414"}},"type":"Feature"},
	{"geometry":{"coordinates":[-1.541872,53.799018],"type":"Point"},"properties":{"amenity":"waste_basket","osm_id":"7429088198","tag":{"operator":"CITY CENTRE MANAGEMENT","ref:UK:leedscc:bin":"973"}},"type":"Feature"},
	{"geometry":{"coordinates":[-1.540398,53.797747],"type":"Point"},"properties":{"amenity":"waste_basket","osm_id":"7429088199","tag":{"operator":"CITY CENTRE MANAGEMENT","ref:UK:leedscc:bin":"3437"}},"type":"Feature"},
	{"geometry":{"coordinates":[-1.545222,53.798593],"type":"Point"},"properties":{"amenity":"waste_basket","osm_id":"7429088200","tag":{"operator":"CITY CENTRE MANAGEMENT","ref:UK:leedscc:bin":"56"}},"type":"Feature"},
	{"geometry":{"coordinates":[-1.541859,53.799023],"type":"Point"},"properties":{"amenity":"waste_basket","osm_id":"7429088201","tag":{"operator":"CITY CENTRE MANAGEMENT","ref:UK:leedscc:bin":"980"}},"type":"Feature"},
	{"geometry":{"coordinates":[-1.549195,53.797689],"type":"Point"},"properties":{"amenity":"waste_basket","osm_id":"7429088203","tag":{"operator":"CITY CENTRE MANAGEMENT","ref:UK:leedscc:bin":"1529"}},"type":"Feature"},
	{"geometry":{"coordinates":[-1.548597,53.797899],"type":"Point"},"properties":{"amenity":"waste_basket","osm_id":"7429088204","tag":{"operator":"CITY CENTRE MANAGEMENT","ref:UK:leedscc:bin":"283"}},"type":"Feature"},
	{"geometry":{"coordinates":[-1.545249,53.79663],"type":"Point"},"properties":{"amenity":"waste_basket","osm_id":"7429088205","tag":{"operator":"CITY CENTRE MANAGEMENT","ref:UK:leedscc:bin":"54"}},"type":"Feature"},
	{"geometry":{"coordinates":[-1.544967,53.798826],"type":"Point"},"properties":{"amenity":"waste_basket","osm_id":"7429088206","tag":{"operator":"CITY CENTRE MANAGEMENT","ref:UK:leedscc:bin":"57"}},"type":"Feature"},
	{"geometry":{"coordinates":[-1.54717,53.800619],"type":"Point"},"properties":{"amenity":"waste_basket","osm_id":"7429088208","tag":{"operator":"CITY CENTRE MANAGEMENT","ref:UK:leedscc:bin":"783"}},"type":"Feature"},
	{"geometry":{"coordinates":[-1.557735,53.80053],"type":"Point"},"properties":{"amenity":"waste_basket","osm_id":"7429088210","tag":{"collection_times":"Mo","condition":"FAIR","ref:UK:leedscc:bin":"7232","waste_basket:model":"METAL TWIN"}},"type":"Feature"},
	{"geometry":{"coordinates":[-1.54567,53.797416],"type":"Point"},"properties":{"amenity":"waste_basket","osm_id":"7429088212","tag":{"operator":"CITY CENTRE MANAGEMENT","ref:UK:leedscc:bin":"287"}},"type":"Feature"},
	{"geometry":{"coordinates":[-1.545348,53.797085],"type":"Point"},"properties":{"amenity":"waste_basket","osm_id":"7429088215","tag":{"operator":"CITY CENTRE MANAGEMENT","ref:UK:leedscc:bin":"63"}},"type":"Feature"},
	{"geometry":{"coordinates":[-1.547004,53.797999],"type":"Point"},"properties":{"amenity":"waste_basket","osm_id":"7429088217","tag":{"operator":"CITY CENTRE MANAGEMENT","ref:UK:leedscc:bin":"2521"}},"type":"Feature"},
	{"geometry":{"coordinates":[-1.545071,53.7967],"type":"Point"},"properties":{"amenity":"waste_basket","osm_id":"7429088219","tag":{"operator":"CITY CENTRE MANAGEMENT","ref:UK:leedscc:bin":"53"}},"type":"Feature"},
	{"geometry":{"coordinates":[-1.552199,53.799561],"type":"Point"},"properties":{"amenity":"waste_basket","osm_id":"7429088220","tag":{"operator":"CITY CENTRE MANAGEMENT","ref:UK:leedscc:bin":"3577"}},"type":"Feature"},
	{"geometry":{"coordinates":[-1.5504,53.796669],"type":"Point"},"properties":{"amenity":"waste_basket","osm_id":"7429088221","tag":{"operator":"CITY CENTRE MANAGEMENT","ref:UK:leedscc:bin":"1618"}},"type":"Feature"},
	{"geometry":{"coordinates":[-1.539994,53.797938],"type":"Point"},"properties":{"amenity":"waste_basket","osm_id":"7429088223","tag":{"operator":"CITY CENTRE MANAGEMENT","ref:UK:leedscc:bin":"3436"}},"type":"Feature"},
	{"geometry":{"coordinates":[-1.550443,53.796363],"type":"Point"},"properties":{"amenity":"waste_basket","osm_id":"7429088224","tag":{"operator":"CITY CENTRE MANAGEMENT","ref:UK:leedscc:bin":"3524"}},"type":"Feature"},
	{"geometry":{"coordinates":[-1.544463,53.799157],"type":"Point"},"properties":{"amenity":"waste_basket","osm_id":"7429088226","tag":{"operator":"CITY CENTRE MANAGEMENT","ref:UK:leedscc:bin":"1583"}},"type":"Feature"},
	{"geometry":{"coordinates":[-1.545082,53.796823],"type":"Point"},"properties":{"amenity":"waste_basket","osm_id":"7429088228","tag":{"operator":"CITY CENTRE MANAGEMENT","ref:UK:leedscc:bin":"62"}},"type":"Feature"},
	{"geometry":{"coordinates":[-1.544004,53.799281],"type":"Point"},"properties":{"amenity":"waste_basket","osm_id":"7429088229","tag":{"operator":"CITY CENTRE MANAGEMENT","ref:UK:leedscc:bin":"3204"}},"type":"Feature"},
	{"geometry":{"coordinates":[-1.54266,53.799332],"type":"Point"},"properties":{"amenity":"waste_basket","osm_id":"7429088232","tag":{"operator":"CITY CENTRE MANAGEMENT","ref:UK:leedscc:bin":"3210"}},"type":"Feature"},
	{"geometry":{"coordinates":[-1.546464,53.794583],"type":"Point"},"properties":{"amenity":"waste_basket","osm_id":"7429088233","tag":{"operator":"CITY CENTRE MANAGEMENT","ref:UK:leedscc:bin":"2222"}},"type":"Feature"},
	{"geometry":{"coordinates":[-1.536747,53.798776],"type":"Point"},"properties":{"amenity":"waste_basket","osm_id":"7429088234","tag":{"operator":"CITY CENTRE MANAGEMENT","ref:UK:leedscc:bin":"986"}},"type":"Feature"},
	{"geometry":{"coordinates":[-1.549114,53.797842],"type":"Point"},"properties":{"amenity":"waste_basket","osm_id":"7429088236","tag":{"operator":"CITY CENTRE MANAGEMENT","ref:UK:leedscc:bin":"1524"}},"type":"Feature"},
	{"geometry":{"coordinates":[-1.5414,53.798953],"type":"Point"},"properties":{"amenity":"waste_basket","osm_id":"7429088237","tag":{"operator":"CITY CENTRE MANAGEMENT","ref:UK:leedscc:bin":"979"}},"type":"Feature"},
	{"geometry":{"coordinates":[-1.54312,53.799379],"type":"Point"},"properties":{"amenity":"waste_basket","osm_id":"7429088238","tag":{"operator":"CITY CENTRE MANAGEMENT","ref:UK:leedscc:bin":"3211"}},"type":"Feature"},
	{"geometry":{"coordinates":[-1.542249,53.799284],"type":"Point"},"properties":{"amenity":"waste_basket","osm_id":"7429088239","tag":{"operator":"CITY CENTRE MANAGEMENT","ref:UK:leedscc:bin":"3206"}},"type":"Feature"},
	{"geometry":{"coordinates":[-1.54737,53.800369],"type":"Point"},"properties":{"amenity":"waste_basket","osm_id":"7429088242","tag":{"operator":"CITY CENTRE MANAGEMENT","ref:UK:leedscc:bin":"784"}},"type":"Feature"},
	{"geometry":{"coordinates":[-1.536883,53.798573],"type":"Point"},"properties":{"amenity":"waste_basket","osm_id":"7429088247","tag":{"operator":"CITY CENTRE MANAGEMENT","ref:UK:leedscc:bin":"985"}},"type":"Feature"},
	{"geometry":{"coordinates":[-1.543579,53.799426],"type":"Point"},"properties":{"amenity":"waste_basket","osm_id":"7429088252","tag":{"operator":"CITY CENTRE MANAGEMENT","ref:UK:leedscc:bin":"3212"}},"type":"Feature"},
	{"geometry":{"coordinates":[-1.541812,53.799234],"type":"Point"},"properties":{"amenity":"waste_basket","osm_id":"7429088255","tag":{"operator":"CITY CENTRE MANAGEMENT","ref:UK:leedscc:bin":"974"}},"type":"Feature"},
	{"geometry":{"coordinates":[-1.553166,53.796456],"type":"Point"},"properties":{"amenity":"waste_basket","osm_id":"7429088256","tag":{"operator":"CITY CENTRE MANAGEMENT","ref:UK:leedscc:bin":"3528"}},"type":"Feature"},
	{"geometry":{"coordinates":[-1.539971,53.798062],"type":"Point"},"properties":{"amenity":"waste_basket","osm_id":"7429088257","tag":{"operator":"CITY CENTRE MANAGEMENT","ref:UK:leedscc:bin":"3415"}},"type":"Feature"},
	{"geometry":{"coordinates":[-1.550375,53.79714],"type":"Point"},"properties":{"amenity":"waste_basket","osm_id":"7429088258","tag":{"operator":"CITY CENTRE MANAGEMENT","ref:UK:leedscc:bin":"1617"}},"type":"Feature"},
	{"geometry":{"coordinates":[-1.541723,53.799238],"type":"Point"},"properties":{"amenity":"waste_basket","osm_id":"7429088261","tag":{"operator":"CITY CENTRE MANAGEMENT","ref:UK:leedscc:bin":"994"}},"type":"Feature"},
	{"geometry":{"coordinates":[-1.548972,53.799961],"type":"Point"},"properties":{"amenity":"waste_basket","osm_id":"7429088263","tag":{"operator":"CITY CENTRE MANAGEMENT","ref:UK:leedscc:bin":"519"}},"type":"Feature"},
	{"geometry":{"coordinates":[-1.546745,53.794588],"type":"Point"},"properties":{"amenity":"waste_basket","osm_id":"7429088269","tag":{"operator":"CITY CENTRE MANAGEMENT","ref:UK:leedscc:bin":"2221"}},"type":"Feature"},
	{"geometry":{"coordinates":[-1.547107,53.800335],"type":"Point"},"properties":{"amenity":"waste_basket","osm_id":"7429088270","tag":{"operator":"CITY CENTRE MANAGEMENT","ref:UK:leedscc:bin":"785"}},"type":"Feature"},
	{"geometry":{"coordinates":[-1.539942,53.798123],"type":"Point"},"properties":{"amenity":"waste_basket","osm_id":"7429088272","tag":{"operator":"CITY CENTRE MANAGEMENT","ref:UK:leedscc:bin":"3416"}},"type":"Feature"},
	{"geometry":{"coordinates":[-1.549271,53.799938],"type":"Point"},"properties":{"amenity":"waste_basket","osm_id":"7429088276","tag":{"operator":"CITY CENTRE MANAGEMENT","ref:UK:leedscc:bin":"523"}},"type":"Feature"},
	{"geometry":{"coordinates":[-1.539947,53.798136],"type":"Point"},"properties":{"amenity":"waste_basket","osm_id":"7429088277","tag":{"operator":"CITY CENTRE MANAGEMENT","ref:UK:leedscc:bin":"3419"}},"type":"Feature"},
	{"geometry":{"coordinates":[-1.543239,53.751545],"type":"Point"},"properties":{"amenity":"waste_basket","osm_id":"7429088280","tag":{"collection_times":"Th","condition":"GOOD","ref:UK:leedscc:bin":"8266","waste_basket:model":"METAL SQUARE"}},"type":"Feature"},
	{"geometry":{"coordinates":[-1.534289,53.795462],"type":"Point"},"properties":{"amenity":"waste_basket","osm_id":"7429088282","tag":{"operator":"CITY CENTRE MANAGEMENT","ref:UK:leedscc:bin":"1633"}},"type":"Feature"},
	{"geometry":{"coordinates":[-1.548515,53.799924],"type":"Point"},"properties":{"amenity":"waste_basket","osm_id":"7429088283","tag":{"operator":"CITY CENTRE MANAGEMENT","ref:UK:leedscc:bin":"518"}},"type":"Feature"},
	{"geometry":{"coordinates":[-1.542008,53.79942],"type":"Point"},"properties":{"amenity":"waste_basket","osm_id":"7429088288","tag":{"operator":"CITY CENTRE MANAGEMENT","ref:UK:leedscc:bin":"2232"}},"type":"Feature"},
	{"geometry":{"coordinates":[-1.55241,53.796547],"type":"Point"},"properties":{"amenity":"waste_basket","osm_id":"7429088289","tag":{"operator":"CITY CENTRE MANAGEMENT","ref:UK:leedscc:bin":"3527"}},"type":"Feature"},
	{"geometry":{"coordinates":[-1.540193,53.798141],"type":"Point"},"properties":{"amenity":"waste_basket","osm_id":"7429088292","tag":{"operator":"CITY CENTRE MANAGEMENT","ref:UK:leedscc:bin":"3417"}},"type":"Feature"},
	{"geometry":{"coordinates":[-1.540183,53.798143],"type":"Point"},"properties":{"amenity":"waste_basket","osm_id":"7429088293","tag":{"operator":"CITY CENTRE MANAGEMENT","ref:UK:leedscc:bin":"3438"}},"type":"Feature"},
	{"geometry":{"coordinates":[-1.547344,53.800157],"type":"Point"},"properties":{"amenity":"waste_basket","osm_id":"7429088294","tag":{"operator":"CITY CENTRE MANAGEMENT","ref:UK:leedscc:bin":"786"}},"type":"Feature"},
	{"geometry":{"coordinates":[-1.540187,53.798154],"type":"Point"},"properties":{"amenity":"waste_basket","osm_id":"7429088296","tag":{"operator":"CITY CENTRE MANAGEMENT","ref:UK:leedscc:bin":"3418"}},"type":"Feature"},
	{"geometry":{"coordinates":[-1.544057,53.799519],"type":"Point"},"properties":{"amenity":"waste_basket","osm_id":"7429088298","tag":{"operator":"CITY CENTRE MANAGEMENT","ref:UK:leedscc:bin":"928"}},"type":"Feature"},
	{"geometry":{"coordinates":[-1.545172,53.799149],"type":"Point"},"properties":{"amenity":"waste_basket","osm_id":"7429088299","tag":{"operator":"CITY CENTRE MANAGEMENT","ref:UK:leedscc:bin":"69"}},"type":"Feature"},
	{"geometry":{"coordinates":[-1.540807,53.798894],"type":"Point"},"properties":{"amenity":"waste_basket","osm_id":"7429088302","tag":{"operator":"CITY CENTRE MANAGEMENT","ref:UK:leedscc:bin":"978"}},"type":"Feature"},
	{"geometry":{"coordinates":[-1.550641,53.795741],"type":"Point"},"properties":{"amenity":"waste_basket","osm_id":"7429088304","tag":{"operator":"CITY CENTRE MANAGEMENT","ref:UK:leedscc:bin":"40"}},"type":"Feature"},
	{"geometry":{"coordinates":[-1.544941,53.799307],"type":"Point"},"properties":{"amenity":"waste_basket","osm_id":"7429088310","tag":{"operator":"CITY CENTRE MANAGEMENT","ref:UK:leedscc:bin":"70"}},"type":"Feature"},
	{"geometry":{"coordinates":[-1.541111,53.799156],"type":"Point"},"properties":{"amenity":"waste_basket","osm_id":"7429088313","tag":{"operator":"CITY CENTRE MANAGEMENT","ref:UK:leedscc:bin":"993"}},"type":"Feature"},
	{"geometry":{"coordinates":[-1.551854,53.79977],"type":"Point"},"properties":{"amenity":"waste_basket","osm_id":"7429088317","tag":{"operator":"CITY CENTRE MANAGEMENT","ref:UK:leedscc:bin":"3575"}},"type":"Feature"},
	{"geometry":{"coordinates":[-1.543768,53.799631],"type":"Point"},"properties":{"amenity":"waste_basket","osm_id":"7429088318","tag":{"operator":"CITY CENTRE MANAGEMENT","ref:UK:leedscc:bin":"929"}},"type":"Feature"},
	{"geometry":{"coordinates":[-1.551622,53.799559],"type":"Point"},"properties":{"amenity":"waste_basket","osm_id":"7429088319","tag":{"operator":"CITY CENTRE MANAGEMENT","ref:UK:leedscc:bin":"3576"}},"type":"Feature"},
	{"geometry":{"coordinates":[-1.539866,53.798285],"type":"Point"},"properties":{"amenity":"waste_basket","osm_id":"7429088320","tag":{"operator":"CITY CENTRE MANAGEMENT","ref:UK:leedscc:bin":"3420"}},"type":"Feature"},
	{"geometry":{"coordinates":[-1.54442,53.79952],"type":"Point"},"properties":{"amenity":"waste_basket","osm_id":"7429088321","tag":{"operator":"CITY CENTRE MANAGEMENT","ref:UK:leedscc:bin":"3203"}},"type":"Feature"},
	{"geometry":{"coordinates":[-1.544234,53.793474],"type":"Point"},"properties":{"amenity":"waste_basket","osm_id":"7429088322","tag":{"operator":"CITY CENTRE MANAGEMENT","ref:UK:leedscc:bin":"2929"}},"type":"Feature"},
	{"geometry":{"coordinates":[-1.541741,53.799464],"type":"Point"},"properties":{"amenity":"waste_basket","osm_id":"7429088324","tag":{"operator":"CITY CENTRE MANAGEMENT","ref:UK:leedscc:bin":"2228"}},"type":"Feature"},
	{"geometry":{"coordinates":[-1.540124,53.79829],"type":"Point"},"properties":{"amenity":"waste_basket","osm_id":"7429088328","tag":{"operator":"CITY CENTRE MANAGEMENT","ref:UK:leedscc:bin":"3439"}},"type":"Feature"},
	{"geometry":{"coordinates":[-1.55106,53.796283],"type":"Point"},"properties":{"amenity":"waste_basket","osm_id":"7429088329","tag":{"operator":"CITY CENTRE MANAGEMENT","ref:UK:leedscc:bin":"3525"}},"type":"Feature"},
	{"geometry":{"coordinates":[-1.54692,53.798411],"type":"Point"},"properties":{"amenity":"waste_basket","osm_id":"7429088334","tag":{"operator":"CITY CENTRE MANAGEMENT","ref:UK:leedscc:bin":"2520"}},"type":"Feature"},
	{"geometry":{"coordinates":[-1.549017,53.799719],"type":"Point"},"properties":{"amenity":"waste_basket","osm_id":"7429088335","tag":{"operator":"CITY CENTRE MANAGEMENT","ref:UK:leedscc:bin":"3227"}},"type":"Feature"},
	{"geometry":{"coordinates":[-1.54193,53.79959],"type":"Point"},"properties":{"amenity":"waste_basket","osm_id":"7429088336","tag":{"operator":"CITY CENTRE MANAGEMENT","ref:UK:leedscc:bin":"2233"}},"type":"Feature"},
	{"geometry":{"coordinates":[-1.547091,53.80005],"type":"Point"},"properties":{"amenity":"waste_basket","osm_id":"7429088339","tag":{"operator":"CITY CENTRE MANAGEMENT","ref:UK:leedscc:bin":"787"}},"type":"Feature"},
	{"geometry":{"coordinates":[-1.537904,53.798207],"type":"Point"},"properties":{"amenity":"waste_basket","osm_id":"7429088340","tag":{"operator":"CITY CENTRE MANAGEMENT","ref:UK:leedscc:bin":"969"}},"type":"Feature"},
	{"geometry":{"coordinates":[-1.547328,53.799951],"type":"Point"},"properties":{"amenity":"waste_basket","osm_id":"7429088341","tag":{"operator":"CITY CENTRE MANAGEMENT","ref:UK:leedscc:bin":"790"}},"type":"Feature"},
	{"geometry":{"coordinates":[-1.548634,53.799706],"type":"Point"},"properties":{"amenity":"waste_basket","osm_id":"7429088342","tag":{"operator":"CITY CENTRE MANAGEMENT","ref:UK:leedscc:bin":"3222"}},"type":"Feature"},
	{"geometry":{"coordinates":[-1.54515,53.799409],"type":"Point"},"properties":{"amenity":"waste_basket","osm_id":"7429088347","tag":{"operator":"CITY CENTRE MANAGEMENT","ref:UK:leedscc:bin":"71"}},"type":"Feature"},
	{"geometry":{"coordinates":[-1.549993,53.799754],"type":"Point"},"properties":{"amenity":"waste_basket","osm_id":"7429088349","tag":{"operator":"CITY CENTRE MANAGEMENT","ref:UK:leedscc:bin":"3574"}},"type":"Feature"},
	{"geometry":{"coordinates":[-1.546607,53.793971],"type":"Point"},"properties":{"amenity":"waste_basket","osm_id":"7429088351","tag":{"operator":"CITY CENTRE MANAGEMENT","ref:UK:leedscc:bin":"2223"}},"type":"Feature"},
	{"geometry":{"coordinates":[-1.544823,53.799556],"type":"Point"},"properties":{"amenity":"waste_basket","osm_id":"7429088352","tag":{"operator":"CITY CENTRE MANAGEMENT","ref:UK:leedscc:bin":"3213"}},"type":"Feature"},
	{"geometry":{"coordinates":[-1.548232,53.799693],"type":"Point"},"properties":{"amenity":"waste_basket","osm_id":"7429088354","tag":{"operator":"CITY CENTRE MANAGEMENT","ref:UK:leedscc:bin":"3223"}},"type":"Feature"},
	{"geometry":{"coordinates":[-1.540613,53.799086],"type":"Point"},"properties":{"amenity":"waste_basket","osm_id":"7429088355","tag":{"operator":"CITY CENTRE MANAGEMENT","ref:UK:leedscc:bin":"992"}},"type":"Feature"},
	{"geometry":{"coordinates":[-1.54034,53.798859],"type":"Point"},"properties":{"amenity":"waste_basket","osm_id":"7429088356","tag":{"operator":"CITY CENTRE MANAGEMENT","ref:UK:leedscc:bin":"972"}},"type":"Feature"},
	{"geometry":{"coordinates":[-1.537493,53.798847],"type":"Point"},"properties":{"amenity":"waste_basket","osm_id":"7429088357","tag":{"operator":"CITY CENTRE MANAGEMENT","ref:UK:leedscc:bin":"987"}},"type":"Feature"},
	{"geometry":{"coordinates":[-1.549508,53.79822],"type":"Point"},"properties":{"amenity":"waste_basket","osm_id":"7429088358","tag":{"operator":"CITY CENTRE MANAGEMENT","ref:UK:leedscc:bin":"947"}},"type":"Feature"},
	{"geometry":{"coordinates":[-1.540007,53.798505],"type":"Point"},"properties":{"amenity":"waste_basket","osm_id":"7429088362","tag":{"operator":"CITY CENTRE MANAGEMENT","ref:UK:leedscc:bin":"3440"}},"type":"Feature"},
	{"geometry":{"coordinates":[-1.539778,53.798464],"type":"Point"},"properties":{"amenity":"waste_basket","osm_id":"7429088363","tag":{"operator":"CITY CENTRE MANAGEMENT","ref:UK:leedscc:bin":"3421"}},"type":"Feature"},
	{"geometry":{"coordinates":[-1.544054,53.79978],"type":"Point"},"properties":{"amenity":"waste_basket","osm_id":"7429088364","tag":{"operator":"CITY CENTRE MANAGEMENT","ref:UK:leedscc:bin":"930"}},"type":"Feature"},
	{"geometry":{"coordinates":[-1.546346,53.798585],"type":"Point"},"properties":{"amenity":"waste_basket","osm_id":"7429088365","tag":{"operator":"CITY CENTRE MANAGEMENT","ref:UK:leedscc:bin":"286"}},"type":"Feature"},
	{"geometry":{"coordinates":[-1.547944,53.799692],"type":"Point"},"properties":{"amenity":"waste_basket","osm_id":"7429088366","tag":{"operator":"CITY CENTRE MANAGEMENT","ref:UK:leedscc:bin":"3224"}},"type":"Feature"},
	{"geometry":{"coordinates":[-1.547164,53.798568],"type":"Point"},"properties":{"amenity":"waste_basket","osm_id":"7429088369","tag":{"operator":"CITY CENTRE MANAGEMENT","ref:UK:leedscc:bin":"2517"}},"type":"Feature"},
	{"geometry":{"coordinates":[-1.547676,53.799714],"type":"Point"},"properties":{"amenity":"waste_basket","osm_id":"7429088373","tag":{"operator":"CITY CENTRE MANAGEMENT","ref:UK:leedscc:bin":"3225"}},"type":"Feature"},
	{"geometry":{"coordinates":[-1.537687,53.798644],"type":"Point"},"properties":{"amenity":"waste_basket","osm_id":"7429088376","tag":{"operator":"CITY CENTRE MANAGEMENT","ref:UK:leedscc:bin":"984"}},"type":"Feature"},
	{"geometry":{"coordinates":[-1.551398,53.796286],"type":"Point"},"properties":{"amenity":"waste_basket","osm_id":"7429088384","tag":{"operator":"CITY CENTRE MANAGEMENT","ref:UK:leedscc:bin":"3519"}},"type":"Feature"},
	{"geometry":{"coordinates":[-1.551562,53.796412],"type":"Point"},"properties":{"amenity":"waste_basket","osm_id":"7429088385","tag":{"operator":"CITY CENTRE MANAGEMENT","ref:UK:leedscc:bin":"3526"}},"type":"Feature"},
	{"geometry":{"coordinates":[-1.54008,53.798823],"type":"Point"},"properties":{"amenity":"waste_basket","osm_id":"7429088387","tag":{"operator":"CITY CENTRE MANAGEMENT","ref:UK:leedscc:bin":"981"}},"type":"Feature"},
	{"geometry":{"coordinates":[-1.547408,53.799713],"type":"Point"},"properties":{"amenity":"waste_basket","osm_id":"7429088390","tag":{"operator":"CITY CENTRE MANAGEMENT","ref:UK:leedscc:bin":"3226"}},"type":"Feature"},
	{"geometry":{"coordinates":[-1.54028,53.799072],"type":"Point"},"properties":{"amenity":"waste_basket","osm_id":"7429088394","tag":{"operator":"CITY CENTRE MANAGEMENT","ref:UK:leedscc:bin":"971"}},"type":"Feature"},
	{"geometry":{"coordinates":[-1.548844,53.799499],"type":"Point"},"properties":{"amenity":"waste_basket","osm_id":"7429088396","tag":{"operator":"CITY CENTRE MANAGEMENT","ref:UK:leedscc:bin":"3199"}},"type":"Feature"},
	{"geometry":{"coordinates":[-1.549395,53.799503],"type":"Point"},"properties":{"amenity":"waste_basket","osm_id":"7429088397","tag":{"operator":"CITY CENTRE MANAGEMENT","ref:UK:leedscc:bin":"3573"}},"type":"Feature"},
	{"geometry":{"coordinates":[-1.560914,53.785972],"type":"Point"},"properties":{"amenity":"waste_basket","osm_id":"7429088399","tag":{"ref:UK:leedscc:bin":"927"}},"type":"Feature"},
	{"geometry":{"coordinates":[-1.541749,53.799803],"type":"Point"},"properties":{"amenity":"waste_basket","osm_id":"7429088400","tag":{"operator":"CITY CENTRE MANAGEMENT","ref:UK:leedscc:bin":"2227"}},"type":"Feature"},
	{"geometry":{"coordinates":[-1.551187,53.79984],"type":"Point"},"properties":{"amenity":"waste_basket","osm_id":"7429088401","tag":{"operator":"CITY CENTRE MANAGEMENT","ref:UK:leedscc:bin":"2524"}},"type":"Feature"},
	{"geometry":{"coordinates":[-1.547047,53.799777],"type":"Point"},"properties":{"amenity":"waste_basket","osm_id":"7429088404","tag":{"operator":"CITY CENTRE MANAGEMENT","ref:UK:leedscc:bin":"788"}},"type":"Feature"},
	{"geometry":{"coordinates":[-1.550361,53.798128],"type":"Point"},"properties":{"amenity":"waste_basket","osm_id":"7429088406","tag":{"operator":"CITY CENTRE MANAGEMENT","ref:UK:leedscc:bin":"2974"}},"type":"Feature"},
	{"geometry":{"coordinates":[-1.548126,53.799504],"type":"Point"},"properties":{"amenity":"waste_basket","osm_id":"7429088408","tag":{"operator":"CITY CENTRE MANAGEMENT","ref:UK:leedscc:bin":"3200"}},"type":"Feature"},
	{"geometry":{"coordinates":[-1.539707,53.79864],"type":"Point"},"properties":{"amenity":"waste_basket","osm_id":"7429088409","tag":{"operator":"CITY CENTRE MANAGEMENT","ref:UK:leedscc:bin":"3422"}},"type":"Feature"},
	{"geometry":{"coordinates":[-1.549236,53.799432],"type":"Point"},"properties":{"amenity":"waste_basket","osm_id":"7429088413","tag":{"operator":"CITY CENTRE MANAGEMENT","ref:UK:leedscc:bin":"944"}},"type":"Feature"},
	{"geometry":{"coordinates":[-1.545359,53.799626],"type":"Point"},"properties":{"amenity":"waste_basket","osm_id":"7429088414","tag":{"operator":"CITY CENTRE MANAGEMENT","ref:UK:leedscc:bin":"3215"}},"type":"Feature"},
	{"geometry":{"coordinates":[-1.546886,53.793776],"type":"Point"},"properties":{"amenity":"waste_basket","osm_id":"7429088418","tag":{"operator":"CITY CENTRE MANAGEMENT","ref:UK:leedscc:bin":"2220"}},"type":"Feature"},
	{"geometry":{"coordinates":[-1.541697,53.799873],"type":"Point"},"properties":{"amenity":"waste_basket","osm_id":"7429088420","tag":{"operator":"CITY CENTRE MANAGEMENT","ref:UK:leedscc:bin":"2237"}},"type":"Feature"},
	{"geometry":{"coordinates":[-1.547678,53.750926],"type":"Point"},"properties":{"amenity":"waste_basket","osm_id":"7429088424","tag":{"collection_times":"Th","condition":"GOOD","ref:UK:leedscc:bin":"3351","waste_basket:model":"METAL SQUARE"}},"type":"Feature"},
	{"geometry":{"coordinates":[-1.538556,53.7987],"type":"Point"},"properties":{"amenity":"waste_basket","osm_id":"7429088428","tag":{"operator":"CITY CENTRE MANAGEMENT","ref:UK:leedscc:bin":"970"}},"type":"Feature"},
	{"geometry":{"coordinates":[-1.53941,53.798752],"type":"Point"},"properties":{"amenity":"waste_basket","osm_id":"7429088432","tag":{"operator":"CITY CENTRE MANAGEMENT","ref:UK:leedscc:bin":"982"}},"type":"Feature"},
	{"geometry":{"coordinates":[-1.546871,53.799699],"type":"Point"},"properties":{"amenity":"waste_basket","osm_id":"7429088435","tag":{"operator":"CITY CENTRE MANAGEMENT","ref:UK:leedscc:bin":"3219"}},"type":"Feature"},
	{"geometry":{"coordinates":[-1.539924,53.799049],"type":"Point"},"properties":{"amenity":"waste_basket","osm_id":"7429088438","tag":{"operator":"CITY CENTRE MANAGEMENT","ref:UK:leedscc:bin":"991"}},"type":"Feature"},
	{"geometry":{"coordinates":[-1.53966,53.798762],"type":"Point"},"properties":{"amenity":"waste_basket","osm_id":"7429088439","tag":{"operator":"CITY CENTRE MANAGEMENT","ref:UK:leedscc:bin":"3423"}},"type":"Feature"},
	{"geometry":{"coordinates":[-1.538036,53.798888],"type":"Point"},"properties":{"amenity":"waste_basket","osm_id":"7429088443","tag":{"operator":"CITY CENTRE MANAGEMENT","ref:UK:leedscc:bin":"968"}},"type":"Feature"},
	{"geometry":{"coordinates":[-1.538165,53.79868],"type":"Point"},"properties":{"amenity":"waste_basket","osm_id":"7429088444","tag":{"operator":"CITY CENTRE MANAGEMENT","ref:UK:leedscc:bin":"983"}},"type":"Feature"},
	{"geometry":{"coordinates":[-1.545333,53.793105],"type":"Point"},"properties":{"amenity":"waste_basket","osm_id":"7429088446","tag":{"operator":"CITY CENTRE MANAGEMENT","ref:UK:leedscc:bin":"2930"}},"type":"Feature"},
	{"geometry":{"coordinates":[-1.544776,53.799977],"type":"Point"},"properties":{"amenity":"waste_basket","osm_id":"7429088454","tag":{"operator":"CITY CENTRE MANAGEMENT","ref:UK:leedscc:bin":"3704"}},"type":"Feature"},
	{"geometry":{"coordinates":[-1.546062,53.799455],"type":"Point"},"properties":{"amenity":"waste_basket","osm_id":"7429088455","tag":{"operator":"CITY CENTRE MANAGEMENT","ref:UK:leedscc:bin":"3202"}},"type":"Feature"},
	{"geometry":{"coordinates":[-1.54898,53.799266],"type":"Point"},"properties":{"amenity":"waste_basket","osm_id":"7429088458","tag":{"operator":"CITY CENTRE MANAGEMENT","ref:UK:leedscc:bin":"945"}},"type":"Feature"},
	{"geometry":{"coordinates":[-1.531338,53.795238],"type":"Point"},"properties":{"amenity":"waste_basket","osm_id":"7429088461","tag":{"ref:UK:leedscc:bin":"4512"}},"type":"Feature"},
	{"geometry":{"coordinates":[-1.541351,53.799939],"type":"Point"},"properties":{"amenity":"waste_basket","osm_id":"7429088462","tag":{"operator":"CITY CENTRE MANAGEMENT","ref:UK:leedscc:bin":"2238"}},"type":"Feature"},
	{"geometry":{"coordinates":[-1.545087,53.799931],"type":"Point"},"properties":{"amenity":"waste_basket","osm_id":"7429088463","tag":{"operator":"CITY CENTRE MANAGEMENT","ref:UK:leedscc:bin":"72"}},"type":"Feature"},
	{"geometry":{"coordinates":[-1.547203,53.799466],"type":"Point"},"properties":{"amenity":"waste_basket","osm_id":"7429088468","tag":{"operator":"CITY CENTRE MANAGEMENT","ref:UK:leedscc:bin":"3201"}},"type":"Feature"},
	{"geometry":{"coordinates":[-1.545799,53.799661],"type":"Point"},"properties":{"amenity":"waste_basket","osm_id":"7429088470","tag":{"operator":"CITY CENTRE MANAGEMENT","ref:UK:leedscc:bin":"3216"}},"type":"Feature"},
	{"geometry":{"coordinates":[-1.546565,53.799664],"type":"Point"},"properties":{"amenity":"waste_basket","osm_id":"7429088474","tag":{"operator":"CITY CENTRE MANAGEMENT","ref:UK:leedscc:bin":"3218"}},"type":"Feature"},
	{"geometry":{"coordinates":[-1.528193,53.798],"type":"Point"},"properties":{"amenity":"waste_basket","osm_id":"7429088476","tag":{"ref:UK:leedscc:bin":"4188"}},"type":"Feature"},
	{"geometry":{"coordinates":[-1.541942,53.793205],"type":"Point"},"properties":{"amenity":"waste_basket","osm_id":"7429088477","tag":{"operator":"CITY CENTRE MANAGEMENT","ref:UK:leedscc:bin":"3499"}},"type":"Feature"},
	{"geometry":{"coordinates":[-1.546915,53.79894],"type":"Point"},"properties":{"amenity":"waste_basket","osm_id":"7429088478","tag":{"operator":"CITY CENTRE MANAGEMENT","ref:UK:leedscc:bin":"2519"}},"type":"Feature"},
	{"geometry":{"coordinates":[-1.547658,53.798993],"type":"Point"},"properties":{"amenity":"waste_basket","osm_id":"7429088481","tag":{"operator":"CITY CENTRE MANAGEMENT","ref:UK:leedscc:bin":"2914"}},"type":"Feature"},
	{"geometry":{"coordinates":[-1.547168,53.799424],"type":"Point"},"properties":{"amenity":"waste_basket","osm_id":"7429088482","tag":{"operator":"CITY CENTRE MANAGEMENT","ref:UK:leedscc:bin":"2518"}},"type":"Feature"},
	{"geometry":{"coordinates":[-1.541503,53.800065],"type":"Point"},"properties":{"amenity":"waste_basket","osm_id":"7429088485","tag":{"operator":"CITY CENTRE MANAGEMENT","ref:UK:leedscc:bin":"2236"}},"type":"Feature"},
	{"geometry":{"coordinates":[-1.549063,53.798866],"type":"Point"},"properties":{"amenity":"waste_basket","osm_id":"7429088487","tag":{"operator":"CITY CENTRE MANAGEMENT","ref:UK:leedscc:bin":"946"}},"type":"Feature"},
	{"geometry":{"coordinates":[-1.546099,53.793141],"type":"Point"},"properties":{"amenity":"waste_basket","osm_id":"7429088488","tag":{"operator":"CITY CENTRE MANAGEMENT","ref:UK:leedscc:bin":"2931"}},"type":"Feature"},
	{"geometry":{"coordinates":[-1.539541,53.798991],"type":"Point"},"properties":{"amenity":"waste_basket","osm_id":"7429088490","tag":{"operator":"CITY CENTRE MANAGEMENT","ref:UK:leedscc:bin":"990"}},"type":"Feature"},
	{"geometry":{"coordinates":[-1.538623,53.79892],"type":"Point"},"properties":{"amenity":"waste_basket","osm_id":"7429088496","tag":{"operator":"CITY CENTRE MANAGEMENT","ref:UK:leedscc:bin":"988"}},"type":"Feature"},
	{"geometry":{"coordinates":[-1.546816,53.799484],"type":"Point"},"properties":{"amenity":"waste_basket","osm_id":"7429088498","tag":{"operator":"CITY CENTRE MANAGEMENT","ref:UK:leedscc:bin":"3221"}},"type":"Feature"},
	{"geometry":{"coordinates":[-1.539044,53.798967],"type":"Point"},"properties":{"amenity":"waste_basket","osm_id":"7429088501","tag":{"operator":"CITY CENTRE MANAGEMENT","ref:UK:leedscc:bin":"989"}},"type":"Feature"},
	{"geometry":{"coordinates":[-1.546281,53.799675],"type":"Point"},"properties":{"amenity":"waste_basket","osm_id":"7429088502","tag":{"operator":"CITY CENTRE MANAGEMENT","ref:UK:leedscc:bin":"3217"}},"type":"Feature"},
	{"geometry":{"coordinates":[-1.548033,53.799167],"type":"Point"},"properties":{"amenity":"waste_basket","osm_id":"7429088505","tag":{"operator":"CITY CENTRE MANAGEMENT","ref:UK:leedscc:bin":"2915"}},"type":"Feature"},
	{"geometry":{"coordinates":[-1.542231,53.793024],"type":"Point"},"properties":{"amenity":"waste_basket","osm_id":"7429088508","tag":{"operator":"CITY CENTRE MANAGEMENT","ref:UK:leedscc:bin":"3498"}},"type":"Feature"},
	{"geometry":{"coordinates":[-1.541463,53.800178],"type":"Point"},"properties":{"amenity":"waste_basket","osm_id":"7429088515","tag":{"operator":"CITY CENTRE MANAGEMENT","ref:UK:leedscc:bin":"2235"}},"type":"Feature"},
	{"geometry":{"coordinates":[-1.546529,53.799483],"type":"Point"},"properties":{"amenity":"waste_basket","osm_id":"7429088519","tag":{"operator":"CITY CENTRE MANAGEMENT","ref:UK:leedscc:bin":"3220"}},"type":"Feature"},
	{"geometry":{"coordinates":[-1.545023,53.800498],"type":"Point"},"properties":{"amenity":"waste_basket","osm_id":"7429088520","tag":{"operator":"CITY CENTRE MANAGEMENT","ref:UK:leedscc:bin":"74"}},"type":"Feature"},
	{"geometry":{"coordinates":[-1.546863,53.799353],"type":"Point"},"properties":{"amenity":"waste_basket","osm_id":"7429088521","tag":{"operator":"CITY CENTRE MANAGEMENT","ref:UK:leedscc:bin":"2516"}},"type":"Feature"},
	{"geometry":{"coordinates":[-1.548352,53.750829],"type":"Point"},"properties":{"amenity":"waste_basket","osm_id":"7429088522","tag":{"collection_times":"Th","condition":"GOOD","ref:UK:leedscc:bin":"3350","waste_basket:model":"METAL SQUARE"}},"type":"Feature"},
	{"geometry":{"coordinates":[-1.546788,53.793235],"type":"Point"},"properties":{"amenity":"waste_basket","osm_id":"7429088523","tag":{"operator":"CITY CENTRE MANAGEMENT","ref:UK:leedscc:bin":"2224"}},"type":"Feature"},
	{"geometry":{"coordinates":[-1.544701,53.800262],"type":"Point"},"properties":{"amenity":"waste_basket","osm_id":"7429088525","tag":{"operator":"CITY CENTRE MANAGEMENT","ref:UK:leedscc:bin":"3705"}},"type":"Feature"},
	{"geometry":{"coordinates":[-1.545044,53.800328],"type":"Point"},"properties":{"amenity":"waste_basket","osm_id":"7429088536","tag":{"operator":"CITY CENTRE MANAGEMENT","ref:UK:leedscc:bin":"73"}},"type":"Feature"},
	{"geometry":{"coordinates":[-1.539541,53.799358],"type":"Point"},"properties":{"amenity":"waste_basket","osm_id":"7429088538","tag":{"operator":"CITY CENTRE MANAGEMENT","ref:UK:leedscc:bin":"3424"}},"type":"Feature"},
	{"geometry":{"coordinates":[-1.541099,53.800188],"type":"Point"},"properties":{"amenity":"waste_basket","osm_id":"7429088540","tag":{"operator":"CITY CENTRE MANAGEMENT","ref:UK:leedscc:bin":"2239"}},"type":"Feature"},
	{"geometry":{"coordinates":[-1.539538,53.799483],"type":"Point"},"properties":{"amenity":"waste_basket","osm_id":"7429088550","tag":{"operator":"CITY CENTRE MANAGEMENT","ref:UK:leedscc:bin":"3425"}},"type":"Feature"},
	{"geometry":{"coordinates":[-1.539747,53.79967],"type":"Point"},"properties":{"amenity":"waste_basket","osm_id":"7429088557","tag":{"operator":"CITY CENTRE MANAGEMENT","ref:UK:leedscc:bin":"3426"}},"type":"Feature"},
	{"geometry":{"coordinates":[-1.544621,53.800508],"type":"Point"},"properties":{"amenity":"waste_basket","osm_id":"7429088569","tag":{"operator":"CITY CENTRE MANAGEMENT","ref:UK:leedscc:bin":"75"}},"type":"Feature"},
	{"geometry":{"coordinates":[-1.535074,53.792762],"type":"Point"},"properties":{"amenity":"waste_basket","osm_id":"7429088570","tag":{"operator":"CITY CENTRE MANAGEMENT","ref:UK:leedscc:bin":"857"}},"type":"Feature"},
	{"geometry":{"coordinates":[-1.541212,53.800393],"type":"Point"},"properties":{"amenity":"waste_basket","osm_id":"7429088579","tag":{"operator":"CITY CENTRE MANAGEMENT","ref:UK:leedscc:bin":"2234"}},"type":"Feature"},
	{"geometry":{"coordinates":[-1.540886,53.800414],"type":"Point"},"properties":{"amenity":"waste_basket","osm_id":"7429088600","tag":{"operator":"CITY CENTRE MANAGEMENT","ref:UK:leedscc:bin":"2240"}},"type":"Feature"},
	{"geometry":{"coordinates":[-1.541557,53.792749],"type":"Point"},"properties":{"amenity":"waste_basket","osm_id":"7429088602","tag":{"operator":"CITY CENTRE MANAGEMENT","ref:UK:leedscc:bin":"393"}},"type":"Feature"},
	{"geometry":{"coordinates":[-1.539505,53.799842],"type":"Point"},"properties":{"amenity":"waste_basket","osm_id":"7429088618","tag":{"operator":"CITY CENTRE MANAGEMENT","ref:UK:leedscc:bin":"3427"}},"type":"Feature"},
	{"geometry":{"coordinates":[-1.539691,53.800066],"type":"Point"},"properties":{"amenity":"waste_basket","osm_id":"7429088633","tag":{"operator":"CITY CENTRE MANAGEMENT","ref:UK:leedscc:bin":"3428"}},"type":"Feature"},
	{"geometry":{"coordinates":[-1.541857,53.792452],"type":"Point"},"properties":{"amenity":"waste_basket","osm_id":"7429088652","tag":{"operator":"CITY CENTRE MANAGEMENT","ref:UK:leedscc:bin":"394"}},"type":"Feature"},
	{"geometry":{"coordinates":[-1.534005,53.792666],"type":"Point"},"properties":{"amenity":"waste_basket","osm_id":"7429088666","tag":{"operator":"CITY CENTRE MANAGEMENT","ref:UK:leedscc:bin":"858"}},"type":"Feature"},
	{"geometry":{"coordinates":[-1.55932,53.784895],"type":"Point"},"properties":{"amenity":"waste_basket","osm_id":"7429088675","tag":{"ref:UK:leedscc:bin":"926"}},"type":"Feature"},
	{"geometry":{"coordinates":[-1.529414,53.794945],"type":"Point"},"properties":{"amenity":"waste_basket","osm_id":"7429088682","tag":{"ref:UK:leedscc:bin":"4511"}},"type":"Feature"},
	{"geometry":{"coordinates":[-1.529172,53.79503],"type":"Point"},"properties":{"amenity":"waste_basket","osm_id":"7429088690","tag":{"ref:UK:leedscc:bin":"4510"}},"type":"Feature"},
	{"geometry":{"coordinates":[-1.527106,53.796563],"type":"Point"},"properties":{"amenity":"waste_basket","osm_id":"7429088709","tag":{"ref:UK:leedscc:bin":"4508"}},"type":"Feature"},
	{"geometry":{"coordinates":[-1.562981,53.800548],"type":"Point"},"properties":{"amenity":"waste_basket","osm_id":"7429088712","tag":{"collection_times":"Mo","condition":"GOOD","ref:UK:leedscc:bin":"4527","waste_basket:model":"METAL SQUARE"}},"type":"Feature"},
	{"geometry":{"coordinates":[-1.559476,53.784639],"type":"Point"},"properties":{"amenity":"waste_basket","osm_id":"7429088714","tag":{"ref:UK:leedscc:bin":"925"}},"type":"Feature"},
	{"geometry":{"coordinates":[-1.52641,53.79986],"type":"Point"},"properties":{"amenity":"waste_basket","osm_id":"7429088738","tag":{"ref:UK:leedscc:bin":"495"}},"type":"Feature"},
	{"geometry":{"coordinates":[-1.526026,53.798548],"type":"Point"},"properties":{"amenity":"waste_basket","osm_id":"7429088740","tag":{"ref:UK:leedscc:bin":"3753"}},"type":"Feature"},
	{"geometry":{"coordinates":[-1.528108,53.795297],"type":"Point"},"properties":{"amenity":"waste_basket","osm_id":"7429088742","tag":{"ref:UK:leedscc:bin":"4509"}},"type":"Feature"},
	{"geometry":{"coordinates":[-1.559232,53.784466],"type":"Point"},"properties":{"amenity":"waste_basket","osm_id":"7429088746","tag":{"ref:UK:leedscc:bin":"3275"}},"type":"Feature"},
	{"geometry":{"coordinates":[-1.557401,53.784799],"type":"Point"},"properties":{"amenity":"waste_basket","osm_id":"7429088749","tag":{"ref:UK:leedscc:bin":"1480"}},"type":"Feature"},
	{"geometry":{"coordinates":[-1.560778,53.784357],"type":"Point"},"properties":{"amenity":"waste_basket","osm_id":"7429088757","tag":{"ref:UK:leedscc:bin":"836"}},"type":"Feature"},
	{"geometry":{"coordinates":[-1.544968,53.791458],"type":"Point"},"properties":{"amenity":"waste_basket","osm_id":"7429088778","tag":{"operator":"CITY CENTRE MANAGEMENT","ref:UK:leedscc:bin":"1154"}},"type":"Feature"},
	{"geometry":{"coordinates":[-1.544593,53.748828],"type":"Point"},"properties":{"amenity":"waste_basket","osm_id":"7429088783","tag":{"collection_times":"Th","condition":"GOOD","ref:UK:leedscc:bin":"2123","waste_basket:model":"METAL SQUARE"}},"type":"Feature"},
	{"geometry":{"coordinates":[-1.546212,53.791588],"type":"Point"},"properties":{"amenity":"waste_basket","osm_id":"7429088785","tag":{"operator":"CITY CENTRE MANAGEMENT","ref:UK:leedscc:bin":"1153"}},"type":"Feature"},
	{"geometry":{"coordinates":[-1.559201,53.78411],"type":"Point"},"properties":{"amenity":"waste_basket","osm_id":"7429088804","tag":{"ref:UK:leedscc:bin":"924"}},"type":"Feature"},
	{"geometry":{"coordinates":[-1.547923,53.748978],"type":"Point"},"properties":{"amenity":"waste_basket","osm_id":"7429088805","tag":{"collection_times":"Th","condition":"GOOD","ref:UK:leedscc:bin":"2142","waste_basket:model":"METAL SQUARE"}},"type":"Feature"},
	{"geometry":{"coordinates":[-1.52551,53.799671],"type":"Point"},"properties":{"amenity":"waste_basket","osm_id":"7429088811","tag":{"ref:UK:leedscc:bin":"494"}},"type":"Feature"},
	{"geometry":{"coordinates":[-1.529305,53.793903],"type":"Point"},"properties":{"amenity":"waste_basket","osm_id":"7429088823","tag":{"ref:UK:leedscc:bin":"4513"}},"type":"Feature"},
	{"geometry":{"coordinates":[-1.538806,53.751257],"type":"Point"},"properties":{"amenity":"waste_basket","osm_id":"7429088825","tag":{"collection_times":"Th","condition":"GOOD","ref:UK:leedscc:bin":"8257","waste_basket:model":"METAL SQUARE"}},"type":"Feature"},
	{"geometry":{"coordinates":[-1.564263,53.78429],"type":"Point"},"properties":{"amenity":"waste_basket","osm_id":"7429088878","tag":{"ref:UK:leedscc:bin":"1535"}},"type":"Feature"},
	{"geometry":{"coordinates":[-1.541433,53.748781],"type":"Point"},"properties":{"amenity":"waste_basket","osm_id":"7429088896","tag":{"collection_times":"Th","condition":"GOOD","ref:UK:leedscc:bin":"2128","waste_basket:model":"METAL SQUARE"}},"type":"Feature"},
	{"geometry":{"coordinates":[-1.563052,53.783701],"type":"Point"},"properties":{"amenity":"waste_basket","osm_id":"7429088925","tag":{"ref:UK:leedscc:bin":"458"}},"type":"Feature"},
	{"geometry":{"coordinates":[-1.558953,53.783445],"type":"Point"},"properties":{"amenity":"waste_basket","osm_id":"7429088929","tag":{"ref:UK:leedscc:bin":"3276"}},"type":"Feature"},
	{"geometry":{"coordinates":[-1.54075,53.74881],"type":"Point"},"properties":{"amenity":"waste_basket","osm_id":"7429088942","tag":{"collection_times":"Th","condition":"GOOD","ref:UK:leedscc:bin":"2129","waste_basket:model":"METAL SQUARE"}},"type":"Feature"},
	{"geometry":{"coordinates":[-1.555272,53.784293],"type":"Point"},"properties":{"amenity":"waste_basket","osm_id":"7429088951","tag":{"ref:UK:leedscc:bin":"1479"}},"type":"Feature"},
	{"geometry":{"coordinates":[-1.537785,53.75092],"type":"Point"},"properties":{"amenity":"waste_basket","osm_id":"7429088961","tag":{"collection_times":"Mo-Fr","condition":"POOR","ref:UK:leedscc:bin":"3346","waste_basket:model":"PLASTIC POST BIN"}},"type":"Feature"},
	{"geometry":{"coordinates":[-1.524066,53.797258],"type":"Point"},"properties":{"amenity":"waste_basket","osm_id":"7429088979","tag":{"ref:UK:leedscc:bin":"3754"}},"type":"Feature"},
	{"geometry":{"coordinates":[-1.528517,53.793201],"type":"Point"},"properties":{"amenity":"waste_basket","osm_id":"7429088986","tag":{"ref:UK:leedscc:bin":"4514"}},"type":"Feature"},
	{"geometry":{"coordinates":[-1.537357,53.750901],"type":"Point"},"properties":{"amenity":"waste_basket","osm_id":"7429089009","tag":{"collection_times":"Mo-Fr","condition":"GOOD","ref:UK:leedscc:bin":"3345","waste_basket:model":"METAL SQUARE"}},"type":"Feature"},
	{"geometry":{"coordinates":[-1.528495,53.793001],"type":"Point"},"properties":{"amenity":"waste_basket","osm_id":"7429089026","tag":{"ref:UK:leedscc:bin":"4515"}},"type":"Feature"},
	{"geometry":{"coordinates":[-1.537102,53.750902],"type":"Point"},"properties":{"amenity":"waste_basket","osm_id":"7429089041","tag":{"collection_times":"Mo-Fr","condition":"GOOD","ref:UK:leedscc:bin":"8256","waste_basket:model":"METAL SQUARE"}},"type":"Feature"},
	{"geometry":{"coordinates":[-1.552907,53.749982],"type":"Point"},"properties":{"amenity":"waste_basket","osm_id":"7429089047","tag":{"collection_times":"Th","condition":"FAIR","ref:UK:leedscc:bin":"3292","waste_basket:model":"METAL TWIN"}},"type":"Feature"},
	{"geometry":{"coordinates":[-1.565275,53.783685],"type":"Point"},"properties":{"amenity":"waste_basket","osm_id":"7429089059","tag":{"ref:UK:leedscc:bin":"454"}},"type":"Feature"},
	{"geometry":{"coordinates":[-1.566287,53.783834],"type":"Point"},"properties":{"amenity":"waste_basket","osm_id":"7429089114","tag":{"ref:UK:leedscc:bin":"457"}},"type":"Feature"},
	{"geometry":{"coordinates":[-1.527152,53.793076],"type":"Point"},"properties":{"amenity":"waste_basket","osm_id":"7429089118","tag":{"ref:UK:leedscc:bin":"2707"}},"type":"Feature"},
	{"geometry":{"coordinates":[-1.523018,53.800035],"type":"Point"},"properties":{"amenity":"waste_basket","osm_id":"7429089119","tag":{"ref:UK:leedscc:bin":"2709"}},"type":"Feature"},
	{"geometry":{"coordinates":[-1.536375,53.750849],"type":"Point"},"properties":{"amenity":"waste_basket","osm_id":"7429089135","tag":{"collection_times":"Th","condition":"GOOD","ref:UK:leedscc:bin":"8255","waste_basket:model":"METAL SQUARE"}},"type":"Feature"},
	{"geometry":{"coordinates":[-1.522359,53.798158],"type":"Point"},"properties":{"amenity":"waste_basket","osm_id":"7429089160","tag":{"ref:UK:leedscc:bin":"3756"}},"type":"Feature"},
	{"geometry":{"coordinates":[-1.567204,53.783717],"type":"Point"},"properties":{"amenity":"waste_basket","osm_id":"7429089198","tag":{"ref:UK:leedscc:bin":"455"}},"type":"Feature"},
	{"geometry":{"coordinates":[-1.567763,53.784035],"type":"Point"},"properties":{"amenity":"waste_basket","osm_id":"7429089199","tag":{"ref:UK:leedscc:bin":"456"}},"type":"Feature"},
	{"geometry":{"coordinates":[-1.55401,53.783279],"type":"Point"},"properties":{"amenity":"waste_basket","osm_id":"7429089204","tag":{"ref:UK:leedscc:bin":"2202"}},"type":"Feature"},
	{"geometry":{"coordinates":[-1.521871,53.797851],"type":"Point"},"properties":{"amenity":"waste_basket","osm_id":"7429089214","tag":{"ref:UK:leedscc:bin":"3755"}},"type":"Feature"},
	{"geometry":{"coordinates":[-1.564631,53.782455],"type":"Point"},"properties":{"amenity":"waste_basket","osm_id":"7429089229","tag":{"ref:UK:leedscc:bin":"1536"}},"type":"Feature"},
	{"geometry":{"coordinates":[-1.535224,53.751094],"type":"Point"},"properties":{"amenity":"waste_basket","osm_id":"7429089238","tag":{"collection_times":"Th","condition":"GOOD","ref:UK:leedscc:bin":"8254","waste_basket:model":"METAL SQUARE"}},"type":"Feature"},
	{"geometry":{"coordinates":[-1.523754,53.794308],"type":"Point"},"properties":{"amenity":"waste_basket","osm_id":"7429089259","tag":{"ref:UK:leedscc:bin":"3389"}},"type":"Feature"},
	{"geometry":{"coordinates":[-1.536397,53.748915],"type":"Point"},"properties":{"amenity":"waste_basket","osm_id":"7429089294","tag":{"collection_times":"Th","condition":"GOOD","ref:UK:leedscc:bin":"4383","waste_basket:model":"METAL TWIN"}},"type":"Feature"},
	{"geometry":{"coordinates":[-1.535112,53.750174],"type":"Point"},"properties":{"amenity":"waste_basket","osm_id":"7429089300","tag":{"collection_times":"Th","condition":"GOOD","ref:UK:leedscc:bin":"2886","waste_basket:model":"METAL SQUARE"}},"type":"Feature"},
	{"geometry":{"coordinates":[-1.569386,53.792091],"type":"Point"},"properties":{"amenity":"waste_basket","osm_id":"7429089325","tag":{"collection_times":"Mo; Th","condition":"POOR","ref:UK:leedscc:bin":"4673","waste_basket:model":"METAL TWIN"}},"type":"Feature"},
	{"geometry":{"coordinates":[-1.55086,53.784054],"type":"Point"},"properties":{"amenity":"waste_basket","osm_id":"7429089342","tag":{"collection_times":"Tu","condition":"GOOD","ref:UK:leedscc:bin":"8915","waste_basket:model":"METAL SQUARE"}},"type":"Feature"},
	{"geometry":{"coordinates":[-1.555971,53.749357],"type":"Point"},"properties":{"amenity":"waste_basket","osm_id":"7429089370","tag":{"collection_times":"Tu","condition":"GOOD","ref:UK:leedscc:bin":"3354","waste_basket:model":"METAL SQUARE"}},"type":"Feature"},
	{"geometry":{"coordinates":[-1.569706,53.795494],"type":"Point"},"properties":{"amenity":"waste_basket","osm_id":"7429089373","tag":{"collection_times":"Mo; Th","condition":"GOOD","ref:UK:leedscc:bin":"535","waste_basket:model":"METAL TWIN"}},"type":"Feature"},
	{"geometry":{"coordinates":[-1.570278,53.792023],"type":"Point"},"properties":{"amenity":"waste_basket","osm_id":"7429089374","tag":{"collection_times":"Mo; Th","condition":"GOOD","ref:UK:leedscc:bin":"4674","waste_basket:model":"METAL SQUARE"}},"type":"Feature"},
	{"geometry":{"coordinates":[-1.559259,53.780956],"type":"Point"},"properties":{"amenity":"waste_basket","osm_id":"7429089379","tag":{"ref:UK:leedscc:bin":"597"}},"type":"Feature"},
	{"geometry":{"coordinates":[-1.553283,53.782085],"type":"Point"},"properties":{"amenity":"waste_basket","osm_id":"7429089395","tag":{"ref:UK:leedscc:bin":"2203"}},"type":"Feature"},
	{"geometry":{"coordinates":[-1.520228,53.796263],"type":"Point"},"properties":{"amenity":"waste_basket","osm_id":"7429089423","tag":{"ref:UK:leedscc:bin":"949"}},"type":"Feature"},
	{"geometry":{"coordinates":[-1.53291,53.753502],"type":"Point"},"properties":{"amenity":"waste_basket","osm_id":"7429089431","tag":{"collection_times":"Fr","condition":"GOOD","ref:UK:leedscc:bin":"4396","waste_basket:model":"METAL SQUARE"}},"type":"Feature"},
	{"geometry":{"coordinates":[-1.533732,53.74991],"type":"Point"},"properties":{"amenity":"waste_basket","osm_id":"7429089434","tag":{"collection_times":"Th","condition":"GOOD","ref:UK:leedscc:bin":"4381","waste_basket:model":"METAL SQUARE"}},"type":"Feature"},
	{"geometry":{"coordinates":[-1.53351,53.750201],"type":"Point"},"properties":{"amenity":"waste_basket","osm_id":"7429089438","tag":{"collection_times":"Th","condition":"GOOD","ref:UK:leedscc:bin":"4380","waste_basket:model":"METAL SQUARE"}},"type":"Feature"},
	{"geometry":{"coordinates":[-1.523095,53.792745],"type":"Point"},"properties":{"amenity":"waste_basket","osm_id":"7429089450","tag":{"ref:UK:leedscc:bin":"3388"}},"type":"Feature"},
	{"geometry":{"coordinates":[-1.53407,53.749068],"type":"Point"},"properties":{"amenity":"waste_basket","osm_id":"7429089464","tag":{"collection_times":"Sa","condition":"GOOD","ref:UK:leedscc:bin":"4382","waste_basket:model":"METAL SQUARE"}},"type":"Feature"},
	{"geometry":{"coordinates":[-1.551973,53.782054],"type":"Point"},"properties":{"amenity":"waste_basket","osm_id":"7429089486","tag":{"collection_times":"Tu","condition":"GOOD","ref:UK:leedscc:bin":"8919","waste_basket:model":"METAL SQUARE"}},"type":"Feature"},
	{"geometry":{"coordinates":[-1.532368,53.751132],"type":"Point"},"properties":{"amenity":"waste_basket","osm_id":"7429089501","tag":{"collection_times":"Mo-Fr","condition":"GOOD","ref:UK:leedscc:bin":"8253","waste_basket:model":"METAL SQUARE"}},"type":"Feature"},
	{"geometry":{"coordinates":[-1.557734,53.780204],"type":"Point"},"properties":{"amenity":"waste_basket","osm_id":"7429089521","tag":{"ref:UK:leedscc:bin":"2032"}},"type":"Feature"},
	{"geometry":{"coordinates":[-1.519357,53.795533],"type":"Point"},"properties":{"amenity":"waste_basket","osm_id":"7429089534","tag":{"ref:UK:leedscc:bin":"4507"}},"type":"Feature"},
	{"geometry":{"coordinates":[-1.572913,53.791177],"type":"Point"},"properties":{"amenity":"waste_basket","osm_id":"7429089539","tag":{"collection_times":"Mo; Th","condition":"GOOD","ref:UK:leedscc:bin":"4675","waste_basket:model":"METAL SQUARE"}},"type":"Feature"},
	{"geometry":{"coordinates":[-1.558862,53.779989],"type":"Point"},"properties":{"amenity":"waste_basket","osm_id":"7429089542","tag":{"ref:UK:leedscc:bin":"596"}},"type":"Feature"},
	{"geometry":{"coordinates":[-1.549414,53.783059],"type":"Point"},"properties":{"amenity":"waste_basket","osm_id":"7429089543","tag":{"collection_times":"Tu","condition":"POOR","ref:UK:leedscc:bin":"8916","waste_basket:model":"METAL TWIN"}},"type":"Feature"},
	{"geometry":{"coordinates":[-1.51841,53.797811],"type":"Point"},"properties":{"amenity":"waste_basket","osm_id":"7429089544","tag":{"ref:UK:leedscc:bin":"4190"}},"type":"Feature"},
	{"geometry":{"coordinates":[-1.532586,53.749646],"type":"Point"},"properties":{"amenity":"waste_basket","osm_id":"7429089545","tag":{"collection_times":"Th","condition":"GOOD","ref:UK:leedscc:bin":"4372","waste_basket:model":"METAL SQUARE"}},"type":"Feature"},
	{"geometry":{"coordinates":[-1.51963,53.794864],"type":"Point"},"properties":{"amenity":"waste_basket","osm_id":"7429089549","tag":{"ref:UK:leedscc:bin":"4506"}},"type":"Feature"},
	{"geometry":{"coordinates":[-1.518292,53.798149],"type":"Point"},"properties":{"amenity":"waste_basket","osm_id":"7429089553","tag":{"ref:UK:leedscc:bin":"3757"}},"type":"Feature"},
	{"geometry":{"coordinates":[-1.550128,53.782352],"type":"Point"},"properties":{"amenity":"waste_basket","osm_id":"7429089563","tag":{"collection_times":"Tu","condition":"GOOD","ref:UK:leedscc:bin":"8920","waste_basket:model":"METAL SQUARE"}},"type":"Feature"},
	{"geometry":{"coordinates":[-1.531472,53.751112],"type":"Point"},"properties":{"amenity":"waste_basket","osm_id":"7429089573","tag":{"collection_times":"Mo-Fr","condition":"GOOD","ref:UK:leedscc:bin":"8252","waste_basket:model":"METAL SQUARE"}},"type":"Feature"},
	{"geometry":{"coordinates":[-1.517924,53.799193],"type":"Point"},"properties":{"amenity":"waste_basket","osm_id":"7429089581","tag":{"ref:UK:leedscc:bin":"4191"}},"type":"Feature"},
	{"geometry":{"coordinates":[-1.549813,53.782157],"type":"Point"},"properties":{"amenity":"waste_basket","osm_id":"7429089602","tag":{"collection_times":"Tu","condition":"POOR","ref:UK:leedscc:bin":"1519","waste_basket:model":"METAL TWIN"}},"type":"Feature"},
	{"geometry":{"coordinates":[-1.573512,53.791493],"type":"Point"},"properties":{"amenity":"waste_basket","osm_id":"7429089605","tag":{"collection_times":"Mo; Th","condition":"GOOD","ref:UK:leedscc:bin":"4676","waste_basket:model":"METAL SQUARE"}},"type":"Feature"},
	{"geometry":{"coordinates":[-1.560105,53.753091],"type":"Point"},"properties":{"amenity":"waste_basket","osm_id":"7429089634","tag":{"collection_times":"Tu","condition":"GOOD","ref:UK:leedscc:bin":"453","waste_basket:model":"METAL SQUARE"}},"type":"Feature"},
	{"geometry":{"coordinates":[-1.517351,53.798684],"type":"Point"},"properties":{"amenity":"waste_basket","osm_id":"7429089635","tag":{"ref:UK:leedscc:bin":"4189"}},"type":"Feature"},
	{"geometry":{"coordinates":[-1.530473,53.752758],"type":"Point"},"properties":{"amenity":"waste_basket","osm_id":"7429089646","tag":{"collection_times":"We","condition":"GOOD","ref:UK:leedscc:bin":"4369","waste_basket:model":"METAL SQUARE"}},"type":"Feature"},
	{"geometry":{"coordinates":[-1.517315,53.799603],"type":"Point"},"properties":{"amenity":"waste_basket","osm_id":"7429089647","tag":{"ref:UK:leedscc:bin":"2504"}},"type":"Feature"},
	{"geometry":{"coordinates":[-1.551377,53.780987],"type":"Point"},"properties":{"amenity":"waste_basket","osm_id":"7429089648","tag":{"collection_times":"Tu","condition":"GOOD","ref:UK:leedscc:bin":"10515","waste_basket:model":"METAL SQUARE"}},"type":"Feature"},
	{"geometry":{"coordinates":[-1.548153,53.78289],"type":"Point"},"properties":{"amenity":"waste_basket","osm_id":"7429089651","tag":{"collection_times":"Tu","condition":"POOR","ref:UK:leedscc:bin":"8917","waste_basket:model":"METAL TWIN"}},"type":"Feature"},
	{"geometry":{"coordinates":[-1.518613,53.794435],"type":"Point"},"properties":{"amenity":"waste_basket","osm_id":"7429089662","tag":{"ref:UK:leedscc:bin":"948"}},"type":"Feature"},
	{"geometry":{"coordinates":[-1.51706,53.798647],"type":"Point"},"properties":{"amenity":"waste_basket","osm_id":"7429089665","tag":{"ref:UK:leedscc:bin":"2803"}},"type":"Feature"},
	{"geometry":{"coordinates":[-1.58127,53.799032],"type":"Point"},"properties":{"amenity":"waste_basket","osm_id":"7429089668","tag":{"collection_times":"Mo-Fr","condition":"FAIR","ref:UK:leedscc:bin":"92","waste_basket:model":"METAL TWIN"}},"type":"Feature"},
	{"geometry":{"coordinates":[-1.581785,53.797985],"type":"Point"},"properties":{"amenity":"waste_basket","osm_id":"7429089676","tag":{"collection_times":"Mo; Th","condition":"FAIR","ref:UK:leedscc:bin":"4672","waste_basket:model":"METAL TWIN"}},"type":"Feature"},
	{"geometry":{"coordinates":[-1.520721,53.792143],"type":"Point"},"properties":{"amenity":"waste_basket","osm_id":"7429089681","tag":{"ref:UK:leedscc:bin":"4521"}},"type":"Feature"},
	{"geometry":{"coordinates":[-1.531501,53.748863],"type":"Point"},"properties":{"amenity":"waste_basket","osm_id":"7429089682","tag":{"collection_times":"Sa","condition":"GOOD","ref:UK:leedscc:bin":"4371","waste_basket:model":"METAL SQUARE"}},"type":"Feature"},
	{"geometry":{"coordinates":[-1.54902,53.781866],"type":"Point"},"properties":{"amenity":"waste_basket","osm_id":"7429089689","tag":{"collection_times":"Tu","condition":"GOOD","ref:UK:leedscc:bin":"8921","waste_basket:model":"METAL SQUARE"}},"type":"Feature"},
	{"geometry":{"coordinates":[-1.529925,53.752805],"type":"Point"},"properties":{"amenity":"waste_basket","osm_id":"7429089693","tag":{"collection_times":"We","condition":"GOOD","ref:UK:leedscc:bin":"4368","waste_basket:model":"METAL SQUARE"}},"type":"Feature"},
	{"geometry":{"coordinates":[-1.516603,53.799208],"type":"Point"},"properties":{"amenity":"waste_basket","osm_id":"7429089704","tag":{"ref:UK:leedscc:bin":"95"}},"type":"Feature"},
	{"geometry":{"coordinates":[-1.557751,53.778974],"type":"Point"},"properties":{"amenity":"waste_basket","osm_id":"7429089715","tag":{"ref:UK:leedscc:bin":"595"}},"type":"Feature"},
	{"geometry":{"coordinates":[-1.523371,53.790142],"type":"Point"},"properties":{"amenity":"waste_basket","osm_id":"7429089720","tag":{"ref:UK:leedscc:bin":"4522"}},"type":"Feature"},
	{"geometry":{"coordinates":[-1.548254,53.782066],"type":"Point"},"properties":{"amenity":"waste_basket","osm_id":"7429089725","tag":{"collection_times":"Tu","condition":"FAIR","ref:UK:leedscc:bin":"1518","waste_basket:model":"METAL TWIN"}},"type":"Feature"},
	{"geometry":{"coordinates":[-1.551141,53.780412],"type":"Point"},"properties":{"amenity":"waste_basket","osm_id":"7429089735","tag":{"collection_times":"Tu","condition":"GOOD","ref:UK:leedscc:bin":"10516","waste_basket:model":"METAL SQUARE"}},"type":"Feature"},
	{"geometry":{"coordinates":[-1.519632,53.792509],"type":"Point"},"properties":{"amenity":"waste_basket","osm_id":"7429089736","tag":{"ref:UK:leedscc:bin":"4520"}},"type":"Feature"},
	{"geometry":{"coordinates":[-1.552682,53.779828],"type":"Point"},"properties":{"amenity":"waste_basket","osm_id":"7429089742","tag":{"collection_times":"Tu","condition":"FAIR","ref:UK:leedscc:bin":"10527","waste_basket:model":"PLASTIC ROUND"}},"type":"Feature"},
	{"geometry":{"coordinates":[-1.559752,53.748737],"type":"Point"},"properties":{"amenity":"waste_basket","osm_id":"7429089744","tag":{"collection_times":"Tu","condition":"FAIR","ref:UK:leedscc:bin":"275","waste_basket:model":"METAL TWIN"}},"type":"Feature"},
	{"geometry":{"coordinates":[-1.560483,53.74979],"type":"Point"},"properties":{"amenity":"waste_basket","osm_id":"7429089747","tag":{"collection_times":"Tu","condition":"GOOD","ref:UK:leedscc:bin":"450","waste_basket:model":"METAL SQUARE"}},"type":"Feature"},
	{"geometry":{"coordinates":[-1.516158,53.798688],"type":"Point"},"properties":{"amenity":"waste_basket","osm_id":"7429089755","tag":{"ref:UK:leedscc:bin":"2802"}},"type":"Feature"},
	{"geometry":{"coordinates":[-1.552576,53.779668],"type":"Point"},"properties":{"amenity":"waste_basket","osm_id":"7429089769","tag":{"collection_times":"Tu","condition":"GOOD","ref:UK:leedscc:bin":"10528","waste_basket:model":"METAL SQUARE"}},"type":"Feature"},
	{"geometry":{"coordinates":[-1.529497,53.750696],"type":"Point"},"properties":{"amenity":"waste_basket","osm_id":"7429089772","tag":{"collection_times":"Th","condition":"GOOD","ref:UK:leedscc:bin":"4370","waste_basket:model":"METAL SQUARE"}},"type":"Feature"},
	{"geometry":{"coordinates":[-1.550659,53.780187],"type":"Point"},"properties":{"amenity":"waste_basket","osm_id":"7429089791","tag":{"collection_times":"Tu","condition":"GOOD","ref:UK:leedscc:bin":"10517","waste_basket:model":"METAL SQUARE"}},"type":"Feature"},
	{"geometry":{"coordinates":[-1.575656,53.791614],"type":"Point"},"properties":{"amenity":"waste_basket","osm_id":"7429089795","tag":{"collection_times":"Mo; Th","condition":"GOOD","ref:UK:leedscc:bin":"4677","waste_basket:model":"METAL SQUARE"}},"type":"Feature"},
	{"geometry":{"coordinates":[-1.562096,53.75213],"type":"Point"},"properties":{"amenity":"waste_basket","osm_id":"7429089811","tag":{"collection_times":"Tu","condition":"GOOD","ref:UK:leedscc:bin":"452","waste_basket:model":"METAL SQUARE"}},"type":"Feature"},
	{"geometry":{"coordinates":[-1.551987,53.779379],"type":"Point"},"properties":{"amenity":"waste_basket","osm_id":"7429089821","tag":{"collection_times":"Tu","condition":"POOR","ref:UK:leedscc:bin":"10529","waste_basket:model":"PLASTIC ROUND"}},"type":"Feature"},
	{"geometry":{"coordinates":[-1.515162,53.798304],"type":"Point"},"properties":{"amenity":"waste_basket","osm_id":"7429089831","tag":{"ref:UK:leedscc:bin":"4193"}},"type":"Feature"},
	{"geometry":{"coordinates":[-1.515088,53.798525],"type":"Point"},"properties":{"amenity":"waste_basket","osm_id":"7429089832","tag":{"ref:UK:leedscc:bin":"4192"}},"type":"Feature"},
	{"geometry":{"coordinates":[-1.517495,53.793103],"type":"Point"},"properties":{"amenity":"waste_basket","osm_id":"7429089836","tag":{"ref:UK:leedscc:bin":"2558"}},"type":"Feature"},
	{"geometry":{"coordinates":[-1.55618,53.778244],"type":"Point"},"properties":{"amenity":"waste_basket","osm_id":"7429089840","tag":{"ref:UK:leedscc:bin":"594"}},"type":"Feature"},
	{"geometry":{"coordinates":[-1.54674,53.781647],"type":"Point"},"properties":{"amenity":"waste_basket","osm_id":"7429089861","tag":{"collection_times":"Tu","condition":"GOOD","ref:UK:leedscc:bin":"1517","waste_basket:model":"METAL SQUARE"}},"type":"Feature"},
	{"geometry":{"coordinates":[-1.578865,53.795521],"type":"Point"},"properties":{"amenity":"waste_basket","osm_id":"7429089870","tag":{"collection_times":"Mo; Th","condition":"GOOD","ref:UK:leedscc:bin":"1217","waste_basket:model":"METAL SQUARE"}},"type":"Feature"},
	{"geometry":{"coordinates":[-1.545588,53.782423],"type":"Point"},"properties":{"amenity":"waste_basket","osm_id":"7429089875","tag":{"collection_times":"Tu","condition":"GOOD","ref:UK:leedscc:bin":"8918","waste_basket:model":"METAL SQUARE"}},"type":"Feature"},
	{"geometry":{"coordinates":[-1.553348,53.778565],"type":"Point"},"properties":{"amenity":"waste_basket","osm_id":"7429089877","tag":{"ref:UK:leedscc:bin":"206"}},"type":"Feature"},
	{"geometry":{"coordinates":[-1.518948,53.791319],"type":"Point"},"properties":{"amenity":"waste_basket","osm_id":"7429089879","tag":{"ref:UK:leedscc:bin":"995"}},"type":"Feature"},
	{"geometry":{"coordinates":[-1.580107,53.795968],"type":"Point"},"properties":{"amenity":"waste_basket","osm_id":"7429089887","tag":{"collection_times":"Mo; Th","condition":"FAIR","ref:UK:leedscc:bin":"1216","waste_basket:model":"METAL TWIN"}},"type":"Feature"},
	{"geometry":{"coordinates":[-1.575566,53.794183],"type":"Point"},"properties":{"amenity":"waste_basket","osm_id":"7429089890","tag":{"collection_times":"Mo; Th","condition":"GOOD","ref:UK:leedscc:bin":"1166","waste_basket:model":"METAL SQUARE"}},"type":"Feature"},
	{"geometry":{"coordinates":[-1.528064,53.755173],"type":"Point"},"properties":{"amenity":"waste_basket","osm_id":"7429089896","tag":{"collection_times":"Th","condition":"GOOD","ref:UK:leedscc:bin":"3295","waste_basket:model":"METAL SQUARE"}},"type":"Feature"},
	{"geometry":{"coordinates":[-1.576979,53.791776],"type":"Point"},"properties":{"amenity":"waste_basket","osm_id":"7429089900","tag":{"collection_times":"Mo; Th","condition":"GOOD","ref:UK:leedscc:bin":"4678","waste_basket:model":"METAL SQUARE"}},"type":"Feature"},
	{"geometry":{"coordinates":[-1.577124,53.791805],"type":"Point"},"properties":{"amenity":"waste_basket","osm_id":"7429089909","tag":{"collection_times":"Mo; Th","condition":"GOOD","ref:UK:leedscc:bin":"4679","waste_basket:model":"METAL SQUARE"}},"type":"Feature"},
	{"geometry":{"coordinates":[-1.545771,53.781636],"type":"Point"},"properties":{"amenity":"waste_basket","osm_id":"7429089915","tag":{"collection_times":"Tu","condition":"GOOD","ref:UK:leedscc:bin":"10514","waste_basket:model":"METAL SQUARE"}},"type":"Feature"},
	{"geometry":{"coordinates":[-1.577244,53.791805],"type":"Point"},"properties":{"amenity":"waste_basket","osm_id":"7429089918","tag":{"collection_times":"Mo; Th","condition":"GOOD","ref:UK:leedscc:bin":"4680","waste_basket:model":"METAL SQUARE"}},"type":"Feature"},
	{"geometry":{"coordinates":[-1.554859,53.777832],"type":"Point"},"properties":{"amenity":"waste_basket","osm_id":"7429089920","tag":{"ref:UK:leedscc:bin":"207"}},"type":"Feature"},
	{"geometry":{"coordinates":[-1.555613,53.777607],"type":"Point"},"properties":{"amenity":"waste_basket","osm_id":"7429089935","tag":{"collection_times":"Mo-Fr","condition":"FAIR","ref:UK:leedscc:bin":"10521","waste_basket:model":"PLASTIC ROUND"}},"type":"Feature"},
	{"geometry":{"coordinates":[-1.553763,53.777948],"type":"Point"},"properties":{"amenity":"waste_basket","osm_id":"7429089937","tag":{"collection_times":"Mo-Fr","condition":"GOOD","ref:UK:leedscc:bin":"205","waste_basket:model":"METAL SQUARE"}},"type":"Feature"},
	{"geometry":{"coordinates":[-1.555181,53.777669],"type":"Point"},"properties":{"amenity":"waste_basket","osm_id":"7429089938","tag":{"collection_times":"Mo-Fr","condition":"FAIR","ref:UK:leedscc:bin":"10523","waste_basket:model":"IRON SQUARE"}},"type":"Feature"},
	{"geometry":{"coordinates":[-1.516386,53.79269],"type":"Point"},"properties":{"amenity":"waste_basket","osm_id":"7429089941","tag":{"ref:UK:leedscc:bin":"2559"}},"type":"Feature"},
	{"geometry":{"coordinates":[-1.513722,53.797835],"type":"Point"},"properties":{"amenity":"waste_basket","osm_id":"7429089947","tag":{"ref:UK:leedscc:bin":"4195"}},"type":"Feature"},
	{"geometry":{"coordinates":[-1.549999,53.778957],"type":"Point"},"properties":{"amenity":"waste_basket","osm_id":"7429089951","tag":{"collection_times":"Mo","condition":"FAIR","ref:UK:leedscc:bin":"10518","waste_basket:model":"METAL TWIN"}},"type":"Feature"},
	{"geometry":{"coordinates":[-1.527452,53.755636],"type":"Point"},"properties":{"amenity":"waste_basket","osm_id":"7429089962","tag":{"collection_times":"Mo-Fr","condition":"GOOD","ref:UK:leedscc:bin":"3342","waste_basket:model":"METAL SQUARE"}},"type":"Feature"},
	{"geometry":{"coordinates":[-1.554994,53.777525],"type":"Point"},"properties":{"amenity":"waste_basket","osm_id":"7429089963","tag":{"collection_times":"Mo-Fr","condition":"FAIR","ref:UK:leedscc:bin":"10524","waste_basket:model":"IRON SQUARE"}},"type":"Feature"},
	{"geometry":{"coordinates":[-1.55548,53.777431],"type":"Point"},"properties":{"amenity":"waste_basket","osm_id":"7429089967","tag":{"collection_times":"Mo-Fr","condition":"FAIR","ref:UK:leedscc:bin":"10522","waste_basket:model":"PLASTIC ROUND"}},"type":"Feature"},
	{"geometry":{"coordinates":[-1.554051,53.777601],"type":"Point"},"properties":{"amenity":"waste_basket","osm_id":"7429089974","tag":{"collection_times":"Mo","condition":"GOOD","ref:UK:leedscc:bin":"10525","waste_basket:model":"METAL SQUARE"}},"type":"Feature"},
	{"geometry":{"coordinates":[-1.559375,53.760178],"type":"Point"},"properties":{"amenity":"waste_basket","osm_id":"7429089985","tag":{"ref:UK:leedscc:bin":"1093"}},"type":"Feature"},
	{"geometry":{"coordinates":[-1.527282,53.749479],"type":"Point"},"properties":{"amenity":"waste_basket","osm_id":"7429089988","tag":{"collection_times":"Sa","condition":"GOOD","ref:UK:leedscc:bin":"4377","waste_basket:model":"METAL SQUARE"}},"type":"Feature"},
	{"geometry":{"coordinates":[-1.544583,53.78181],"type":"Point"},"properties":{"amenity":"waste_basket","osm_id":"7429089989","tag":{"collection_times":"Mo-Fr","condition":"POOR","ref:UK:leedscc:bin":"891","waste_basket:model":"METAL TWIN"}},"type":"Feature"},
	{"geometry":{"coordinates":[-1.513202,53.797867],"type":"Point"},"properties":{"amenity":"waste_basket","osm_id":"7429089992","tag":{"ref:UK:leedscc:bin":"3758"}},"type":"Feature"},
	{"geometry":{"coordinates":[-1.578209,53.79168],"type":"Point"},"properties":{"amenity":"waste_basket","osm_id":"7429089994","tag":{"collection_times":"Mo; Th","condition":"GOOD","ref:UK:leedscc:bin":"4681","waste_basket:model":"METAL SQUARE"}},"type":"Feature"},
	{"geometry":{"coordinates":[-1.571379,53.778978],"type":"Point"},"properties":{"amenity":"waste_basket","osm_id":"7429089997","tag":{"ref:UK:leedscc:bin":"1913"}},"type":"Feature"},
	{"geometry":{"coordinates":[-1.568168,53.77786],"type":"Point"},"properties":{"amenity":"waste_basket","osm_id":"7429089998","tag":{"ref:UK:leedscc:bin":"1515"}},"type":"Feature"},
	{"geometry":{"coordinates":[-1.513171,53.797504],"type":"Point"},"properties":{"amenity":"waste_basket","osm_id":"7429090003","tag":{"ref:UK:leedscc:bin":"4196"}},"type":"Feature"},
	{"geometry":{"coordinates":[-1.559608,53.760238],"type":"Point"},"properties":{"amenity":"waste_basket","osm_id":"7429090011","tag":{"ref:UK:leedscc:bin":"1092"}},"type":"Feature"},
	{"geometry":{"coordinates":[-1.544357,53.781748],"type":"Point"},"properties":{"amenity":"waste_basket","osm_id":"7429090012","tag":{"collection_times":"Mo-Fr","condition":"POOR","ref:UK:leedscc:bin":"892","waste_basket:model":"METAL TWIN"}},"type":"Feature"},
	{"geometry":{"coordinates":[-1.512893,53.799961],"type":"Point"},"properties":{"amenity":"waste_basket","osm_id":"7429090020","tag":{"ref:UK:leedscc:bin":"3278"}},"type":"Feature"},
	{"geometry":{"coordinates":[-1.548653,53.778904],"type":"Point"},"properties":{"amenity":"waste_basket","osm_id":"7429090021","tag":{"collection_times":"Mo","condition":"GOOD","ref:UK:leedscc:bin":"10519","waste_basket:model":"METAL SQUARE"}},"type":"Feature"},
	{"geometry":{"coordinates":[-1.527623,53.757386],"type":"Point"},"properties":{"amenity":"waste_basket","osm_id":"7429090029","tag":{"collection_times":"Th","condition":"GOOD","ref:UK:leedscc:bin":"8242","waste_basket:model":"METAL SQUARE"}},"type":"Feature"},
	{"geometry":{"coordinates":[-1.57036,53.778196],"type":"Point"},"properties":{"amenity":"waste_basket","osm_id":"7429090035","tag":{"ref:UK:leedscc:bin":"1912"}},"type":"Feature"},
	{"geometry":{"coordinates":[-1.519795,53.788857],"type":"Point"},"properties":{"amenity":"waste_basket","osm_id":"7429090042","tag":{"ref:UK:leedscc:bin":"4523"}},"type":"Feature"},
	{"geometry":{"coordinates":[-1.520835,53.788316],"type":"Point"},"properties":{"amenity":"waste_basket","osm_id":"7429090043","tag":{"ref:UK:leedscc:bin":"841"}},"type":"Feature"},
	{"geometry":{"coordinates":[-1.57982,53.789188],"type":"Point"},"properties":{"amenity":"waste_basket","osm_id":"7429090046","tag":{"ref:UK:leedscc:bin":"2394"}},"type":"Feature"},
	{"geometry":{"coordinates":[-1.512661,53.796516],"type":"Point"},"properties":{"amenity":"waste_basket","osm_id":"7429090054","tag":{"ref:UK:leedscc:bin":"2681"}},"type":"Feature"},
	{"geometry":{"coordinates":[-1.544675,53.780849],"type":"Point"},"properties":{"amenity":"waste_basket","osm_id":"7429090058","tag":{"collection_times":"Mo-Fr","condition":"GOOD","ref:UK:leedscc:bin":"889","waste_basket:model":"METAL SQUARE"}},"type":"Feature"},
	{"geometry":{"coordinates":[-1.515908,53.791581],"type":"Point"},"properties":{"amenity":"waste_basket","osm_id":"7429090059","tag":{"ref:UK:leedscc:bin":"4519"}},"type":"Feature"},
	{"geometry":{"coordinates":[-1.512312,53.799934],"type":"Point"},"properties":{"amenity":"waste_basket","osm_id":"7429090070","tag":{"ref:UK:leedscc:bin":"4194"}},"type":"Feature"},
	{"geometry":{"coordinates":[-1.526976,53.757253],"type":"Point"},"properties":{"amenity":"waste_basket","osm_id":"7429090072","tag":{"collection_times":"Th","condition":"GOOD","ref:UK:leedscc:bin":"4360","waste_basket:model":"METAL SQUARE"}},"type":"Feature"},
	{"geometry":{"coordinates":[-1.527082,53.757511],"type":"Point"},"properties":{"amenity":"waste_basket","osm_id":"7429090079","tag":{"collection_times":"Th","condition":"GOOD","ref:UK:leedscc:bin":"234","waste_basket:model":"METAL SQUARE"}},"type":"Feature"},
	{"geometry":{"coordinates":[-1.569614,53.777522],"type":"Point"},"properties":{"amenity":"waste_basket","osm_id":"7429090089","tag":{"ref:UK:leedscc:bin":"3546"}},"type":"Feature"},
	{"geometry":{"coordinates":[-1.553144,53.77688],"type":"Point"},"properties":{"amenity":"waste_basket","osm_id":"7429090097","tag":{"collection_times":"Mo","condition":"GOOD","ref:UK:leedscc:bin":"10526","waste_basket:model":"METAL SQUARE"}},"type":"Feature"},
	{"geometry":{"coordinates":[-1.559536,53.761246],"type":"Point"},"properties":{"amenity":"waste_basket","osm_id":"7429090100","tag":{"ref:UK:leedscc:bin":"1091"}},"type":"Feature"},
	{"geometry":{"coordinates":[-1.554088,53.77666],"type":"Point"},"properties":{"amenity":"waste_basket","osm_id":"7429090102","tag":{"collection_times":"Mo-Fr","condition":"POOR","ref:UK:leedscc:bin":"10556","waste_basket:model":"IRON SQUARE"}},"type":"Feature"},
	{"geometry":{"coordinates":[-1.525537,53.750202],"type":"Point"},"properties":{"amenity":"waste_basket","osm_id":"7429090104","tag":{"collection_times":"Sa","condition":"GOOD","ref:UK:leedscc:bin":"4367","waste_basket:model":"METAL SQUARE"}},"type":"Feature"},
	{"geometry":{"coordinates":[-1.568893,53.777182],"type":"Point"},"properties":{"amenity":"waste_basket","osm_id":"7429090106","tag":{"ref:UK:leedscc:bin":"3540"}},"type":"Feature"},
	{"geometry":{"coordinates":[-1.548067,53.778344],"type":"Point"},"properties":{"amenity":"waste_basket","osm_id":"7429090112","tag":{"collection_times":"Mo","condition":"FAIR","ref:UK:leedscc:bin":"10520","waste_basket:model":"METAL SQUARE"}},"type":"Feature"},
	{"geometry":{"coordinates":[-1.535717,53.763439],"type":"Point"},"properties":{"amenity":"waste_basket","osm_id":"7429090122","tag":{"collection_times":"Th","condition":"FAIR","ref:UK:leedscc:bin":"4354","waste_basket:model":"METAL TWIN"}},"type":"Feature"},
	{"geometry":{"coordinates":[-1.582009,53.79245],"type":"Point"},"properties":{"amenity":"waste_basket","osm_id":"7429090131","tag":{"collection_times":"Mo; Th","condition":"FAIR","ref:UK:leedscc:bin":"4682","waste_basket:model":"METAL TWIN"}},"type":"Feature"},
	{"geometry":{"coordinates":[-1.534558,53.763102],"type":"Point"},"properties":{"amenity":"waste_basket","osm_id":"7429090134","tag":{"collection_times":"Th","condition":"FAIR","ref:UK:leedscc:bin":"4355","waste_basket:model":"METAL TWIN"}},"type":"Feature"},
	{"geometry":{"coordinates":[-1.533711,53.762778],"type":"Point"},"properties":{"amenity":"waste_basket","osm_id":"7429090135","tag":{"collection_times":"Th","condition":"GOOD","ref:UK:leedscc:bin":"2298","waste_basket:model":"METAL SQUARE"}},"type":"Feature"},
	{"geometry":{"coordinates":[-1.520435,53.78769],"type":"Point"},"properties":{"amenity":"waste_basket","osm_id":"7429090138","tag":{"ref:UK:leedscc:bin":"4516"}},"type":"Feature"},
	{"geometry":{"coordinates":[-1.554252,53.776202],"type":"Point"},"properties":{"amenity":"waste_basket","osm_id":"7429090154","tag":{"collection_times":"Mo-Fr","condition":"POOR","ref:UK:leedscc:bin":"3179","waste_basket:model":"METAL TWIN"}},"type":"Feature"},
	{"geometry":{"coordinates":[-1.526418,53.757988],"type":"Point"},"properties":{"amenity":"waste_basket","osm_id":"7429090155","tag":{"collection_times":"We","condition":"GOOD","ref:UK:leedscc:bin":"233","waste_basket:model":"METAL TWIN"}},"type":"Feature"},
	{"geometry":{"coordinates":[-1.568399,53.776644],"type":"Point"},"properties":{"amenity":"waste_basket","osm_id":"7429090158","tag":{"ref:UK:leedscc:bin":"3545"}},"type":"Feature"},
	{"geometry":{"coordinates":[-1.543336,53.780715],"type":"Point"},"properties":{"amenity":"waste_basket","osm_id":"7429090159","tag":{"collection_times":"Tu","condition":"GOOD","ref:UK:leedscc:bin":"888","waste_basket:model":"METAL SQUARE"}},"type":"Feature"},
	{"geometry":{"coordinates":[-1.57082,53.777347],"type":"Point"},"properties":{"amenity":"waste_basket","osm_id":"7429090160","tag":{"ref:UK:leedscc:bin":"1005"}},"type":"Feature"},
	{"geometry":{"coordinates":[-1.524249,53.752921],"type":"Point"},"properties":{"amenity":"waste_basket","osm_id":"7429090173","tag":{"collection_times":"We","condition":"GOOD","ref:UK:leedscc:bin":"2729","waste_basket:model":"METAL SQUARE"}},"type":"Feature"},
	{"geometry":{"coordinates":[-1.518452,53.788296],"type":"Point"},"properties":{"amenity":"waste_basket","osm_id":"7429090187","tag":{"ref:UK:leedscc:bin":"4518"}},"type":"Feature"},
	{"geometry":{"coordinates":[-1.560045,53.76184],"type":"Point"},"properties":{"amenity":"waste_basket","osm_id":"7429090195","tag":{"ref:UK:leedscc:bin":"1094"}},"type":"Feature"},
	{"geometry":{"coordinates":[-1.510695,53.798807],"type":"Point"},"properties":{"amenity":"waste_basket","osm_id":"7429090201","tag":{"ref:UK:leedscc:bin":"3761"}},"type":"Feature"},
	{"geometry":{"coordinates":[-1.581763,53.788913],"type":"Point"},"properties":{"amenity":"waste_basket","osm_id":"7429090209","tag":{"ref:UK:leedscc:bin":"2396"}},"type":"Feature"},
	{"geometry":{"coordinates":[-1.544938,53.77897],"type":"Point"},"properties":{"amenity":"waste_basket","osm_id":"7429090219","tag":{"collection_times":"Mo-Fr","condition":"GOOD","ref:UK:leedscc:bin":"10513","waste_basket:model":"METAL SQUARE"}},"type":"Feature"},
	{"geometry":{"coordinates":[-1.517843,53.788221],"type":"Point"},"properties":{"amenity":"waste_basket","osm_id":"7429090225","tag":{"ref:UK:leedscc:bin":"1688"}},"type":"Feature"},
	{"geometry":{"coordinates":[-1.523544,53.752425],"type":"Point"},"properties":{"amenity":"waste_basket","osm_id":"7429090230","tag":{"collection_times":"We","condition":"GOOD","ref:UK:leedscc:bin":"2730","waste_basket:model":"METAL SQUARE"}},"type":"Feature"},
	{"geometry":{"coordinates":[-1.53071,53.762273],"type":"Point"},"properties":{"amenity":"waste_basket","osm_id":"7429090232","tag":{"collection_times":"Th","condition":"GOOD","ref:UK:leedscc:bin":"3670","waste_basket:model":"METAL SQUARE"}},"type":"Feature"},
	{"geometry":{"coordinates":[-1.517973,53.788008],"type":"Point"},"properties":{"amenity":"waste_basket","osm_id":"7429090238","tag":{"ref:UK:leedscc:bin":"4517"}},"type":"Feature"},
	{"geometry":{"coordinates":[-1.545321,53.778397],"type":"Point"},"properties":{"amenity":"waste_basket","osm_id":"7429090251","tag":{"collection_times":"Mo-Fr","condition":"GOOD","ref:UK:leedscc:bin":"10208","waste_basket:model":"METAL SQUARE"}},"type":"Feature"},
	{"geometry":{"coordinates":[-1.507502,53.749172],"type":"Point"},"properties":{"amenity":"waste_basket","osm_id":"7429090255","tag":{"ref:UK:leedscc:bin":"1748"}},"type":"Feature"},
	{"geometry":{"coordinates":[-1.516353,53.788649],"type":"Point"},"properties":{"amenity":"waste_basket","osm_id":"7429090261","tag":{"ref:UK:leedscc:bin":"1687"}},"type":"Feature"},
	{"geometry":{"coordinates":[-1.523491,53.75569],"type":"Point"},"properties":{"amenity":"waste_basket","osm_id":"7429090268","tag":{"collection_times":"We","condition":"GOOD","ref:UK:leedscc:bin":"4361","waste_basket:model":"METAL SQUARE"}},"type":"Feature"},
	{"geometry":{"coordinates":[-1.544639,53.778515],"type":"Point"},"properties":{"amenity":"waste_basket","osm_id":"7429090269","tag":{"collection_times":"Mo-Fr","condition":"FAIR","ref:UK:leedscc:bin":"885","waste_basket:model":"METAL SQUARE"}},"type":"Feature"},
	{"geometry":{"coordinates":[-1.531587,53.763252],"type":"Point"},"properties":{"amenity":"waste_basket","osm_id":"7429090276","tag":{"collection_times":"Th","condition":"GOOD","ref:UK:leedscc:bin":"4356","waste_basket:model":"METAL SQUARE"}},"type":"Feature"},
	{"geometry":{"coordinates":[-1.552804,53.765294],"type":"Point"},"properties":{"amenity":"waste_basket","osm_id":"7429090279","tag":{"ref:UK:leedscc:bin":"3579"}},"type":"Feature"},
	{"geometry":{"coordinates":[-1.513871,53.79042],"type":"Point"},"properties":{"amenity":"waste_basket","osm_id":"7429090280","tag":{"ref:UK:leedscc:bin":"2557"}},"type":"Feature"},
	{"geometry":{"coordinates":[-1.527332,53.760737],"type":"Point"},"properties":{"amenity":"waste_basket","osm_id":"7429090281","tag":{"collection_times":"Th","condition":"GOOD","ref:UK:leedscc:bin":"232","waste_basket:model":"METAL SQUARE"}},"type":"Feature"},
	{"geometry":{"coordinates":[-1.523499,53.784595],"type":"Point"},"properties":{"amenity":"waste_basket","osm_id":"7429090284","tag":{"collection_times":"We","condition":"GOOD","ref:UK:leedscc:bin":"10561","waste_basket:model":"METAL SQUARE"}},"type":"Feature"},
	{"geometry":{"coordinates":[-1.572407,53.776769],"type":"Point"},"properties":{"amenity":"waste_basket","osm_id":"7429090288","tag":{"ref:UK:leedscc:bin":"1004"}},"type":"Feature"},
	{"geometry":{"coordinates":[-1.562904,53.774766],"type":"Point"},"properties":{"amenity":"waste_basket","osm_id":"7429090290","tag":{"ref:UK:leedscc:bin":"3309"}},"type":"Feature"},
	{"geometry":{"coordinates":[-1.529363,53.782657],"type":"Point"},"properties":{"amenity":"waste_basket","osm_id":"7429090291","tag":{"collection_times":"We","condition":"FAIR","ref:UK:leedscc:bin":"10562","waste_basket:model":"METAL SQUARE"}},"type":"Feature"},
	{"geometry":{"coordinates":[-1.544597,53.778123],"type":"Point"},"properties":{"amenity":"waste_basket","osm_id":"7429090313","tag":{"collection_times":"Mo-Fr","condition":"GOOD","ref:UK:leedscc:bin":"10207","waste_basket:model":"METAL SQUARE"}},"type":"Feature"},
	{"geometry":{"coordinates":[-1.542226,53.779576],"type":"Point"},"properties":{"amenity":"waste_basket","osm_id":"7429090317","tag":{"collection_times":"Tu","condition":"FAIR","ref:UK:leedscc:bin":"500","waste_basket:model":"METAL TWIN"}},"type":"Feature"},
	{"geometry":{"coordinates":[-1.526717,53.760751],"type":"Point"},"properties":{"amenity":"waste_basket","osm_id":"7429090320","tag":{"collection_times":"Mo","condition":"GOOD","ref:UK:leedscc:bin":"8239","waste_basket:model":"METAL SQUARE"}},"type":"Feature"},
	{"geometry":{"coordinates":[-1.527549,53.761435],"type":"Point"},"properties":{"amenity":"waste_basket","osm_id":"7429090323","tag":{"collection_times":"Th","condition":"GOOD","ref:UK:leedscc:bin":"8238","waste_basket:model":"METAL SQUARE"}},"type":"Feature"},
	{"geometry":{"coordinates":[-1.530997,53.763461],"type":"Point"},"properties":{"amenity":"waste_basket","osm_id":"7429090329","tag":{"collection_times":"Th","condition":"FAIR","ref:UK:leedscc:bin":"4357","waste_basket:model":"METAL TWIN"}},"type":"Feature"},
	{"geometry":{"coordinates":[-1.56752,53.774989],"type":"Point"},"properties":{"amenity":"waste_basket","osm_id":"7429090341","tag":{"ref:UK:leedscc:bin":"3541"}},"type":"Feature"},
	{"geometry":{"coordinates":[-1.522318,53.750594],"type":"Point"},"properties":{"amenity":"waste_basket","osm_id":"7429090344","tag":{"collection_times":"Mo-Fr","condition":"GOOD","ref:UK:leedscc:bin":"4366","waste_basket:model":"METAL SQUARE"}},"type":"Feature"},
	{"geometry":{"coordinates":[-1.544627,53.777805],"type":"Point"},"properties":{"amenity":"waste_basket","osm_id":"7429090345","tag":{"collection_times":"Mo-Fr","condition":"FAIR","ref:UK:leedscc:bin":"10206","waste_basket:model":"METAL SQUARE"}},"type":"Feature"},
	{"geometry":{"coordinates":[-1.567525,53.774935],"type":"Point"},"properties":{"amenity":"waste_basket","osm_id":"7429090349","tag":{"ref:UK:leedscc:bin":"3544"}},"type":"Feature"},
	{"geometry":{"coordinates":[-1.54155,53.779644],"type":"Point"},"properties":{"amenity":"waste_basket","osm_id":"7429090355","tag":{"collection_times":"Tu","condition":"GOOD","ref:UK:leedscc:bin":"8923","waste_basket:model":"METAL SQUARE"}},"type":"Feature"},
	{"geometry":{"coordinates":[-1.508622,53.79971],"type":"Point"},"properties":{"amenity":"waste_basket","osm_id":"7429090360","tag":{"ref:UK:leedscc:bin":"1961"}},"type":"Feature"},
	{"geometry":{"coordinates":[-1.547388,53.776396],"type":"Point"},"properties":{"amenity":"waste_basket","osm_id":"7429090362","tag":{"collection_times":"Mo","condition":"FAIR","ref:UK:leedscc:bin":"10551","waste_basket:model":"METAL SQUARE"}},"type":"Feature"},
	{"geometry":{"coordinates":[-1.553003,53.774775],"type":"Point"},"properties":{"amenity":"waste_basket","osm_id":"7429090365","tag":{"collection_times":"Mo-Fr","condition":"FAIR","ref:UK:leedscc:bin":"3180","waste_basket:model":"IRON SQUARE"}},"type":"Feature"},
	{"geometry":{"coordinates":[-1.508445,53.798795],"type":"Point"},"properties":{"amenity":"waste_basket","osm_id":"7429090367","tag":{"ref:UK:leedscc:bin":"3762"}},"type":"Feature"},
	{"geometry":{"coordinates":[-1.528237,53.782286],"type":"Point"},"properties":{"amenity":"waste_basket","osm_id":"7429090368","tag":{"collection_times":"We","condition":"FAIR","ref:UK:leedscc:bin":"10563","waste_basket:model":"METAL TWIN"}},"type":"Feature"},
	{"geometry":{"coordinates":[-1.526821,53.761415],"type":"Point"},"properties":{"amenity":"waste_basket","osm_id":"7429090369","tag":{"collection_times":"Mo","condition":"GOOD","ref:UK:leedscc:bin":"8237","waste_basket:model":"METAL SQUARE"}},"type":"Feature"},
	{"geometry":{"coordinates":[-1.551793,53.774802],"type":"Point"},"properties":{"amenity":"waste_basket","osm_id":"7429090390","tag":{"collection_times":"Mo","condition":"FAIR","ref:UK:leedscc:bin":"10554","waste_basket:model":"METAL SQUARE"}},"type":"Feature"},
	{"geometry":{"coordinates":[-1.527532,53.762273],"type":"Point"},"properties":{"amenity":"waste_basket","osm_id":"7429090399","tag":{"collection_times":"Th","condition":"GOOD","ref:UK:leedscc:bin":"230","waste_basket:model":"METAL SQUARE"}},"type":"Feature"},
	{"geometry":{"coordinates":[-1.563939,53.773967],"type":"Point"},"properties":{"amenity":"waste_basket","osm_id":"7429090401","tag":{"ref:UK:leedscc:bin":"3310"}},"type":"Feature"},
	{"geometry":{"coordinates":[-1.553116,53.774408],"type":"Point"},"properties":{"amenity":"waste_basket","osm_id":"7429090404","tag":{"collection_times":"Mo","condition":"POOR","ref:UK:leedscc:bin":"10555","waste_basket:model":"METAL TWIN"}},"type":"Feature"},
	{"geometry":{"coordinates":[-1.522394,53.757209],"type":"Point"},"properties":{"amenity":"waste_basket","osm_id":"7429090405","tag":{"collection_times":"Mo-Fr","condition":"GOOD","ref:UK:leedscc:bin":"4362","waste_basket:model":"METAL SQUARE"}},"type":"Feature"},
	{"geometry":{"coordinates":[-1.545203,53.77685],"type":"Point"},"properties":{"amenity":"waste_basket","osm_id":"7429090406","tag":{"collection_times":"Mo","condition":"GOOD","ref:UK:leedscc:bin":"10543","waste_basket:model":"METAL SQUARE"}},"type":"Feature"},
	{"geometry":{"coordinates":[-1.531236,53.781341],"type":"Point"},"properties":{"amenity":"waste_basket","osm_id":"7429090408","tag":{"collection_times":"We","condition":"GOOD","ref:UK:leedscc:bin":"10574","waste_basket:model":"METAL SQUARE"}},"type":"Feature"},
	{"geometry":{"coordinates":[-1.574136,53.776265],"type":"Point"},"properties":{"amenity":"waste_basket","osm_id":"7429090412","tag":{"ref:UK:leedscc:bin":"1003"}},"type":"Feature"},
	{"geometry":{"coordinates":[-1.542797,53.778046],"type":"Point"},"properties":{"amenity":"waste_basket","osm_id":"7429090413","tag":{"collection_times":"Tu","condition":"FAIR","ref:UK:leedscc:bin":"1021","waste_basket:model":"METAL TWIN"}},"type":"Feature"},
	{"geometry":{"coordinates":[-1.538488,53.766497],"type":"Point"},"properties":{"amenity":"waste_basket","osm_id":"7429090415","tag":{"collection_times":"Th","condition":"GOOD","ref:UK:leedscc:bin":"4351","waste_basket:model":"METAL SQUARE"}},"type":"Feature"},
	{"geometry":{"coordinates":[-1.522189,53.757144],"type":"Point"},"properties":{"amenity":"waste_basket","osm_id":"7429090418","tag":{"collection_times":"Mo-Fr","condition":"GOOD","ref:UK:leedscc:bin":"4363","waste_basket:model":"METAL SQUARE"}},"type":"Feature"},
	{"geometry":{"coordinates":[-1.523136,53.758619],"type":"Point"},"properties":{"amenity":"waste_basket","osm_id":"7429090420","tag":{"collection_times":"We","condition":"GOOD","ref:UK:leedscc:bin":"449","waste_basket:model":"METAL SQUARE"}},"type":"Feature"},
	{"geometry":{"coordinates":[-1.553327,53.774123],"type":"Point"},"properties":{"amenity":"waste_basket","osm_id":"7429090432","tag":{"collection_times":"Mo","condition":"POOR","ref:UK:leedscc:bin":"2065","waste_basket:model":"METAL TWIN"}},"type":"Feature"},
	{"geometry":{"coordinates":[-1.543605,53.777344],"type":"Point"},"properties":{"amenity":"waste_basket","osm_id":"7429090433","tag":{"collection_times":"Tu","condition":"POOR","ref:UK:leedscc:bin":"1024","waste_basket:model":"PLASTIC ROUND"}},"type":"Feature"},
	{"geometry":{"coordinates":[-1.544666,53.776753],"type":"Point"},"properties":{"amenity":"waste_basket","osm_id":"7429090436","tag":{"collection_times":"Mo-Fr","condition":"FAIR","ref:UK:leedscc:bin":"10542","waste_basket:model":"METAL SQUARE"}},"type":"Feature"},
	{"geometry":{"coordinates":[-1.52443,53.760457],"type":"Point"},"properties":{"amenity":"waste_basket","osm_id":"7429090437","tag":{"collection_times":"We","condition":"GOOD","ref:UK:leedscc:bin":"2153","waste_basket:model":"METAL SQUARE"}},"type":"Feature"},
	{"geometry":{"coordinates":[-1.552229,53.774246],"type":"Point"},"properties":{"amenity":"waste_basket","osm_id":"7429090438","tag":{"collection_times":"Mo-Fr","condition":"FAIR","ref:UK:leedscc:bin":"10553","waste_basket:model":"METAL SQUARE"}},"type":"Feature"},
	{"geometry":{"coordinates":[-1.553985,53.77393],"type":"Point"},"properties":{"amenity":"waste_basket","osm_id":"7429090439","tag":{"collection_times":"Mo","condition":"POOR","ref:UK:leedscc:bin":"2064","waste_basket:model":"METAL TWIN"}},"type":"Feature"},
	{"geometry":{"coordinates":[-1.545208,53.776404],"type":"Point"},"properties":{"amenity":"waste_basket","osm_id":"7429090446","tag":{"collection_times":"Mo-Fr","condition":"GOOD","ref:UK:leedscc:bin":"10541","waste_basket:model":"METAL SQUARE"}},"type":"Feature"},
	{"geometry":{"coordinates":[-1.543441,53.777258],"type":"Point"},"properties":{"amenity":"waste_basket","osm_id":"7429090448","tag":{"collection_times":"Tu","condition":"POOR","ref:UK:leedscc:bin":"1023","waste_basket:model":"PLASTIC ROUND"}},"type":"Feature"},
	{"geometry":{"coordinates":[-1.507259,53.799178],"type":"Point"},"properties":{"amenity":"waste_basket","osm_id":"7429090451","tag":{"ref:UK:leedscc:bin":"4197"}},"type":"Feature"},
	{"geometry":{"coordinates":[-1.567458,53.773969],"type":"Point"},"properties":{"amenity":"waste_basket","osm_id":"7429090455","tag":{"ref:UK:leedscc:bin":"3543"}},"type":"Feature"},
	{"geometry":{"coordinates":[-1.520658,53.754689],"type":"Point"},"properties":{"amenity":"waste_basket","osm_id":"7429090457","tag":{"collection_times":"We","condition":"FAIR","ref:UK:leedscc:bin":"4365","waste_basket:model":"PLASTIC ROUND"}},"type":"Feature"},
	{"geometry":{"coordinates":[-1.555195,53.766288],"type":"Point"},"properties":{"amenity":"waste_basket","osm_id":"7429090461","tag":{"ref:UK:leedscc:bin":"83"}},"type":"Feature"},
	{"geometry":{"coordinates":[-1.537569,53.766761],"type":"Point"},"properties":{"amenity":"waste_basket","osm_id":"7429090463","tag":{"collection_times":"Th","condition":"GOOD","ref:UK:leedscc:bin":"4350","waste_basket:model":"METAL SQUARE"}},"type":"Feature"},
	{"geometry":{"coordinates":[-1.540228,53.779157],"type":"Point"},"properties":{"amenity":"waste_basket","osm_id":"7429090465","tag":{"collection_times":"Tu","condition":"GOOD","ref:UK:leedscc:bin":"8922","waste_basket:model":"METAL SQUARE"}},"type":"Feature"},
	{"geometry":{"coordinates":[-1.527892,53.763328],"type":"Point"},"properties":{"amenity":"waste_basket","osm_id":"7429090467","tag":{"collection_times":"Th","condition":"GOOD","ref:UK:leedscc:bin":"8240","waste_basket:model":"METAL SQUARE"}},"type":"Feature"},
	{"geometry":{"coordinates":[-1.529282,53.764117],"type":"Point"},"properties":{"amenity":"waste_basket","osm_id":"7429090471","tag":{"collection_times":"Mo-Fr","condition":"GOOD","ref:UK:leedscc:bin":"221","waste_basket:model":"METAL SQUARE"}},"type":"Feature"},
	{"geometry":{"coordinates":[-1.527837,53.781368],"type":"Point"},"properties":{"amenity":"waste_basket","osm_id":"7429090479","tag":{"collection_times":"We","condition":"GOOD","ref:UK:leedscc:bin":"3659","waste_basket:model":"METAL TWIN"}},"type":"Feature"},
	{"geometry":{"coordinates":[-1.497163,53.756821],"type":"Point"},"properties":{"amenity":"waste_basket","osm_id":"7429090485","tag":{"ref:UK:leedscc:bin":"3682"}},"type":"Feature"},
	{"geometry":{"coordinates":[-1.545057,53.775903],"type":"Point"},"properties":{"amenity":"waste_basket","osm_id":"7429090493","tag":{"collection_times":"Mo-Fr","condition":"FAIR","ref:UK:leedscc:bin":"882","waste_basket:model":"METAL CAST IRON"}},"type":"Feature"},
	{"geometry":{"coordinates":[-1.546971,53.775135],"type":"Point"},"properties":{"amenity":"waste_basket","osm_id":"7429090494","tag":{"collection_times":"Mo","condition":"FAIR","ref:UK:leedscc:bin":"10550","waste_basket:model":"METAL SQUARE"}},"type":"Feature"},
	{"geometry":{"coordinates":[-1.560977,53.764704],"type":"Point"},"properties":{"amenity":"waste_basket","osm_id":"7429090499","tag":{"ref:UK:leedscc:bin":"895"}},"type":"Feature"},
	{"geometry":{"coordinates":[-1.562141,53.764178],"type":"Point"},"properties":{"amenity":"waste_basket","osm_id":"7429090503","tag":{"ref:UK:leedscc:bin":"893"}},"type":"Feature"},
	{"geometry":{"coordinates":[-1.562152,53.764174],"type":"Point"},"properties":{"amenity":"waste_basket","osm_id":"7429090504","tag":{"ref:UK:leedscc:bin":"894"}},"type":"Feature"},
	{"geometry":{"coordinates":[-1.520527,53.756553],"type":"Point"},"properties":{"amenity":"waste_basket","osm_id":"7429090505","tag":{"collection_times":"We","condition":"GOOD","ref:UK:leedscc:bin":"4364","waste_basket:model":"METAL SQUARE"}},"type":"Feature"},
	{"geometry":{"coordinates":[-1.545429,53.775649],"type":"Point"},"properties":{"amenity":"waste_basket","osm_id":"7429090506","tag":{"collection_times":"Mo-Fr","condition":"GOOD","ref:UK:leedscc:bin":"881","waste_basket:model":"METAL SQUARE"}},"type":"Feature"},
	{"geometry":{"coordinates":[-1.543916,53.776319],"type":"Point"},"properties":{"amenity":"waste_basket","osm_id":"7429090507","tag":{"collection_times":"Fr","condition":"GOOD","ref:UK:leedscc:bin":"10537","waste_basket:model":"METAL SQUARE"}},"type":"Feature"},
	{"geometry":{"coordinates":[-1.557742,53.76603],"type":"Point"},"properties":{"amenity":"waste_basket","osm_id":"7429090508","tag":{"ref:UK:leedscc:bin":"897"}},"type":"Feature"},
	{"geometry":{"coordinates":[-1.524134,53.761338],"type":"Point"},"properties":{"amenity":"waste_basket","osm_id":"7429090515","tag":{"collection_times":"Mo","condition":"GOOD","ref:UK:leedscc:bin":"8235","waste_basket:model":"METAL SQUARE"}},"type":"Feature"},
	{"geometry":{"coordinates":[-1.553181,53.773388],"type":"Point"},"properties":{"amenity":"waste_basket","osm_id":"7429090517","tag":{"collection_times":"Mo","condition":"GOOD","ref:UK:leedscc:bin":"10552","waste_basket:model":"METAL SQUARE"}},"type":"Feature"},
	{"geometry":{"coordinates":[-1.54289,53.776618],"type":"Point"},"properties":{"amenity":"waste_basket","osm_id":"7429090524","tag":{"collection_times":"Tu","condition":"GOOD","ref:UK:leedscc:bin":"10538","waste_basket:model":"METAL SQUARE"}},"type":"Feature"},
	{"geometry":{"coordinates":[-1.575579,53.77565],"type":"Point"},"properties":{"amenity":"waste_basket","osm_id":"7429090525","tag":{"ref:UK:leedscc:bin":"1002"}},"type":"Feature"},
	{"geometry":{"coordinates":[-1.55381,53.767243],"type":"Point"},"properties":{"amenity":"waste_basket","osm_id":"7429090526","tag":{"ref:UK:leedscc:bin":"3578"}},"type":"Feature"},
	{"geometry":{"coordinates":[-1.506291,53.800516],"type":"Point"},"properties":{"amenity":"waste_basket","osm_id":"7429090527","tag":{"ref:UK:leedscc:bin":"3277"}},"type":"Feature"},
	{"geometry":{"coordinates":[-1.560603,53.765177],"type":"Point"},"properties":{"amenity":"waste_basket","osm_id":"7429090528","tag":{"ref:UK:leedscc:bin":"896"}},"type":"Feature"},
	{"geometry":{"coordinates":[-1.527867,53.764109],"type":"Point"},"properties":{"amenity":"waste_basket","osm_id":"7429090530","tag":{"collection_times":"Mo","condition":"GOOD","ref:UK:leedscc:bin":"212","waste_basket:model":"METAL SQUARE"}},"type":"Feature"},
	{"geometry":{"coordinates":[-1.545056,53.775542],"type":"Point"},"properties":{"amenity":"waste_basket","osm_id":"7429090533","tag":{"collection_times":"Mo-Fr","condition":"GOOD","ref:UK:leedscc:bin":"10539","waste_basket:model":"CAST IRON SQUARE"}},"type":"Feature"},
	{"geometry":{"coordinates":[-1.565711,53.772967],"type":"Point"},"properties":{"amenity":"waste_basket","osm_id":"7429090537","tag":{"ref:UK:leedscc:bin":"3370"}},"type":"Feature"},
	{"geometry":{"coordinates":[-1.565797,53.772916],"type":"Point"},"properties":{"amenity":"waste_basket","osm_id":"7429090545","tag":{"ref:UK:leedscc:bin":"3311"}},"type":"Feature"},
	{"geometry":{"coordinates":[-1.565284,53.772829],"type":"Point"},"properties":{"amenity":"waste_basket","osm_id":"7429090549","tag":{"ref:UK:leedscc:bin":"2374"}},"type":"Feature"},
	{"geometry":{"coordinates":[-1.562538,53.764505],"type":"Point"},"properties":{"amenity":"waste_basket","osm_id":"7429090555","tag":{"ref:UK:leedscc:bin":"2375"}},"type":"Feature"},
	{"geometry":{"coordinates":[-1.556646,53.76678],"type":"Point"},"properties":{"amenity":"waste_basket","osm_id":"7429090556","tag":{"ref:UK:leedscc:bin":"898"}},"type":"Feature"},
	{"geometry":{"coordinates":[-1.567188,53.773033],"type":"Point"},"properties":{"amenity":"waste_basket","osm_id":"7429090557","tag":{"ref:UK:leedscc:bin":"3542"}},"type":"Feature"},
	{"geometry":{"coordinates":[-1.566043,53.772863],"type":"Point"},"properties":{"amenity":"waste_basket","osm_id":"7429090558","tag":{"ref:UK:leedscc:bin":"3371"}},"type":"Feature"},
	{"geometry":{"coordinates":[-1.545193,53.77524],"type":"Point"},"properties":{"amenity":"waste_basket","osm_id":"7429090562","tag":{"collection_times":"Mo-Fr","condition":"GOOD","ref:UK:leedscc:bin":"10540","waste_basket:model":"CAST IRON SQUARE"}},"type":"Feature"},
	{"geometry":{"coordinates":[-1.519354,53.75544],"type":"Point"},"properties":{"amenity":"waste_basket","osm_id":"7429090564","tag":{"collection_times":"We","condition":"GOOD","ref:UK:leedscc:bin":"2732","waste_basket:model":"METAL SQUARE"}},"type":"Feature"},
	{"geometry":{"coordinates":[-1.562806,53.764444],"type":"Point"},"properties":{"amenity":"waste_basket","osm_id":"7429090565","tag":{"ref:UK:leedscc:bin":"2371"}},"type":"Feature"},
	{"geometry":{"coordinates":[-1.529021,53.764988],"type":"Point"},"properties":{"amenity":"waste_basket","osm_id":"7429090566","tag":{"collection_times":"Mo-Fr","condition":"GOOD","ref:UK:leedscc:bin":"216","waste_basket:model":"METAL SQUARE"}},"type":"Feature"},
	{"geometry":{"coordinates":[-1.546924,53.774497],"type":"Point"},"properties":{"amenity":"waste_basket","osm_id":"7429090570","tag":{"collection_times":"Mo","condition":"FAIR","ref:UK:leedscc:bin":"10549","waste_basket:model":"METAL SQUARE"}},"type":"Feature"},
	{"geometry":{"coordinates":[-1.565281,53.772664],"type":"Point"},"properties":{"amenity":"waste_basket","osm_id":"7429090571","tag":{"ref:UK:leedscc:bin":"2380"}},"type":"Feature"},
	{"geometry":{"coordinates":[-1.537142,53.767645],"type":"Point"},"properties":{"amenity":"waste_basket","osm_id":"7429090574","tag":{"collection_times":"Th","condition":"GOOD","ref:UK:leedscc:bin":"8241","waste_basket:model":"METAL SQUARE"}},"type":"Feature"},
	{"geometry":{"coordinates":[-1.533014,53.76663],"type":"Point"},"properties":{"amenity":"waste_basket","osm_id":"7429090576","tag":{"collection_times":"Th","condition":"GOOD","ref:UK:leedscc:bin":"4349","waste_basket:model":"METAL SQUARE"}},"type":"Feature"},
	{"geometry":{"coordinates":[-1.529754,53.765442],"type":"Point"},"properties":{"amenity":"waste_basket","osm_id":"7429090577","tag":{"collection_times":"Mo-Fr","condition":"GOOD","ref:UK:leedscc:bin":"3674","waste_basket:model":"METAL SQUARE"}},"type":"Feature"},
	{"geometry":{"coordinates":[-1.505612,53.800147],"type":"Point"},"properties":{"amenity":"waste_basket","osm_id":"7429090579","tag":{"ref:UK:leedscc:bin":"3763"}},"type":"Feature"},
	{"geometry":{"coordinates":[-1.526531,53.78078],"type":"Point"},"properties":{"amenity":"waste_basket","osm_id":"7429090584","tag":{"collection_times":"We","condition":"GOOD","ref:UK:leedscc:bin":"10564","waste_basket:model":"METAL SQUARE"}},"type":"Feature"},
	{"geometry":{"coordinates":[-1.546035,53.774691],"type":"Point"},"properties":{"amenity":"waste_basket","osm_id":"7429090587","tag":{"collection_times":"Mo","condition":"FAIR","ref:UK:leedscc:bin":"3377","waste_basket:model":"METAL TWIN"}},"type":"Feature"},
	{"geometry":{"coordinates":[-1.523346,53.76165],"type":"Point"},"properties":{"amenity":"waste_basket","osm_id":"7429090588","tag":{"collection_times":"Mo","condition":"GOOD","ref:UK:leedscc:bin":"8236","waste_basket:model":"METAL TWIN"}},"type":"Feature"},
	{"geometry":{"coordinates":[-1.54723,53.774221],"type":"Point"},"properties":{"amenity":"waste_basket","osm_id":"7429090590","tag":{"collection_times":"Mo","condition":"POOR","ref:UK:leedscc:bin":"3376","waste_basket:model":"METAL TWIN"}},"type":"Feature"},
	{"geometry":{"coordinates":[-1.566518,53.772651],"type":"Point"},"properties":{"amenity":"waste_basket","osm_id":"7429090593","tag":{"ref:UK:leedscc:bin":"3312"}},"type":"Feature"},
	{"geometry":{"coordinates":[-1.548878,53.77368],"type":"Point"},"properties":{"amenity":"waste_basket","osm_id":"7429090596","tag":{"collection_times":"Mo","condition":"POOR","ref:UK:leedscc:bin":"3375","waste_basket:model":"METAL TWIN"}},"type":"Feature"},
	{"geometry":{"coordinates":[-1.56653,53.772623],"type":"Point"},"properties":{"amenity":"waste_basket","osm_id":"7429090598","tag":{"ref:UK:leedscc:bin":"3372"}},"type":"Feature"},
	{"geometry":{"coordinates":[-1.528213,53.765001],"type":"Point"},"properties":{"amenity":"waste_basket","osm_id":"7429090604","tag":{"collection_times":"Mo","condition":"GOOD","ref:UK:leedscc:bin":"217","waste_basket:model":"METAL SQUARE"}},"type":"Feature"},
	{"geometry":{"coordinates":[-1.523913,53.762359],"type":"Point"},"properties":{"amenity":"waste_basket","osm_id":"7429090605","tag":{"collection_times":"Mo","condition":"GOOD","ref:UK:leedscc:bin":"2146","waste_basket:model":"METAL SQUARE"}},"type":"Feature"},
	{"geometry":{"coordinates":[-1.528518,53.765254],"type":"Point"},"properties":{"amenity":"waste_basket","osm_id":"7429090612","tag":{"collection_times":"Mo","condition":"GOOD","ref:UK:leedscc:bin":"222","waste_basket:model":"METAL SQUARE"}},"type":"Feature"},
	{"geometry":{"coordinates":[-1.52956,53.765738],"type":"Point"},"properties":{"amenity":"waste_basket","osm_id":"7429090613","tag":{"collection_times":"Mo-Fr","condition":"GOOD","ref:UK:leedscc:bin":"3673","waste_basket:model":"METAL SQUARE"}},"type":"Feature"},
	{"geometry":{"coordinates":[-1.518613,53.755483],"type":"Point"},"properties":{"amenity":"waste_basket","osm_id":"7429090615","tag":{"collection_times":"We","condition":"GOOD","ref:UK:leedscc:bin":"2733","waste_basket:model":"METAL SQUARE"}},"type":"Feature"},
	{"geometry":{"coordinates":[-1.55335,53.768056],"type":"Point"},"properties":{"amenity":"waste_basket","osm_id":"7429090616","tag":{"ref:UK:leedscc:bin":"900"}},"type":"Feature"},
	{"geometry":{"coordinates":[-1.522428,53.781721],"type":"Point"},"properties":{"amenity":"waste_basket","osm_id":"7429090619","tag":{"collection_times":"We","condition":"GOOD","ref:UK:leedscc:bin":"10560","waste_basket:model":"METAL SQUARE"}},"type":"Feature"},
	{"geometry":{"coordinates":[-1.546183,53.77429],"type":"Point"},"properties":{"amenity":"waste_basket","osm_id":"7429090620","tag":{"collection_times":"Mo-Fr","condition":"FAIR","ref:UK:leedscc:bin":"878","waste_basket:model":"METAL SQUARE"}},"type":"Feature"},
	{"geometry":{"coordinates":[-1.545916,53.774253],"type":"Point"},"properties":{"amenity":"waste_basket","osm_id":"7429090629","tag":{"collection_times":"Mo-Fr","condition":"FAIR","ref:UK:leedscc:bin":"879","waste_basket:model":"METAL SQUARE"}},"type":"Feature"},
	{"geometry":{"coordinates":[-1.564956,53.772104],"type":"Point"},"properties":{"amenity":"waste_basket","osm_id":"7429090631","tag":{"ref:UK:leedscc:bin":"2379"}},"type":"Feature"},
	{"geometry":{"coordinates":[-1.551125,53.772753],"type":"Point"},"properties":{"amenity":"waste_basket","osm_id":"7429090633","tag":{"collection_times":"Fr","condition":"POOR","ref:UK:leedscc:bin":"3177","waste_basket:model":"METAL TWIN"}},"type":"Feature"},
	{"geometry":{"coordinates":[-1.553677,53.768203],"type":"Point"},"properties":{"amenity":"waste_basket","osm_id":"7429090634","tag":{"ref:UK:leedscc:bin":"899"}},"type":"Feature"},
	{"geometry":{"coordinates":[-1.538289,53.778261],"type":"Point"},"properties":{"amenity":"waste_basket","osm_id":"7429090635","tag":{"collection_times":"Tu","condition":"GOOD","ref:UK:leedscc:bin":"8924","waste_basket:model":"METAL SQUARE"}},"type":"Feature"},
	{"geometry":{"coordinates":[-1.529367,53.765991],"type":"Point"},"properties":{"amenity":"waste_basket","osm_id":"7429090640","tag":{"collection_times":"Mo-Fr","condition":"GOOD","ref:UK:leedscc:bin":"3672","waste_basket:model":"METAL SQUARE"}},"type":"Feature"},
	{"geometry":{"coordinates":[-1.541767,53.775944],"type":"Point"},"properties":{"amenity":"waste_basket","osm_id":"7429090642","tag":{"collection_times":"Fr","condition":"FAIR","ref:UK:leedscc:bin":"10536","waste_basket:model":"METAL SQUARE"}},"type":"Feature"},
	{"geometry":{"coordinates":[-1.562668,53.77181],"type":"Point"},"properties":{"amenity":"waste_basket","osm_id":"7429090644","tag":{"ref:UK:leedscc:bin":"3734"}},"type":"Feature"},
	{"geometry":{"coordinates":[-1.523307,53.762619],"type":"Point"},"properties":{"amenity":"waste_basket","osm_id":"7429090648","tag":{"collection_times":"Mo-Fr","condition":"GOOD","ref:UK:leedscc:bin":"3668","waste_basket:model":"METAL SQUARE"}},"type":"Feature"},
	{"geometry":{"coordinates":[-1.523141,53.762514],"type":"Point"},"properties":{"amenity":"waste_basket","osm_id":"7429090652","tag":{"collection_times":"Mo-Fr","condition":"GOOD","ref:UK:leedscc:bin":"4358","waste_basket:model":"METAL SQUARE"}},"type":"Feature"},
	{"geometry":{"coordinates":[-1.52859,53.765826],"type":"Point"},"properties":{"amenity":"waste_basket","osm_id":"7429090661","tag":{"collection_times":"Mo-Fr","condition":"GOOD","ref:UK:leedscc:bin":"4347","waste_basket:model":"METAL SQUARE"}},"type":"Feature"},
	{"geometry":{"coordinates":[-1.541052,53.776143],"type":"Point"},"properties":{"amenity":"waste_basket","osm_id":"7429090662","tag":{"collection_times":"Fr","condition":"FAIR","ref:UK:leedscc:bin":"3382","waste_basket:model":"METAL SQUARE"}},"type":"Feature"},
	{"geometry":{"coordinates":[-1.567667,53.762577],"type":"Point"},"properties":{"amenity":"waste_basket","osm_id":"7429090665","tag":{"ref:UK:leedscc:bin":"2711"}},"type":"Feature"},
	{"geometry":{"coordinates":[-1.546988,53.773572],"type":"Point"},"properties":{"amenity":"waste_basket","osm_id":"7429090666","tag":{"collection_times":"Mo-Fr","condition":"FAIR","ref:UK:leedscc:bin":"10545","waste_basket:model":"METAL SQUARE"}},"type":"Feature"},
	{"geometry":{"coordinates":[-1.529473,53.766295],"type":"Point"},"properties":{"amenity":"waste_basket","osm_id":"7429090669","tag":{"collection_times":"Mo-Fr","condition":"GOOD","ref:UK:leedscc:bin":"8230","waste_basket:model":"METAL SQUARE"}},"type":"Feature"},
	{"geometry":{"coordinates":[-1.504203,53.800098],"type":"Point"},"properties":{"amenity":"waste_basket","osm_id":"7429090670","tag":{"ref:UK:leedscc:bin":"3764"}},"type":"Feature"},
	{"geometry":{"coordinates":[-1.545449,53.773965],"type":"Point"},"properties":{"amenity":"waste_basket","osm_id":"7429090673","tag":{"collection_times":"Mo-Fr","condition":"GOOD","ref:UK:leedscc:bin":"10544","waste_basket:model":"METAL SQUARE"}},"type":"Feature"},
	{"geometry":{"coordinates":[-1.527944,53.779558],"type":"Point"},"properties":{"amenity":"waste_basket","osm_id":"7429090675","tag":{"collection_times":"Mo-Fr","condition":"GOOD","ref:UK:leedscc:bin":"10572","waste_basket:model":"METAL SQUARE"}},"type":"Feature"},
	{"geometry":{"coordinates":[-1.546369,53.773522],"type":"Point"},"properties":{"amenity":"waste_basket","osm_id":"7429090678","tag":{"collection_times":"Mo-Fr","condition":"FAIR","ref:UK:leedscc:bin":"10546","waste_basket:model":"METAL SQUARE"}},"type":"Feature"},
	{"geometry":{"coordinates":[-1.499907,53.75744],"type":"Point"},"properties":{"amenity":"waste_basket","osm_id":"7429090684","tag":{"ref:UK:leedscc:bin":"3683"}},"type":"Feature"},
	{"geometry":{"coordinates":[-1.547559,53.773001],"type":"Point"},"properties":{"amenity":"waste_basket","osm_id":"7429090691","tag":{"collection_times":"Mo-Fr","condition":"FAIR","ref:UK:leedscc:bin":"10547","waste_basket:model":"METAL SQUARE"}},"type":"Feature"},
	{"geometry":{"coordinates":[-1.528109,53.779288],"type":"Point"},"properties":{"amenity":"waste_basket","osm_id":"7429090692","tag":{"collection_times":"Mo-Fr","condition":"GOOD","ref:UK:leedscc:bin":"10573","waste_basket:model":"METAL SQUARE"}},"type":"Feature"},
	{"geometry":{"coordinates":[-1.567971,53.763016],"type":"Point"},"properties":{"amenity":"waste_basket","osm_id":"7429090695","tag":{"ref:UK:leedscc:bin":"559"}},"type":"Feature"},
	{"geometry":{"coordinates":[-1.52579,53.779629],"type":"Point"},"properties":{"amenity":"waste_basket","osm_id":"7429090699","tag":{"collection_times":"Mo-Fr","condition":"GOOD","ref:UK:leedscc:bin":"10565","waste_basket:model":"METAL SQUARE"}},"type":"Feature"},
	{"geometry":{"coordinates":[-1.568026,53.77166],"type":"Point"},"properties":{"amenity":"waste_basket","osm_id":"7429090702","tag":{"ref:UK:leedscc:bin":"2949"}},"type":"Feature"},
	{"geometry":{"coordinates":[-1.523486,53.763906],"type":"Point"},"properties":{"amenity":"waste_basket","osm_id":"7429090708","tag":{"collection_times":"Mo","condition":"FAIR","ref:UK:leedscc:bin":"2147","waste_basket:model":"METAL TWIN"}},"type":"Feature"},
	{"geometry":{"coordinates":[-1.539361,53.776211],"type":"Point"},"properties":{"amenity":"waste_basket","osm_id":"7429090709","tag":{"collection_times":"Tu","condition":"GOOD","ref:UK:leedscc:bin":"8925","waste_basket:model":"METAL SQUARE"}},"type":"Feature"},
	{"geometry":{"coordinates":[-1.518625,53.759287],"type":"Point"},"properties":{"amenity":"waste_basket","osm_id":"7429090710","tag":{"collection_times":"We","condition":"GOOD","ref:UK:leedscc:bin":"2727","waste_basket:model":"METAL SQUARE"}},"type":"Feature"},
	{"geometry":{"coordinates":[-1.534692,53.768659],"type":"Point"},"properties":{"amenity":"waste_basket","osm_id":"7429090712","tag":{"collection_times":"Th","condition":"GOOD","ref:UK:leedscc:bin":"8231","waste_basket:model":"METAL SQUARE"}},"type":"Feature"},
	{"geometry":{"coordinates":[-1.570916,53.772095],"type":"Point"},"properties":{"amenity":"waste_basket","osm_id":"7429090714","tag":{"ref:UK:leedscc:bin":"3369"}},"type":"Feature"},
	{"geometry":{"coordinates":[-1.548319,53.772397],"type":"Point"},"properties":{"amenity":"waste_basket","osm_id":"7429090716","tag":{"collection_times":"Mo-Fr","condition":"FAIR","ref:UK:leedscc:bin":"10548","waste_basket:model":"METAL SQUARE"}},"type":"Feature"},
	{"geometry":{"coordinates":[-1.527985,53.778918],"type":"Point"},"properties":{"amenity":"waste_basket","osm_id":"7429090719","tag":{"collection_times":"Mo-Fr","condition":"POOR","ref:UK:leedscc:bin":"670","waste_basket:model":"CONCRETE ROUND"}},"type":"Feature"},
	{"geometry":{"coordinates":[-1.52811,53.778809],"type":"Point"},"properties":{"amenity":"waste_basket","osm_id":"7429090725","tag":{"collection_times":"Mo-Fr","condition":"GOOD","ref:UK:leedscc:bin":"671","waste_basket:model":"METAL SQUARE"}},"type":"Feature"},
	{"geometry":{"coordinates":[-1.530689,53.76774],"type":"Point"},"properties":{"amenity":"waste_basket","osm_id":"7429090732","tag":{"collection_times":"Th","condition":"FAIR","ref:UK:leedscc:bin":"4346","waste_basket:model":"METAL TWIN"}},"type":"Feature"},
	{"geometry":{"coordinates":[-1.529263,53.767242],"type":"Point"},"properties":{"amenity":"waste_basket","osm_id":"7429090734","tag":{"collection_times":"Mo","condition":"GOOD","ref:UK:leedscc:bin":"226","waste_basket:model":"METAL SQUARE"}},"type":"Feature"},
	{"geometry":{"coordinates":[-1.550192,53.771692],"type":"Point"},"properties":{"amenity":"waste_basket","osm_id":"7429090735","tag":{"collection_times":"Fr","condition":"POOR","ref:UK:leedscc:bin":"3176","waste_basket:model":"METAL TWIN"}},"type":"Feature"},
	{"geometry":{"coordinates":[-1.572085,53.7721],"type":"Point"},"properties":{"amenity":"waste_basket","osm_id":"7429090736","tag":{"ref:UK:leedscc:bin":"3313"}},"type":"Feature"},
	{"geometry":{"coordinates":[-1.531219,53.77796],"type":"Point"},"properties":{"amenity":"waste_basket","osm_id":"7429090750","tag":{"collection_times":"Mo-Fr","condition":"FAIR","ref:UK:leedscc:bin":"10570","waste_basket:model":"METAL SQUARE"}},"type":"Feature"},
	{"geometry":{"coordinates":[-1.548426,53.771794],"type":"Point"},"properties":{"amenity":"waste_basket","osm_id":"7429090753","tag":{"collection_times":"Mo-Fr","condition":"POOR","ref:UK:leedscc:bin":"877","waste_basket:model":"METAL TWIN"}},"type":"Feature"},
	{"geometry":{"coordinates":[-1.525393,53.778958],"type":"Point"},"properties":{"amenity":"waste_basket","osm_id":"7429090754","tag":{"collection_times":"We","condition":"FAIR","ref:UK:leedscc:bin":"10566","waste_basket:model":"METAL SQUARE"}},"type":"Feature"},
	{"geometry":{"coordinates":[-1.561801,53.770348],"type":"Point"},"properties":{"amenity":"waste_basket","osm_id":"7429090756","tag":{"ref:UK:leedscc:bin":"169"}},"type":"Feature"},
	{"geometry":{"coordinates":[-1.535505,53.777515],"type":"Point"},"properties":{"amenity":"waste_basket","osm_id":"7429090757","tag":{"collection_times":"Fr","condition":"GOOD","ref:UK:leedscc:bin":"10205","waste_basket:model":"METAL SQUARE"}},"type":"Feature"},
	{"geometry":{"coordinates":[-1.550905,53.770211],"type":"Point"},"properties":{"amenity":"waste_basket","osm_id":"7429090760","tag":{"ref:UK:leedscc:bin":"901"}},"type":"Feature"},
	{"geometry":{"coordinates":[-1.535363,53.769525],"type":"Point"},"properties":{"amenity":"waste_basket","osm_id":"7429090763","tag":{"collection_times":"Th","condition":"GOOD","ref:UK:leedscc:bin":"4352","waste_basket:model":"METAL SQUARE"}},"type":"Feature"},
	{"geometry":{"coordinates":[-1.529046,53.778056],"type":"Point"},"properties":{"amenity":"waste_basket","osm_id":"7429090764","tag":{"collection_times":"Mo-Fr","condition":"FAIR","ref:UK:leedscc:bin":"676","waste_basket:model":"PLASTIC ROUND"}},"type":"Feature"},
	{"geometry":{"coordinates":[-1.531573,53.777611],"type":"Point"},"properties":{"amenity":"waste_basket","osm_id":"7429090769","tag":{"collection_times":"Mo-Fr","condition":"POOR","ref:UK:leedscc:bin":"10569","waste_basket:model":"METAL TWIN"}},"type":"Feature"},
	{"geometry":{"coordinates":[-1.53678,53.776611],"type":"Point"},"properties":{"amenity":"waste_basket","osm_id":"7429090772","tag":{"collection_times":"Fr","condition":"FAIR","ref:UK:leedscc:bin":"10204","waste_basket:model":"METAL SQUARE"}},"type":"Feature"},
	{"geometry":{"coordinates":[-1.563888,53.766988],"type":"Point"},"properties":{"amenity":"waste_basket","osm_id":"7429090774","tag":{"ref:UK:leedscc:bin":"2372"}},"type":"Feature"},
	{"geometry":{"coordinates":[-1.537731,53.775753],"type":"Point"},"properties":{"amenity":"waste_basket","osm_id":"7429090790","tag":{"collection_times":"Fr","condition":"FAIR","ref:UK:leedscc:bin":"10534","waste_basket:model":"METAL SQUARE"}},"type":"Feature"},
	{"geometry":{"coordinates":[-1.531151,53.768828],"type":"Point"},"properties":{"amenity":"waste_basket","osm_id":"7429090795","tag":{"collection_times":"Th","condition":"GOOD","ref:UK:leedscc:bin":"8232","waste_basket:model":"METAL SQUARE"}},"type":"Feature"},
	{"geometry":{"coordinates":[-1.564723,53.769946],"type":"Point"},"properties":{"amenity":"waste_basket","osm_id":"7429090801","tag":{"ref:UK:leedscc:bin":"2378"}},"type":"Feature"},
	{"geometry":{"coordinates":[-1.532655,53.769411],"type":"Point"},"properties":{"amenity":"waste_basket","osm_id":"7429090802","tag":{"collection_times":"Th","condition":"GOOD","ref:UK:leedscc:bin":"4353","waste_basket:model":"METAL SQUARE"}},"type":"Feature"},
	{"geometry":{"coordinates":[-1.523629,53.765766],"type":"Point"},"properties":{"amenity":"waste_basket","osm_id":"7429090803","tag":{"collection_times":"Mo","condition":"GOOD","ref:UK:leedscc:bin":"2150","waste_basket:model":"METAL SQUARE"}},"type":"Feature"},
	{"geometry":{"coordinates":[-1.538033,53.775244],"type":"Point"},"properties":{"amenity":"waste_basket","osm_id":"7429090804","tag":{"collection_times":"Fr","condition":"GOOD","ref:UK:leedscc:bin":"10535","waste_basket:model":"METAL SQUARE"}},"type":"Feature"},
	{"geometry":{"coordinates":[-1.536325,53.776338],"type":"Point"},"properties":{"amenity":"waste_basket","osm_id":"7429090805","tag":{"collection_times":"Fr","condition":"FAIR","ref:UK:leedscc:bin":"10533","waste_basket:model":"METAL TWIN"}},"type":"Feature"},
	{"geometry":{"coordinates":[-1.574039,53.771608],"type":"Point"},"properties":{"amenity":"waste_basket","osm_id":"7429090806","tag":{"ref:UK:leedscc:bin":"856"}},"type":"Feature"},
	{"geometry":{"coordinates":[-1.518143,53.76175],"type":"Point"},"properties":{"amenity":"waste_basket","osm_id":"7429090809","tag":{"collection_times":"We","condition":"GOOD","ref:UK:leedscc:bin":"2725","waste_basket:model":"METAL SQUARE"}},"type":"Feature"},
	{"geometry":{"coordinates":[-1.536978,53.775719],"type":"Point"},"properties":{"amenity":"waste_basket","osm_id":"7429090812","tag":{"collection_times":"Fr","condition":"FAIR","ref:UK:leedscc:bin":"10532","waste_basket:model":"METAL TWIN"}},"type":"Feature"},
	{"geometry":{"coordinates":[-1.510418,53.784595],"type":"Point"},"properties":{"amenity":"waste_basket","osm_id":"7429090816","tag":{"ref:UK:leedscc:bin":"842"}},"type":"Feature"},
	{"geometry":{"coordinates":[-1.531418,53.769313],"type":"Point"},"properties":{"amenity":"waste_basket","osm_id":"7429090818","tag":{"collection_times":"Th","condition":"GOOD","ref:UK:leedscc:bin":"8233","waste_basket:model":"METAL SQUARE"}},"type":"Feature"},
	{"geometry":{"coordinates":[-1.528939,53.768551],"type":"Point"},"properties":{"amenity":"waste_basket","osm_id":"7429090821","tag":{"collection_times":"Mo","condition":"GOOD","ref:UK:leedscc:bin":"8229","waste_basket:model":"METAL WIRE BASKET"}},"type":"Feature"},
	{"geometry":{"coordinates":[-1.52662,53.777624],"type":"Point"},"properties":{"amenity":"waste_basket","osm_id":"7429090824","tag":{"collection_times":"We","condition":"GOOD","ref:UK:leedscc:bin":"10568","waste_basket:model":"METAL SQUARE"}},"type":"Feature"},
	{"geometry":{"coordinates":[-1.528486,53.768538],"type":"Point"},"properties":{"amenity":"waste_basket","osm_id":"7429090825","tag":{"collection_times":"Mo","condition":"GOOD","ref:UK:leedscc:bin":"8228","waste_basket:model":"METAL WIRE BASKET"}},"type":"Feature"},
	{"geometry":{"coordinates":[-1.523673,53.766363],"type":"Point"},"properties":{"amenity":"waste_basket","osm_id":"7429090827","tag":{"collection_times":"Mo","condition":"FAIR","ref:UK:leedscc:bin":"2149","waste_basket:model":"METAL TWIN"}},"type":"Feature"},
	{"geometry":{"coordinates":[-1.53007,53.769221],"type":"Point"},"properties":{"amenity":"waste_basket","osm_id":"7429090837","tag":{"collection_times":"Mo","condition":"GOOD","ref:UK:leedscc:bin":"4343","waste_basket:model":"METAL WIRE"}},"type":"Feature"},
	{"geometry":{"coordinates":[-1.525447,53.767402],"type":"Point"},"properties":{"amenity":"waste_basket","osm_id":"7429090838","tag":{"collection_times":"Mo","condition":"GOOD","ref:UK:leedscc:bin":"4401","waste_basket:model":"METAL SQUARE"}},"type":"Feature"},
	{"geometry":{"coordinates":[-1.527833,53.768525],"type":"Point"},"properties":{"amenity":"waste_basket","osm_id":"7429090844","tag":{"collection_times":"Mo","condition":"GOOD","ref:UK:leedscc:bin":"8227","waste_basket:model":"METAL WIRE BASKET"}},"type":"Feature"},
	{"geometry":{"coordinates":[-1.524201,53.766994],"type":"Point"},"properties":{"amenity":"waste_basket","osm_id":"7429090847","tag":{"collection_times":"Mo","condition":"GOOD","ref:UK:leedscc:bin":"8223","waste_basket:model":"METAL SQUARE"}},"type":"Feature"},
	{"geometry":{"coordinates":[-1.518871,53.779618],"type":"Point"},"properties":{"amenity":"waste_basket","osm_id":"7429090849","tag":{"collection_times":"We","condition":"POOR","ref:UK:leedscc:bin":"10559","waste_basket:model":"METAL TWIN"}},"type":"Feature"},
	{"geometry":{"coordinates":[-1.527379,53.768469],"type":"Point"},"properties":{"amenity":"waste_basket","osm_id":"7429090850","tag":{"collection_times":"Mo","condition":"GOOD","ref:UK:leedscc:bin":"8226","waste_basket:model":"METAL WIRE BASKET"}},"type":"Feature"},
	{"geometry":{"coordinates":[-1.564197,53.769129],"type":"Point"},"properties":{"amenity":"waste_basket","osm_id":"7429090851","tag":{"ref:UK:leedscc:bin":"2377"}},"type":"Feature"},
	{"geometry":{"coordinates":[-1.564235,53.769117],"type":"Point"},"properties":{"amenity":"waste_basket","osm_id":"7429090852","tag":{"ref:UK:leedscc:bin":"2373"}},"type":"Feature"},
	{"geometry":{"coordinates":[-1.564231,53.768269],"type":"Point"},"properties":{"amenity":"waste_basket","osm_id":"7429090860","tag":{"ref:UK:leedscc:bin":"2376"}},"type":"Feature"},
	{"geometry":{"coordinates":[-1.52963,53.769494],"type":"Point"},"properties":{"amenity":"waste_basket","osm_id":"7429090862","tag":{"collection_times":"Mo","condition":"GOOD","ref:UK:leedscc:bin":"4342","waste_basket:model":"METAL WIRE"}},"type":"Feature"},
	{"geometry":{"coordinates":[-1.530414,53.769782],"type":"Point"},"properties":{"amenity":"waste_basket","osm_id":"7429090864","tag":{"collection_times":"Mo","condition":"GOOD","ref:UK:leedscc:bin":"8234","waste_basket:model":"METAL SQUARE"}},"type":"Feature"},
	{"geometry":{"coordinates":[-1.527489,53.768781],"type":"Point"},"properties":{"amenity":"waste_basket","osm_id":"7429090865","tag":{"collection_times":"Mo","condition":"GOOD","ref:UK:leedscc:bin":"4344","waste_basket:model":"METAL SQUARE"}},"type":"Feature"},
	{"geometry":{"coordinates":[-1.526364,53.768358],"type":"Point"},"properties":{"amenity":"waste_basket","osm_id":"7429090867","tag":{"collection_times":"Mo","condition":"GOOD","ref:UK:leedscc:bin":"8225","waste_basket:model":"METAL WIRE BASKET"}},"type":"Feature"},
	{"geometry":{"coordinates":[-1.523775,53.767178],"type":"Point"},"properties":{"amenity":"waste_basket","osm_id":"7429090868","tag":{"collection_times":"Mo","condition":"GOOD","ref:UK:leedscc:bin":"4402","waste_basket:model":"METAL SQUARE"}},"type":"Feature"},
	{"geometry":{"coordinates":[-1.530188,53.776347],"type":"Point"},"properties":{"amenity":"waste_basket","osm_id":"7429090870","tag":{"collection_times":"Fr","condition":"GOOD","ref:UK:leedscc:bin":"10571","waste_basket:model":"METAL SQUARE"}},"type":"Feature"},
	{"geometry":{"coordinates":[-1.526107,53.768615],"type":"Point"},"properties":{"amenity":"waste_basket","osm_id":"7429090882","tag":{"collection_times":"Mo","condition":"GOOD","ref:UK:leedscc:bin":"8224","waste_basket:model":"METAL SQUARE"}},"type":"Feature"},
	{"geometry":{"coordinates":[-1.499055,53.796704],"type":"Point"},"properties":{"amenity":"waste_basket","osm_id":"7429090887","tag":{"ref:UK:leedscc:bin":"2399"}},"type":"Feature"},
	{"geometry":{"coordinates":[-1.499065,53.796304],"type":"Point"},"properties":{"amenity":"waste_basket","osm_id":"7429090890","tag":{"ref:UK:leedscc:bin":"2401"}},"type":"Feature"},
	{"geometry":{"coordinates":[-1.535571,53.77152],"type":"Point"},"properties":{"amenity":"waste_basket","osm_id":"7429090895","tag":{"collection_times":"Fr","condition":"FAIR","ref:UK:leedscc:bin":"10530","waste_basket:model":"METAL TWIN"}},"type":"Feature"},
	{"geometry":{"coordinates":[-1.498433,53.798315],"type":"Point"},"properties":{"amenity":"waste_basket","osm_id":"7429090910","tag":{"ref:UK:leedscc:bin":"2400"}},"type":"Feature"},
	{"geometry":{"coordinates":[-1.519751,53.777979],"type":"Point"},"properties":{"amenity":"waste_basket","osm_id":"7429090921","tag":{"collection_times":"We","condition":"GOOD","ref:UK:leedscc:bin":"10558","waste_basket:model":"METAL SQUARE"}},"type":"Feature"},
	{"geometry":{"coordinates":[-1.524195,53.768666],"type":"Point"},"properties":{"amenity":"waste_basket","osm_id":"7429090929","tag":{"collection_times":"Mo","condition":"FAIR","ref:UK:leedscc:bin":"2148","waste_basket:model":"METAL TWIN"}},"type":"Feature"},
	{"geometry":{"coordinates":[-1.570561,53.766538],"type":"Point"},"properties":{"amenity":"waste_basket","osm_id":"7429090932","tag":{"ref:UK:leedscc:bin":"560"}},"type":"Feature"},
	{"geometry":{"coordinates":[-1.522267,53.776905],"type":"Point"},"properties":{"amenity":"waste_basket","osm_id":"7429090936","tag":{"collection_times":"We","condition":"FAIR","ref:UK:leedscc:bin":"10567","waste_basket:model":"METAL SQUARE"}},"type":"Feature"},
	{"geometry":{"coordinates":[-1.530779,53.771581],"type":"Point"},"properties":{"amenity":"waste_basket","osm_id":"7429090957","tag":{"collection_times":"Fr","condition":"FAIR","ref:UK:leedscc:bin":"10576","waste_basket:model":"METAL SQUARE"}},"type":"Feature"},
	{"geometry":{"coordinates":[-1.569873,53.767642],"type":"Point"},"properties":{"amenity":"waste_basket","osm_id":"7429090960","tag":{"ref:UK:leedscc:bin":"3478"}},"type":"Feature"},
	{"geometry":{"coordinates":[-1.535498,53.773257],"type":"Point"},"properties":{"amenity":"waste_basket","osm_id":"7429090961","tag":{"collection_times":"Fr","condition":"FAIR","ref:UK:leedscc:bin":"10531","waste_basket:model":"METAL SQUARE"}},"type":"Feature"},
	{"geometry":{"coordinates":[-1.520954,53.776732],"type":"Point"},"properties":{"amenity":"waste_basket","osm_id":"7429090962","tag":{"collection_times":"We","condition":"FAIR","ref:UK:leedscc:bin":"4535","waste_basket:model":"METAL SQUARE"}},"type":"Feature"},
	{"geometry":{"coordinates":[-1.53126,53.77187],"type":"Point"},"properties":{"amenity":"waste_basket","osm_id":"7429090964","tag":{"collection_times":"Fr","condition":"FAIR","ref:UK:leedscc:bin":"10575","waste_basket:model":"METAL SQUARE"}},"type":"Feature"},
	{"geometry":{"coordinates":[-1.5293,53.771416],"type":"Point"},"properties":{"amenity":"waste_basket","osm_id":"7429090967","tag":{"collection_times":"Fr","condition":"GOOD","ref:UK:leedscc:bin":"10585","waste_basket:model":"METAL SQUARE"}},"type":"Feature"},
	{"geometry":{"coordinates":[-1.527448,53.770962],"type":"Point"},"properties":{"amenity":"waste_basket","osm_id":"7429090970","tag":{"collection_times":"Fr","condition":"GOOD","ref:UK:leedscc:bin":"10584","waste_basket:model":"METAL SQUARE"}},"type":"Feature"},
	{"geometry":{"coordinates":[-1.52384,53.769989],"type":"Point"},"properties":{"amenity":"waste_basket","osm_id":"7429090983","tag":{"collection_times":"Mo","condition":"GOOD","ref:UK:leedscc:bin":"4400","waste_basket:model":"METAL SQUARE"}},"type":"Feature"},
	{"geometry":{"coordinates":[-1.530582,53.772314],"type":"Point"},"properties":{"amenity":"waste_basket","osm_id":"7429090984","tag":{"collection_times":"Fr","condition":"GOOD","ref:UK:leedscc:bin":"10577","waste_basket:model":"METAL SQUARE"}},"type":"Feature"},
	{"geometry":{"coordinates":[-1.518097,53.776649],"type":"Point"},"properties":{"amenity":"waste_basket","osm_id":"7429090995","tag":{"collection_times":"We","condition":"GOOD","ref:UK:leedscc:bin":"10557","waste_basket:model":"METAL SQUARE"}},"type":"Feature"},
	{"geometry":{"coordinates":[-1.527681,53.771776],"type":"Point"},"properties":{"amenity":"waste_basket","osm_id":"7429090998","tag":{"collection_times":"Fr","condition":"GOOD","ref:UK:leedscc:bin":"10583","waste_basket:model":"METAL SQUARE"}},"type":"Feature"},
	{"geometry":{"coordinates":[-1.530653,53.773271],"type":"Point"},"properties":{"amenity":"waste_basket","osm_id":"7429091020","tag":{"collection_times":"Fr","condition":"FAIR","ref:UK:leedscc:bin":"10578","waste_basket:model":"METAL SQUARE"}},"type":"Feature"},
	{"geometry":{"coordinates":[-1.503454,53.78342],"type":"Point"},"properties":{"amenity":"waste_basket","osm_id":"7429091022","tag":{"ref:UK:leedscc:bin":"1691"}},"type":"Feature"},
	{"geometry":{"coordinates":[-1.520739,53.769809],"type":"Point"},"properties":{"amenity":"waste_basket","osm_id":"7429091024","tag":{"collection_times":"Mo","condition":"GOOD","ref:UK:leedscc:bin":"2530","waste_basket:model":"METAL SQUARE"}},"type":"Feature"},
	{"geometry":{"coordinates":[-1.527717,53.773403],"type":"Point"},"properties":{"amenity":"waste_basket","osm_id":"7429091028","tag":{"collection_times":"Fr","condition":"FAIR","ref:UK:leedscc:bin":"10579","waste_basket:model":"METAL SQUARE"}},"type":"Feature"},
	{"geometry":{"coordinates":[-1.501251,53.784942],"type":"Point"},"properties":{"amenity":"waste_basket","osm_id":"7429091031","tag":{"ref:UK:leedscc:bin":"1692"}},"type":"Feature"},
	{"geometry":{"coordinates":[-1.525736,53.772454],"type":"Point"},"properties":{"amenity":"waste_basket","osm_id":"7429091041","tag":{"collection_times":"Fr","condition":"POOR","ref:UK:leedscc:bin":"10580","waste_basket:model":"METAL TWIN"}},"type":"Feature"},
	{"geometry":{"coordinates":[-1.524849,53.772355],"type":"Point"},"properties":{"amenity":"waste_basket","osm_id":"7429091048","tag":{"collection_times":"Fr","condition":"GOOD","ref:UK:leedscc:bin":"10582","waste_basket:model":"METAL SQUARE"}},"type":"Feature"},
	{"geometry":{"coordinates":[-1.522373,53.772297],"type":"Point"},"properties":{"amenity":"waste_basket","osm_id":"7429091069","tag":{"collection_times":"Fr","condition":"GOOD","ref:UK:leedscc:bin":"10581","waste_basket:model":"METAL SQUARE"}},"type":"Feature"},
	{"geometry":{"coordinates":[-1.581311,53.766775],"type":"Point"},"properties":{"amenity":"waste_basket","osm_id":"7429091078","tag":{"ref:UK:leedscc:bin":"935"}},"type":"Feature"},
	{"geometry":{"coordinates":[-1.581057,53.766699],"type":"Point"},"properties":{"amenity":"waste_basket","osm_id":"7429091079","tag":{"ref:UK:leedscc:bin":"934"}},"type":"Feature"},
	{"geometry":{"coordinates":[-1.580599,53.766743],"type":"Point"},"properties":{"amenity":"waste_basket","osm_id":"7429091089","tag":{"ref:UK:leedscc:bin":"933"}},"type":"Feature"},
	{"geometry":{"coordinates":[-1.514885,53.774567],"type":"Point"},"properties":{"amenity":"waste_basket","osm_id":"7429091092","tag":{"collection_times":"We","condition":"GOOD","ref:UK:leedscc:bin":"4536","waste_basket:model":"METAL SQUARE"}},"type":"Feature"}
]
}
