{
"type": "FeatureCollection",
"lastupdate": "2020-07-24T00:48:03Z",
"features": [
	{"geometry":{"coordinates":[-1.539713,50.758796],"type":"Point"},"properties":{"amenity":"waste_basket","osm_id":"5008462556"},"type":"Feature"},
	{"geometry":{"coordinates":[-1.536663,50.758955],"type":"Point"},"properties":{"amenity":"recycling","osm_id":"5008462557"},"type":"Feature"},
	{"geometry":{"coordinates":[-1.536405,50.75889],"type":"Point"},"properties":{"amenity":"recycling","osm_id":"5008462558"},"type":"Feature"},
	{"geometry":{"coordinates":[-1.536156,50.758712],"type":"Point"},"properties":{"amenity":"recycling","osm_id":"5008462559"},"type":"Feature"},
	{"geometry":{"coordinates":[-1.535701,50.758403],"type":"Point"},"properties":{"amenity":"recycling","osm_id":"5008462560"},"type":"Feature"},
	{"geometry":{"coordinates":[-1.544148,50.757717],"type":"Point"},"properties":{"amenity":"recycling","osm_id":"5008462562"},"type":"Feature"},
	{"geometry":{"coordinates":[-1.539753,50.759034],"type":"Point"},"properties":{"amenity":"waste_basket","osm_id":"5008462753"},"type":"Feature"},
	{"geometry":{"coordinates":[-1.53659,50.758836],"type":"Point"},"properties":{"amenity":"waste_basket","osm_id":"5008462754"},"type":"Feature"},
	{"geometry":{"coordinates":[-1.535901,50.758554],"type":"Point"},"properties":{"amenity":"recycling","osm_id":"5008462756"},"type":"Feature"},
	{"geometry":{"coordinates":[-1.539443,50.758792],"type":"Point"},"properties":{"amenity":"waste_basket","osm_id":"5008462866"},"type":"Feature"},
	{"geometry":{"coordinates":[-1.536671,50.758905],"type":"Point"},"properties":{"amenity":"waste_basket","osm_id":"5008462867"},"type":"Feature"},
	{"geometry":{"coordinates":[-1.536323,50.758906],"type":"Point"},"properties":{"amenity":"waste_basket","osm_id":"5008463021"},"type":"Feature"},
	{"geometry":{"coordinates":[-1.535981,50.758622],"type":"Point"},"properties":{"amenity":"recycling","osm_id":"5008463022"},"type":"Feature"},
	{"geometry":{"coordinates":[-1.540585,50.759616],"type":"Point"},"properties":{"amenity":"recycling","osm_id":"6854833646","tag":{"recycling:cans":"yes","recycling:cardboard":"yes","recycling:paper":"yes","recycling:plastic_bottles":"yes","recycling_type":"container"}},"type":"Feature"},
	{"geometry":{"coordinates":[-1.54042,50.75966],"type":"Point"},"properties":{"amenity":"recycling","osm_id":"6854833647","tag":{"recycling:glass":"yes","recycling:glass_bottles":"yes","recycling_type":"container"}},"type":"Feature"}
]
}
