{
"type": "FeatureCollection",
"lastupdate": "2020-07-30T00:29:16Z",
"features": [
	{"geometry":{"coordinates":[-0.130563,51.49075],"type":"Point"},"properties":{"amenity":"recycling","osm_id":"25536894","tag":{"recycling_type":"container"}},"type":"Feature"},
	{"geometry":{"coordinates":[-0.13688,51.497863],"type":"Point"},"properties":{"amenity":"recycling","osm_id":"169367547"},"type":"Feature"},
	{"geometry":{"coordinates":[-0.122637,51.472387],"type":"Point"},"properties":{"amenity":"recycling","osm_id":"262131046","tag":{"recycling:paper":"yes"}},"type":"Feature"},
	{"geometry":{"coordinates":[-0.106387,51.490694],"type":"Point"},"properties":{"amenity":"recycling","osm_id":"265251334"},"type":"Feature"},
	{"geometry":{"coordinates":[-0.139029,51.489805],"type":"Point"},"properties":{"amenity":"recycling","osm_id":"273210306"},"type":"Feature"},
	{"geometry":{"coordinates":[-0.143766,51.493006],"type":"Point"},"properties":{"amenity":"recycling","osm_id":"276069802"},"type":"Feature"},
	{"geometry":{"coordinates":[-0.141247,51.487515],"type":"Point"},"properties":{"amenity":"recycling","osm_id":"277625372"},"type":"Feature"},
	{"geometry":{"coordinates":[-0.158842,51.48787],"type":"Point"},"properties":{"amenity":"recycling","osm_id":"280860049"},"type":"Feature"},
	{"geometry":{"coordinates":[-0.142663,51.489658],"type":"Point"},"properties":{"amenity":"recycling","osm_id":"280861204","tag":{"recycling:cans":"yes","recycling:cardboard":"yes","recycling:cartons":"yes","recycling:clothes":"no","recycling:electrical_appliances":"no","recycling:glass_bottles":"yes","recycling:magazines":"yes","recycling:newspaper":"yes","recycling:paper":"yes","recycling:paper_packaging":"yes","recycling:plastic_bottles":"yes","recycling:scrap_metal":"no","recycling_type":"container"}},"type":"Feature"},
	{"geometry":{"coordinates":[-0.110376,51.501395],"type":"Point"},"properties":{"amenity":"recycling","osm_id":"294197623","tag":{"recycling:clothes":"yes","recycling:glass":"yes"}},"type":"Feature"},
	{"geometry":{"coordinates":[-0.090337,51.492049],"type":"Point"},"properties":{"amenity":"recycling","osm_id":"296145694"},"type":"Feature"},
	{"geometry":{"coordinates":[-0.091924,51.461131],"type":"Point"},"properties":{"amenity":"recycling","osm_id":"297007570"},"type":"Feature"},
	{"geometry":{"coordinates":[-0.098609,51.475451],"type":"Point"},"properties":{"amenity":"recycling","osm_id":"300952597"},"type":"Feature"},
	{"geometry":{"coordinates":[-0.099371,51.472364],"type":"Point"},"properties":{"amenity":"recycling","osm_id":"300952601"},"type":"Feature"},
	{"geometry":{"coordinates":[-0.098431,51.47165],"type":"Point"},"properties":{"amenity":"recycling","osm_id":"300952604"},"type":"Feature"},
	{"geometry":{"coordinates":[-0.096883,51.470567],"type":"Point"},"properties":{"amenity":"recycling","osm_id":"300952611"},"type":"Feature"},
	{"geometry":{"coordinates":[-0.104292,51.46965],"type":"Point"},"properties":{"amenity":"recycling","osm_id":"300952653"},"type":"Feature"},
	{"geometry":{"coordinates":[-0.104923,51.467924],"type":"Point"},"properties":{"amenity":"recycling","osm_id":"300952658"},"type":"Feature"},
	{"geometry":{"coordinates":[-0.138428,51.492316],"type":"Point"},"properties":{"amenity":"recycling","osm_id":"301010017","tag":{"location":"overground","recycling_type":"container"}},"type":"Feature"},
	{"geometry":{"coordinates":[-0.143104,51.492563],"type":"Point"},"properties":{"amenity":"recycling","osm_id":"308833277","tag":{"opening_hours":"Mo-Su 00:00-23:59","recycling:cans":"yes","recycling:glass_bottles":"yes","recycling:paper":"yes","recycling:plastic_bottles":"yes"}},"type":"Feature"},
	{"geometry":{"coordinates":[-0.127855,51.494795],"type":"Point"},"properties":{"amenity":"recycling","osm_id":"313350288","tag":{"recycling_type":"container"}},"type":"Feature"},
	{"geometry":{"coordinates":[-0.13805,51.487224],"type":"Point"},"properties":{"amenity":"recycling","osm_id":"313741868","tag":{"opening_hours":"Mo-Su 00:00-23:59","recycling:cartons":"yes","recycling:clothes":"yes","recycling:paper":"yes","recycling:plastic_bottles":"yes","recycling:small_appliances":"yes"}},"type":"Feature"},
	{"geometry":{"coordinates":[-0.132169,51.494599],"type":"Point"},"properties":{"amenity":"recycling","osm_id":"313914278","tag":{"recycling:cans":"yes","recycling:cardboard":"yes","recycling:cartons":"yes","recycling:clothes":"yes","recycling:glass_bottles":"yes","recycling:magazines":"yes","recycling:newspaper":"yes","recycling:paper":"yes","recycling:plastic_bottles":"yes"}},"type":"Feature"},
	{"geometry":{"coordinates":[-0.107399,51.485346],"type":"Point"},"properties":{"amenity":"waste_basket","osm_id":"322958482"},"type":"Feature"},
	{"geometry":{"coordinates":[-0.105226,51.485049],"type":"Point"},"properties":{"amenity":"waste_basket","osm_id":"322958509"},"type":"Feature"},
	{"geometry":{"coordinates":[-0.10519,51.484764],"type":"Point"},"properties":{"amenity":"waste_basket","osm_id":"322958512"},"type":"Feature"},
	{"geometry":{"coordinates":[-0.099782,51.486447],"type":"Point"},"properties":{"amenity":"waste_basket","osm_id":"322959217"},"type":"Feature"},
	{"geometry":{"coordinates":[-0.092948,51.4861],"type":"Point"},"properties":{"amenity":"waste_basket","osm_id":"322959358"},"type":"Feature"},
	{"geometry":{"coordinates":[-0.093698,51.484387],"type":"Point"},"properties":{"amenity":"waste_basket","osm_id":"322979555"},"type":"Feature"},
	{"geometry":{"coordinates":[-0.093828,51.484605],"type":"Point"},"properties":{"amenity":"waste_basket","osm_id":"322979562"},"type":"Feature"},
	{"geometry":{"coordinates":[-0.09391,51.485137],"type":"Point"},"properties":{"amenity":"waste_basket","osm_id":"322979595"},"type":"Feature"},
	{"geometry":{"coordinates":[-0.089923,51.476267],"type":"Point"},"properties":{"amenity":"recycling","osm_id":"332146505"},"type":"Feature"},
	{"geometry":{"coordinates":[-0.092803,51.475551],"type":"Point"},"properties":{"amenity":"recycling","osm_id":"332147215"},"type":"Feature"},
	{"geometry":{"coordinates":[-0.094947,51.506962],"type":"Point"},"properties":{"amenity":"waste_basket","osm_id":"352925490"},"type":"Feature"},
	{"geometry":{"coordinates":[-0.095237,51.50698],"type":"Point"},"properties":{"amenity":"waste_basket","osm_id":"352925492"},"type":"Feature"},
	{"geometry":{"coordinates":[-0.095296,51.506445],"type":"Point"},"properties":{"amenity":"waste_basket","osm_id":"352925493"},"type":"Feature"},
	{"geometry":{"coordinates":[-0.095322,51.506287],"type":"Point"},"properties":{"amenity":"waste_basket","osm_id":"352925494"},"type":"Feature"},
	{"geometry":{"coordinates":[-0.095585,51.505401],"type":"Point"},"properties":{"amenity":"waste_basket","osm_id":"352925498"},"type":"Feature"},
	{"geometry":{"coordinates":[-0.09574,51.504366],"type":"Point"},"properties":{"amenity":"waste_basket","osm_id":"352925501"},"type":"Feature"},
	{"geometry":{"coordinates":[-0.095697,51.503943],"type":"Point"},"properties":{"amenity":"waste_basket","osm_id":"352925502"},"type":"Feature"},
	{"geometry":{"coordinates":[-0.095843,51.502717],"type":"Point"},"properties":{"amenity":"waste_basket","osm_id":"352925506"},"type":"Feature"},
	{"geometry":{"coordinates":[-0.096054,51.502559],"type":"Point"},"properties":{"amenity":"waste_basket","osm_id":"352928481"},"type":"Feature"},
	{"geometry":{"coordinates":[-0.096837,51.502704],"type":"Point"},"properties":{"amenity":"waste_basket","osm_id":"352928508"},"type":"Feature"},
	{"geometry":{"coordinates":[-0.096694,51.502486],"type":"Point"},"properties":{"amenity":"waste_basket","osm_id":"352928510","tag":{"waste":"dog_excrement"}},"type":"Feature"},
	{"geometry":{"coordinates":[-0.096689,51.502475],"type":"Point"},"properties":{"amenity":"waste_basket","osm_id":"352928512"},"type":"Feature"},
	{"geometry":{"coordinates":[-0.097427,51.502402],"type":"Point"},"properties":{"amenity":"waste_basket","osm_id":"352928518"},"type":"Feature"},
	{"geometry":{"coordinates":[-0.097936,51.501717],"type":"Point"},"properties":{"amenity":"waste_basket","osm_id":"352928522"},"type":"Feature"},
	{"geometry":{"coordinates":[-0.094772,51.501704],"type":"Point"},"properties":{"amenity":"waste_basket","osm_id":"352928526"},"type":"Feature"},
	{"geometry":{"coordinates":[-0.094565,51.501625],"type":"Point"},"properties":{"amenity":"waste_basket","osm_id":"352928528"},"type":"Feature"},
	{"geometry":{"coordinates":[-0.093007,51.501327],"type":"Point"},"properties":{"amenity":"waste_basket","osm_id":"352928530"},"type":"Feature"},
	{"geometry":{"coordinates":[-0.092788,51.501731],"type":"Point"},"properties":{"amenity":"waste_basket","osm_id":"352928531"},"type":"Feature"},
	{"geometry":{"coordinates":[-0.092592,51.501917],"type":"Point"},"properties":{"amenity":"waste_basket","osm_id":"352928532"},"type":"Feature"},
	{"geometry":{"coordinates":[-0.092475,51.501887],"type":"Point"},"properties":{"amenity":"waste_basket","osm_id":"352928533"},"type":"Feature"},
	{"geometry":{"coordinates":[-0.088527,51.50219],"type":"Point"},"properties":{"amenity":"waste_basket","osm_id":"352929718"},"type":"Feature"},
	{"geometry":{"coordinates":[-0.088182,51.502217],"type":"Point"},"properties":{"amenity":"waste_basket","osm_id":"352929726"},"type":"Feature"},
	{"geometry":{"coordinates":[-0.088197,51.502495],"type":"Point"},"properties":{"amenity":"waste_basket","osm_id":"352929728"},"type":"Feature"},
	{"geometry":{"coordinates":[-0.138923,51.461684],"type":"Point"},"properties":{"amenity":"recycling","osm_id":"392625780","tag":{"recycling:batteries":"yes","recycling:books":"yes","recycling:cans":"no","recycling:cardboard":"yes","recycling:cartons":"no","recycling:cds":"yes","recycling:clothes":"no","recycling:electrical_appliances":"no","recycling:glass":"no","recycling:glass_bottles":"no","recycling:green_waste":"no","recycling:low_energy_bulbs":"yes","recycling:magazines":"yes","recycling:newspaper":"yes","recycling:paper":"yes","recycling:paper_packaging":"yes","recycling:plastic":"no","recycling:plastic_bottles":"no","recycling:plastic_packaging":"no","recycling:scrap_metal":"no","recycling:small_appliances":"yes","recycling:waste":"no","recycling:wood":"no","recycling_type":"container"}},"type":"Feature"},
	{"geometry":{"coordinates":[-0.137297,51.491227],"type":"Point"},"properties":{"amenity":"recycling","osm_id":"418985777","tag":{"location":"overground","recycling_type":"container"}},"type":"Feature"},
	{"geometry":{"coordinates":[-0.145129,51.486788],"type":"Point"},"properties":{"amenity":"recycling","osm_id":"423595934","tag":{"location":"overground","recycling_type":"container"}},"type":"Feature"},
	{"geometry":{"coordinates":[-0.144852,51.490667],"type":"Point"},"properties":{"amenity":"recycling","osm_id":"428964048","tag":{"recycling:cans":"yes","recycling:glass":"yes","recycling:paper":"yes"}},"type":"Feature"},
	{"geometry":{"coordinates":[-0.143624,51.490119],"type":"Point"},"properties":{"amenity":"recycling","osm_id":"428964049","tag":{"recycling:cans":"yes","recycling:glass":"yes","recycling:paper":"yes"}},"type":"Feature"},
	{"geometry":{"coordinates":[-0.115475,51.50492],"type":"Point"},"properties":{"amenity":"recycling","osm_id":"441948420"},"type":"Feature"},
	{"geometry":{"coordinates":[-0.094092,51.49714],"type":"Point"},"properties":{"amenity":"recycling","osm_id":"564718520","tag":{"recycling_type":"container"}},"type":"Feature"},
	{"geometry":{"coordinates":[-0.097062,51.494962],"type":"Point"},"properties":{"amenity":"recycling","osm_id":"565522159"},"type":"Feature"},
	{"geometry":{"coordinates":[-0.090721,51.498052],"type":"Point"},"properties":{"amenity":"recycling","osm_id":"566225612"},"type":"Feature"},
	{"geometry":{"coordinates":[-0.106463,51.499941],"type":"Point"},"properties":{"amenity":"recycling","osm_id":"566454202"},"type":"Feature"},
	{"geometry":{"coordinates":[-0.095088,51.506351],"type":"Point"},"properties":{"amenity":"recycling","osm_id":"595011634"},"type":"Feature"},
	{"geometry":{"coordinates":[-0.089932,51.498943],"type":"Point"},"properties":{"amenity":"waste_basket","osm_id":"675439514"},"type":"Feature"},
	{"geometry":{"coordinates":[-0.147559,51.49071],"type":"Point"},"properties":{"amenity":"recycling","osm_id":"679215276"},"type":"Feature"},
	{"geometry":{"coordinates":[-0.102074,51.48681],"type":"Point"},"properties":{"amenity":"recycling","osm_id":"687934496"},"type":"Feature"},
	{"geometry":{"coordinates":[-0.097031,51.495663],"type":"Point"},"properties":{"amenity":"recycling","name":"Rockingham Street","osm_id":"855327734"},"type":"Feature"},
	{"geometry":{"coordinates":[-0.164826,51.493784],"type":"Point"},"properties":{"amenity":"recycling","name":"Denyer Street Depot","osm_id":"862464756","tag":{"operator":"The Royal Borough of Kensignton and Chelsea","recycling_type":"centre"}},"type":"Feature"},
	{"geometry":{"coordinates":[-0.106943,51.501324],"type":"Point"},"properties":{"amenity":"recycling","osm_id":"863838743"},"type":"Feature"},
	{"geometry":{"coordinates":[-0.089686,51.467813],"type":"Point"},"properties":{"amenity":"recycling","osm_id":"884220646","tag":{"recycling:cans":"yes","recycling:paper":"yes"}},"type":"Feature"},
	{"geometry":{"coordinates":[-0.089531,51.467841],"type":"Point"},"properties":{"amenity":"recycling","osm_id":"884220649","tag":{"recycling:cans":"yes","recycling:paper":"yes"}},"type":"Feature"},
	{"geometry":{"coordinates":[-0.10472,51.504037],"type":"Point"},"properties":{"amenity":"recycling","osm_id":"914501369"},"type":"Feature"},
	{"geometry":{"coordinates":[-0.100669,51.496077],"type":"Point"},"properties":{"amenity":"recycling","osm_id":"976548467","tag":{"recycling:cans":"yes","recycling:cardboard":"yes","recycling:paper":"yes"}},"type":"Feature"},
	{"geometry":{"coordinates":[-0.140396,51.496196],"type":"Point"},"properties":{"amenity":"recycling","osm_id":"983838954","tag":{"recycling:cans":"yes","recycling:cardboard":"yes","recycling:paper":"yes","recycling:plastic":"yes","recycling:plastic_bottles":"yes","recycling:plastic_packaging":"yes","recycling:small_appliances":"yes","recycling_type":"container"}},"type":"Feature"},
	{"geometry":{"coordinates":[-0.13343,51.492207],"type":"Point"},"properties":{"amenity":"recycling","osm_id":"1085864820","tag":{"opening_hours":"Mo-Su 00:00-23:59","recycling:cans":"yes","recycling:cardboard":"yes","recycling:glass_bottles":"yes","recycling:paper":"yes","recycling:plastic_bottles":"yes"}},"type":"Feature"},
	{"geometry":{"coordinates":[-0.169018,51.4634],"type":"Point"},"properties":{"amenity":"recycling","osm_id":"1165921288","tag":{"location":"overground","recycling:paper":"yes","recycling_type":"container"}},"type":"Feature"},
	{"geometry":{"coordinates":[-0.129089,51.492823],"type":"Point"},"properties":{"amenity":"recycling","osm_id":"1200541539","tag":{"opening_hours":"24/7","recycling:cans":"yes","recycling:christmas_trees":"yes","recycling:glass_bottles":"yes","recycling:paper":"yes","recycling:plastic_bottles":"yes"}},"type":"Feature"},
	{"geometry":{"coordinates":[-0.091876,51.474206],"type":"Point"},"properties":{"amenity":"recycling","osm_id":"1211957839","tag":{"operator":"London Borough of Southwark","recycling:cans":"yes","recycling:cardboard":"yes","recycling:glass_bottles":"yes","recycling:paper":"yes","recycling:plastic_bottles":"yes"}},"type":"Feature"},
	{"geometry":{"coordinates":[-0.142146,51.488682],"type":"Point"},"properties":{"amenity":"recycling","osm_id":"1223801987","tag":{"opening_hours":"Mo-Su 00:00-23:59","recycling:cardboard":"yes","recycling:glass_bottles":"yes","recycling:paper":"yes","recycling:plastic_bottles":"yes","recycling:waste":"yes"}},"type":"Feature"},
	{"geometry":{"coordinates":[-0.142301,51.490141],"type":"Point"},"properties":{"amenity":"recycling","osm_id":"1223802374","tag":{"opening_hours":"Mo-Su 00:00-23:59","recycling:cardboard":"yes","recycling:glass_bottles":"yes","recycling:newspaper":"yes","recycling:paper":"yes","recycling:plastic_bottles":"yes","recycling:waste":"yes"}},"type":"Feature"},
	{"geometry":{"coordinates":[-0.14051,51.491262],"type":"Point"},"properties":{"amenity":"recycling","osm_id":"1223802521","tag":{"opening_hours":"Mo-Su 00:00-23:59","recycling:cans":"yes","recycling:glass_bottles":"yes","recycling:paper":"yes","recycling:plastic_bottles":"yes"}},"type":"Feature"},
	{"geometry":{"coordinates":[-0.127712,51.489237],"type":"Point"},"properties":{"amenity":"waste_basket","osm_id":"1283535046"},"type":"Feature"},
	{"geometry":{"coordinates":[-0.127783,51.489116],"type":"Point"},"properties":{"amenity":"waste_basket","osm_id":"1283535048"},"type":"Feature"},
	{"geometry":{"coordinates":[-0.127982,51.488935],"type":"Point"},"properties":{"amenity":"waste_basket","osm_id":"1283535062"},"type":"Feature"},
	{"geometry":{"coordinates":[-0.131478,51.488779],"type":"Point"},"properties":{"amenity":"waste_basket","osm_id":"1284087016"},"type":"Feature"},
	{"geometry":{"coordinates":[-0.13023,51.488451],"type":"Point"},"properties":{"amenity":"waste_basket","osm_id":"1284087059"},"type":"Feature"},
	{"geometry":{"coordinates":[-0.130011,51.488646],"type":"Point"},"properties":{"amenity":"recycling","osm_id":"1284087100","tag":{"opening_hours":"08:00-20:00","phone":"+44 20 7641 2000","recycling_type":"container"}},"type":"Feature"},
	{"geometry":{"coordinates":[-0.130877,51.488932],"type":"Point"},"properties":{"amenity":"waste_basket","osm_id":"1284087105"},"type":"Feature"},
	{"geometry":{"coordinates":[-0.130241,51.488592],"type":"Point"},"properties":{"amenity":"waste_basket","osm_id":"1284087109"},"type":"Feature"},
	{"geometry":{"coordinates":[-0.133142,51.489902],"type":"Point"},"properties":{"amenity":"recycling","osm_id":"1287703208","tag":{"recycling_type":"container"}},"type":"Feature"},
	{"geometry":{"coordinates":[-0.128668,51.498814],"type":"Point"},"properties":{"amenity":"waste_basket","osm_id":"1306187465"},"type":"Feature"},
	{"geometry":{"coordinates":[-0.131748,51.508322],"type":"Point"},"properties":{"amenity":"waste_basket","osm_id":"1571935980"},"type":"Feature"},
	{"geometry":{"coordinates":[-0.119969,51.454389],"type":"Point"},"properties":{"amenity":"waste_basket","osm_id":"1733943796"},"type":"Feature"},
	{"geometry":{"coordinates":[-0.119639,51.454751],"type":"Point"},"properties":{"amenity":"waste_basket","osm_id":"1733943946"},"type":"Feature"},
	{"geometry":{"coordinates":[-0.14455,51.488145],"type":"Point"},"properties":{"amenity":"recycling","name":"Sutherland Street Recycling","osm_id":"1790386546"},"type":"Feature"},
	{"geometry":{"coordinates":[-0.112566,51.508141],"type":"Point"},"properties":{"amenity":"waste_basket","osm_id":"1957103528"},"type":"Feature"},
	{"geometry":{"coordinates":[-0.109391,51.508341],"type":"Point"},"properties":{"amenity":"waste_basket","osm_id":"1957103530"},"type":"Feature"},
	{"geometry":{"coordinates":[-0.175738,51.493375],"type":"Point"},"properties":{"amenity":"waste_basket","osm_id":"2104376754"},"type":"Feature"},
	{"geometry":{"coordinates":[-0.101044,51.505651],"type":"Point"},"properties":{"amenity":"waste_basket","osm_id":"2187791679"},"type":"Feature"},
	{"geometry":{"coordinates":[-0.101698,51.504931],"type":"Point"},"properties":{"amenity":"waste_basket","osm_id":"2187797213"},"type":"Feature"},
	{"geometry":{"coordinates":[-0.124039,51.506711],"type":"Point"},"properties":{"amenity":"waste_basket","osm_id":"2548777503","tag":{"wheelchair":"yes"}},"type":"Feature"},
	{"geometry":{"coordinates":[-0.135576,51.460198],"type":"Point"},"properties":{"amenity":"recycling","osm_id":"2710936952","tag":{"recycling:books":"yes","recycling:cans":"yes","recycling:cardboard":"yes","recycling:cartons":"yes","recycling:clothes":"yes","recycling:electrical_appliances":"no","recycling:magazines":"yes","recycling:newspaper":"yes","recycling:paper":"yes","recycling:small_appliances":"yes","recycling_type":"container"}},"type":"Feature"},
	{"geometry":{"coordinates":[-0.092026,51.46971],"type":"Point"},"properties":{"amenity":"waste_basket","osm_id":"2895307683"},"type":"Feature"},
	{"geometry":{"coordinates":[-0.115325,51.45702],"type":"Point"},"properties":{"amenity":"recycling","osm_id":"3020047558","tag":{"recycling:clothes":"yes"}},"type":"Feature"},
	{"geometry":{"coordinates":[-0.150392,51.507904],"type":"Point"},"properties":{"amenity":"waste_basket","osm_id":"3033386081"},"type":"Feature"},
	{"geometry":{"coordinates":[-0.150539,51.507904],"type":"Point"},"properties":{"amenity":"recycling","osm_id":"3033386082"},"type":"Feature"},
	{"geometry":{"coordinates":[-0.118942,51.46028],"type":"Point"},"properties":{"amenity":"recycling","osm_id":"3047839509","tag":{"recycling_type":"container"}},"type":"Feature"},
	{"geometry":{"coordinates":[-0.148581,51.458133],"type":"Point"},"properties":{"amenity":"waste_basket","osm_id":"3178579172"},"type":"Feature"},
	{"geometry":{"coordinates":[-0.147215,51.458175],"type":"Point"},"properties":{"amenity":"waste_basket","osm_id":"3178579173"},"type":"Feature"},
	{"geometry":{"coordinates":[-0.146579,51.45826],"type":"Point"},"properties":{"amenity":"waste_basket","osm_id":"3178579179","tag":{"waste":"dog"}},"type":"Feature"},
	{"geometry":{"coordinates":[-0.148165,51.458193],"type":"Point"},"properties":{"amenity":"waste_basket","osm_id":"3178579182"},"type":"Feature"},
	{"geometry":{"coordinates":[-0.129221,51.507454],"type":"Point"},"properties":{"amenity":"waste_basket","osm_id":"3287721662"},"type":"Feature"},
	{"geometry":{"coordinates":[-0.131391,51.507893],"type":"Point"},"properties":{"amenity":"waste_basket","osm_id":"3287727762"},"type":"Feature"},
	{"geometry":{"coordinates":[-0.128497,51.507355],"type":"Point"},"properties":{"amenity":"waste_basket","osm_id":"3287732461"},"type":"Feature"},
	{"geometry":{"coordinates":[-0.129851,51.490056],"type":"Point"},"properties":{"amenity":"waste_basket","osm_id":"3287741861"},"type":"Feature"},
	{"geometry":{"coordinates":[-0.113047,51.467143],"type":"Point"},"properties":{"amenity":"recycling","osm_id":"3297611466"},"type":"Feature"},
	{"geometry":{"coordinates":[-0.155906,51.500768],"type":"Point"},"properties":{"amenity":"waste_basket","osm_id":"3377585832"},"type":"Feature"},
	{"geometry":{"coordinates":[-0.145761,51.489822],"type":"Point"},"properties":{"amenity":"recycling","osm_id":"3398042290"},"type":"Feature"},
	{"geometry":{"coordinates":[-0.146669,51.489253],"type":"Point"},"properties":{"amenity":"recycling","osm_id":"3398046710","tag":{"location":"overground","recycling_type":"container"}},"type":"Feature"},
	{"geometry":{"coordinates":[-0.14687,51.497554],"type":"Point"},"properties":{"amenity":"waste_basket","osm_id":"3631210989"},"type":"Feature"},
	{"geometry":{"coordinates":[-0.134173,51.497945],"type":"Point"},"properties":{"amenity":"waste_basket","osm_id":"3637335089"},"type":"Feature"},
	{"geometry":{"coordinates":[-0.140163,51.496915],"type":"Point"},"properties":{"amenity":"waste_basket","osm_id":"3637335090"},"type":"Feature"},
	{"geometry":{"coordinates":[-0.137027,51.497394],"type":"Point"},"properties":{"amenity":"waste_basket","osm_id":"3637335092"},"type":"Feature"},
	{"geometry":{"coordinates":[-0.136018,51.497534],"type":"Point"},"properties":{"amenity":"waste_basket","osm_id":"3637339694"},"type":"Feature"},
	{"geometry":{"coordinates":[-0.144257,51.493452],"type":"Point"},"properties":{"amenity":"recycling","osm_id":"3703392401"},"type":"Feature"},
	{"geometry":{"coordinates":[-0.132838,51.486193],"type":"Point"},"properties":{"amenity":"recycling","osm_id":"3744426219","tag":{"recycling:cans":"yes","recycling:clothes":"no","recycling:glass":"yes","recycling:paper":"yes"}},"type":"Feature"},
	{"geometry":{"coordinates":[-0.13469,51.488155],"type":"Point"},"properties":{"amenity":"recycling","osm_id":"3750549716","tag":{"recycling:cans":"yes","recycling:clothes":"no","recycling:glass":"yes","recycling:paper":"yes"}},"type":"Feature"},
	{"geometry":{"coordinates":[-0.134478,51.487516],"type":"Point"},"properties":{"amenity":"waste_basket","osm_id":"3750549720"},"type":"Feature"},
	{"geometry":{"coordinates":[-0.13394,51.486401],"type":"Point"},"properties":{"amenity":"recycling","osm_id":"3750549723","tag":{"recycling:cans":"yes","recycling:clothes":"no","recycling:glass":"yes","recycling:paper":"yes"}},"type":"Feature"},
	{"geometry":{"coordinates":[-0.129909,51.50755],"type":"Point"},"properties":{"amenity":"waste_basket","osm_id":"3810553692"},"type":"Feature"},
	{"geometry":{"coordinates":[-0.135594,51.507456],"type":"Point"},"properties":{"amenity":"waste_basket","osm_id":"4153627590"},"type":"Feature"},
	{"geometry":{"coordinates":[-0.134647,51.507344],"type":"Point"},"properties":{"amenity":"waste_basket","osm_id":"4153627592"},"type":"Feature"},
	{"geometry":{"coordinates":[-0.138768,51.507767],"type":"Point"},"properties":{"amenity":"waste_basket","osm_id":"4170525436"},"type":"Feature"},
	{"geometry":{"coordinates":[-0.139796,51.507325],"type":"Point"},"properties":{"amenity":"waste_basket","osm_id":"4171750111"},"type":"Feature"},
	{"geometry":{"coordinates":[-0.139865,51.507395],"type":"Point"},"properties":{"amenity":"waste_basket","osm_id":"4171750112"},"type":"Feature"},
	{"geometry":{"coordinates":[-0.139472,51.507436],"type":"Point"},"properties":{"amenity":"waste_basket","osm_id":"4171750113"},"type":"Feature"},
	{"geometry":{"coordinates":[-0.133218,51.507804],"type":"Point"},"properties":{"amenity":"recycling","osm_id":"4187508661","tag":{"location":"overground","recycling_type":"container"}},"type":"Feature"},
	{"geometry":{"coordinates":[-0.133385,51.508007],"type":"Point"},"properties":{"amenity":"recycling","osm_id":"4187508668"},"type":"Feature"},
	{"geometry":{"coordinates":[-0.139045,51.508437],"type":"Point"},"properties":{"amenity":"waste_basket","osm_id":"4190435875"},"type":"Feature"},
	{"geometry":{"coordinates":[-0.139021,51.508446],"type":"Point"},"properties":{"amenity":"recycling","osm_id":"4190435876","tag":{"recycling_type":"container"}},"type":"Feature"},
	{"geometry":{"coordinates":[-0.113772,51.48583],"type":"Point"},"properties":{"amenity":"recycling","osm_id":"4227095548","tag":{"recycling_type":"centre"}},"type":"Feature"},
	{"geometry":{"coordinates":[-0.134039,51.4888],"type":"Point"},"properties":{"amenity":"recycling","osm_id":"4257264605","tag":{"level":"0","recycling:magazines":"yes","recycling:newspaper":"yes","recycling:paper":"yes","recycling:paper_packaging":"yes","wheelchair":"yes"}},"type":"Feature"},
	{"geometry":{"coordinates":[-0.133984,51.48881],"type":"Point"},"properties":{"amenity":"recycling","osm_id":"4257264606","tag":{"level":"0","recycling:magazines":"yes","recycling:newspaper":"yes","recycling:paper":"yes","recycling:paper_packaging":"yes","wheelchair":"yes"}},"type":"Feature"},
	{"geometry":{"coordinates":[-0.134109,51.489016],"type":"Point"},"properties":{"amenity":"recycling","osm_id":"4257264607","tag":{"level":"0","recycling:clothes":"yes","recycling:shoes":"yes","wheelchair":"no"}},"type":"Feature"},
	{"geometry":{"coordinates":[-0.134069,51.489044],"type":"Point"},"properties":{"amenity":"recycling","osm_id":"4257264608","tag":{"level":"0","recycling:beverage_cartons":"yes","recycling:books":"yes","recycling:cans":"yes","recycling:cardboard":"yes","recycling:cartons":"yes","recycling:glass":"yes","recycling:glass_bottles":"yes","recycling:magazines":"yes","recycling:newspaper":"yes","recycling:paper":"yes","recycling:paper_packaging":"yes","recycling:plastic":"yes","recycling:plastic_bottles":"yes","recycling:plastic_packaging":"yes","wheelchair":"no"}},"type":"Feature"},
	{"geometry":{"coordinates":[-0.134058,51.48905],"type":"Point"},"properties":{"amenity":"recycling","osm_id":"4257264609","tag":{"level":"0","recycling:beverage_cartons":"yes","recycling:books":"yes","recycling:cans":"yes","recycling:cardboard":"yes","recycling:cartons":"yes","recycling:glass":"yes","recycling:glass_bottles":"yes","recycling:magazines":"yes","recycling:newspaper":"yes","recycling:paper":"yes","recycling:paper_packaging":"yes","recycling:plastic":"yes","recycling:plastic_bottles":"yes","recycling:plastic_packaging":"yes","wheelchair":"no"}},"type":"Feature"},
	{"geometry":{"coordinates":[-0.134124,51.489022],"type":"Point"},"properties":{"amenity":"recycling","osm_id":"4257264611","tag":{"level":"0","recycling:electrical_items":"yes","wheelchair":"no"}},"type":"Feature"},
	{"geometry":{"coordinates":[-0.134094,51.489028],"type":"Point"},"properties":{"amenity":"recycling","osm_id":"4257264612","tag":{"level":"0","recycling:beverage_cartons":"yes","recycling:books":"yes","recycling:cans":"yes","recycling:cardboard":"yes","recycling:cartons":"yes","recycling:glass":"yes","recycling:glass_bottles":"yes","recycling:magazines":"yes","recycling:newspaper":"yes","recycling:paper":"yes","recycling:paper_packaging":"yes","recycling:plastic":"yes","recycling:plastic_bottles":"yes","recycling:plastic_packaging":"yes","wheelchair":"no"}},"type":"Feature"},
	{"geometry":{"coordinates":[-0.13408,51.489037],"type":"Point"},"properties":{"amenity":"recycling","osm_id":"4257264613","tag":{"level":"0","recycling:beverage_cartons":"yes","recycling:books":"yes","recycling:cans":"yes","recycling:cardboard":"yes","recycling:cartons":"yes","recycling:glass":"yes","recycling:glass_bottles":"yes","recycling:magazines":"yes","recycling:newspaper":"yes","recycling:paper":"yes","recycling:paper_packaging":"yes","recycling:plastic":"yes","recycling:plastic_bottles":"yes","recycling:plastic_packaging":"yes","wheelchair":"no"}},"type":"Feature"},
	{"geometry":{"coordinates":[-0.142168,51.479295],"type":"Point"},"properties":{"amenity":"recycling","osm_id":"4274175077","tag":{"operator":"traid","recycling:clothes":"yes","recycling_type":"container"}},"type":"Feature"},
	{"geometry":{"coordinates":[-0.15551,51.474307],"type":"Point"},"properties":{"amenity":"recycling","osm_id":"4303343425","tag":{"operator":"traid","recycling:clothes":"yes","recycling_type":"container"}},"type":"Feature"},
	{"geometry":{"coordinates":[-0.173787,51.461476],"type":"Point"},"properties":{"amenity":"waste_basket","osm_id":"4317238527"},"type":"Feature"},
	{"geometry":{"coordinates":[-0.174481,51.461072],"type":"Point"},"properties":{"amenity":"waste_basket","osm_id":"4317238528"},"type":"Feature"},
	{"geometry":{"coordinates":[-0.175435,51.460638],"type":"Point"},"properties":{"amenity":"waste_basket","osm_id":"4317238529"},"type":"Feature"},
	{"geometry":{"coordinates":[-0.174154,51.46123],"type":"Point"},"properties":{"amenity":"waste_basket","osm_id":"4317239710"},"type":"Feature"},
	{"geometry":{"coordinates":[-0.174833,51.460847],"type":"Point"},"properties":{"amenity":"waste_basket","osm_id":"4317239711"},"type":"Feature"},
	{"geometry":{"coordinates":[-0.169829,51.466526],"type":"Point"},"properties":{"amenity":"recycling","osm_id":"4320819428","tag":{"operator":"Traid","recycling:textiles":"yes"}},"type":"Feature"},
	{"geometry":{"coordinates":[-0.093399,51.46636],"type":"Point"},"properties":{"amenity":"waste_basket","osm_id":"4428722093"},"type":"Feature"},
	{"geometry":{"coordinates":[-0.094205,51.464543],"type":"Point"},"properties":{"amenity":"waste_basket","osm_id":"4428765170","tag":{"waste":"dog_excrement"}},"type":"Feature"},
	{"geometry":{"coordinates":[-0.09422,51.464555],"type":"Point"},"properties":{"amenity":"waste_basket","osm_id":"4428765180"},"type":"Feature"},
	{"geometry":{"coordinates":[-0.092899,51.464504],"type":"Point"},"properties":{"amenity":"waste_basket","osm_id":"4428765183","tag":{"waste":"dog_excrement"}},"type":"Feature"},
	{"geometry":{"coordinates":[-0.092117,51.465785],"type":"Point"},"properties":{"amenity":"waste_basket","osm_id":"4428789717"},"type":"Feature"},
	{"geometry":{"coordinates":[-0.092943,51.466106],"type":"Point"},"properties":{"amenity":"waste_basket","osm_id":"4428789719"},"type":"Feature"},
	{"geometry":{"coordinates":[-0.091739,51.465818],"type":"Point"},"properties":{"amenity":"waste_basket","osm_id":"4428799094"},"type":"Feature"},
	{"geometry":{"coordinates":[-0.094102,51.463713],"type":"Point"},"properties":{"amenity":"waste_basket","osm_id":"4428802687","tag":{"waste":"dog_excrement"}},"type":"Feature"},
	{"geometry":{"coordinates":[-0.093925,51.463967],"type":"Point"},"properties":{"amenity":"waste_basket","osm_id":"4428802688"},"type":"Feature"},
	{"geometry":{"coordinates":[-0.0961,51.461303],"type":"Point"},"properties":{"amenity":"waste_basket","osm_id":"4428891825"},"type":"Feature"},
	{"geometry":{"coordinates":[-0.096023,51.461307],"type":"Point"},"properties":{"amenity":"waste_basket","osm_id":"4428891826","tag":{"waste":"dog_excrement"}},"type":"Feature"},
	{"geometry":{"coordinates":[-0.096731,51.463432],"type":"Point"},"properties":{"amenity":"waste_basket","osm_id":"4428891829","tag":{"waste":"dog_excrement"}},"type":"Feature"},
	{"geometry":{"coordinates":[-0.096677,51.463492],"type":"Point"},"properties":{"amenity":"waste_basket","osm_id":"4428891830"},"type":"Feature"},
	{"geometry":{"coordinates":[-0.096262,51.463776],"type":"Point"},"properties":{"amenity":"waste_basket","osm_id":"4428891831","tag":{"waste":"dog_excrement"}},"type":"Feature"},
	{"geometry":{"coordinates":[-0.097653,51.462811],"type":"Point"},"properties":{"amenity":"waste_basket","osm_id":"4428891832"},"type":"Feature"},
	{"geometry":{"coordinates":[-0.097664,51.462784],"type":"Point"},"properties":{"amenity":"waste_basket","osm_id":"4428891834","tag":{"waste":"dog_excrement"}},"type":"Feature"},
	{"geometry":{"coordinates":[-0.123313,51.459673],"type":"Point"},"properties":{"amenity":"waste_basket","osm_id":"4573260445"},"type":"Feature"},
	{"geometry":{"coordinates":[-0.096152,51.502299],"type":"Point"},"properties":{"amenity":"waste_basket","osm_id":"4693557505"},"type":"Feature"},
	{"geometry":{"coordinates":[-0.095829,51.502434],"type":"Point"},"properties":{"amenity":"waste_basket","osm_id":"4693557506"},"type":"Feature"},
	{"geometry":{"coordinates":[-0.096714,51.502193],"type":"Point"},"properties":{"amenity":"waste_basket","osm_id":"4693557508"},"type":"Feature"},
	{"geometry":{"coordinates":[-0.097321,51.502235],"type":"Point"},"properties":{"amenity":"waste_basket","osm_id":"4693557864"},"type":"Feature"},
	{"geometry":{"coordinates":[-0.135493,51.460293],"type":"Point"},"properties":{"amenity":"recycling","osm_id":"4717389941","tag":{"recycling:clothes":"yes","recycling:shoes":"yes","recycling_type":"container"}},"type":"Feature"},
	{"geometry":{"coordinates":[-0.103668,51.464366],"type":"Point"},"properties":{"amenity":"recycling","osm_id":"4729920544","tag":{"recycling:clothes":"yes","recycling_type":"container"}},"type":"Feature"},
	{"geometry":{"coordinates":[-0.137989,51.4991],"type":"Point"},"properties":{"amenity":"waste_basket","osm_id":"4750746213"},"type":"Feature"},
	{"geometry":{"coordinates":[-0.08838,51.454118],"type":"Point"},"properties":{"amenity":"recycling","osm_id":"4818148925","tag":{"recycling_type":"container"}},"type":"Feature"},
	{"geometry":{"coordinates":[-0.151715,51.490706],"type":"Point"},"properties":{"amenity":"waste_basket","osm_id":"5188039124"},"type":"Feature"},
	{"geometry":{"coordinates":[-0.12809,51.49387],"type":"Point"},"properties":{"amenity":"recycling","osm_id":"5254179832","tag":{"recycling_type":"container"}},"type":"Feature"},
	{"geometry":{"coordinates":[-0.167369,51.463889],"type":"Point"},"properties":{"amenity":"waste_basket","osm_id":"5335951521"},"type":"Feature"},
	{"geometry":{"coordinates":[-0.117651,51.504245],"type":"Point"},"properties":{"amenity":"waste_basket","osm_id":"5358515822"},"type":"Feature"},
	{"geometry":{"coordinates":[-0.105323,51.503565],"type":"Point"},"properties":{"amenity":"waste_basket","osm_id":"5394405246"},"type":"Feature"},
	{"geometry":{"coordinates":[-0.103403,51.454453],"type":"Point"},"properties":{"amenity":"recycling","osm_id":"5434039037","tag":{"recycling_type":"container"}},"type":"Feature"},
	{"geometry":{"coordinates":[-0.139634,51.49649],"type":"Point"},"properties":{"amenity":"waste_basket","osm_id":"5564316121"},"type":"Feature"},
	{"geometry":{"coordinates":[-0.125108,51.459553],"type":"Point"},"properties":{"amenity":"waste_basket","osm_id":"5865227306"},"type":"Feature"},
	{"geometry":{"coordinates":[-0.134444,51.503779],"type":"Point"},"properties":{"amenity":"waste_basket","osm_id":"5969186742"},"type":"Feature"},
	{"geometry":{"coordinates":[-0.100081,51.496457],"type":"Point"},"properties":{"amenity":"waste_basket","osm_id":"6019344419"},"type":"Feature"},
	{"geometry":{"coordinates":[-0.172553,51.462079],"type":"Point"},"properties":{"amenity":"waste_basket","osm_id":"6019790568"},"type":"Feature"},
	{"geometry":{"coordinates":[-0.123242,51.486553],"type":"Point"},"properties":{"amenity":"waste_basket","osm_id":"6019793396"},"type":"Feature"},
	{"geometry":{"coordinates":[-0.163795,51.470442],"type":"Point"},"properties":{"amenity":"recycling","osm_id":"6027741310","tag":{"recycling_type":"centre"}},"type":"Feature"},
	{"geometry":{"coordinates":[-0.134462,51.501471],"type":"Point"},"properties":{"amenity":"waste_basket","osm_id":"6209023193"},"type":"Feature"},
	{"geometry":{"coordinates":[-0.134682,51.501586],"type":"Point"},"properties":{"amenity":"waste_basket","osm_id":"6209023194"},"type":"Feature"},
	{"geometry":{"coordinates":[-0.134981,51.501843],"type":"Point"},"properties":{"amenity":"waste_basket","osm_id":"6209023195"},"type":"Feature"},
	{"geometry":{"coordinates":[-0.134047,51.503163],"type":"Point"},"properties":{"amenity":"waste_basket","osm_id":"6209023203"},"type":"Feature"},
	{"geometry":{"coordinates":[-0.133217,51.503166],"type":"Point"},"properties":{"amenity":"waste_basket","osm_id":"6209023204"},"type":"Feature"},
	{"geometry":{"coordinates":[-0.131783,51.503663],"type":"Point"},"properties":{"amenity":"waste_basket","osm_id":"6209023216"},"type":"Feature"},
	{"geometry":{"coordinates":[-0.131329,51.504096],"type":"Point"},"properties":{"amenity":"waste_basket","osm_id":"6209023228"},"type":"Feature"},
	{"geometry":{"coordinates":[-0.104897,51.490872],"type":"Point"},"properties":{"amenity":"recycling","osm_id":"6464111870","tag":{"recycling_type":"container"}},"type":"Feature"},
	{"geometry":{"coordinates":[-0.109728,51.461082],"type":"Point"},"properties":{"amenity":"waste_basket","osm_id":"6516263853"},"type":"Feature"},
	{"geometry":{"coordinates":[-0.109548,51.461126],"type":"Point"},"properties":{"amenity":"waste_basket","osm_id":"6516263855"},"type":"Feature"},
	{"geometry":{"coordinates":[-0.106841,51.503232],"type":"Point"},"properties":{"amenity":"waste_basket","osm_id":"6517637014"},"type":"Feature"},
	{"geometry":{"coordinates":[-0.172232,51.498821],"type":"Point"},"properties":{"amenity":"recycling","osm_id":"6556206704","tag":{"recycling:clothes":"yes","recycling_type":"centre"}},"type":"Feature"},
	{"geometry":{"coordinates":[-0.109444,51.502498],"type":"Point"},"properties":{"amenity":"recycling","name":"Simply Cups Coffee cup recycling","osm_id":"6633308802","tag":{"operator":"simply cups"}},"type":"Feature"},
	{"geometry":{"coordinates":[-0.154647,51.47999],"type":"Point"},"properties":{"amenity":"waste_basket","osm_id":"6746521548"},"type":"Feature"},
	{"geometry":{"coordinates":[-0.153138,51.477119],"type":"Point"},"properties":{"amenity":"waste_basket","osm_id":"6747258065"},"type":"Feature"},
	{"geometry":{"coordinates":[-0.149721,51.478254],"type":"Point"},"properties":{"amenity":"waste_basket","osm_id":"6747280896"},"type":"Feature"},
	{"geometry":{"coordinates":[-0.150923,51.478662],"type":"Point"},"properties":{"amenity":"waste_basket","osm_id":"6747288704"},"type":"Feature"},
	{"geometry":{"coordinates":[-0.171625,51.49395],"type":"Point"},"properties":{"amenity":"recycling","osm_id":"6752879700","tag":{"recycling:cans":"yes","recycling:glass_bottles":"yes","recycling:paper":"yes","recycling:plastic":"no","recycling:plastic_packaging":"yes","recycling_type":"container"}},"type":"Feature"},
	{"geometry":{"coordinates":[-0.171217,51.500366],"type":"Point"},"properties":{"amenity":"waste_basket","osm_id":"6772668490"},"type":"Feature"},
	{"geometry":{"coordinates":[-0.16986,51.500561],"type":"Point"},"properties":{"amenity":"waste_basket","osm_id":"6772668685"},"type":"Feature"},
	{"geometry":{"coordinates":[-0.171264,51.505063],"type":"Point"},"properties":{"amenity":"waste_basket","osm_id":"6774063502"},"type":"Feature"},
	{"geometry":{"coordinates":[-0.153102,51.494553],"type":"Point"},"properties":{"amenity":"waste_basket","osm_id":"6877543095"},"type":"Feature"},
	{"geometry":{"coordinates":[-0.151203,51.496059],"type":"Point"},"properties":{"amenity":"waste_basket","osm_id":"6877543098"},"type":"Feature"},
	{"geometry":{"coordinates":[-0.151866,51.496123],"type":"Point"},"properties":{"amenity":"waste_basket","osm_id":"6877543102"},"type":"Feature"},
	{"geometry":{"coordinates":[-0.156641,51.492616],"type":"Point"},"properties":{"amenity":"waste_basket","osm_id":"6877543105"},"type":"Feature"},
	{"geometry":{"coordinates":[-0.152248,51.495652],"type":"Point"},"properties":{"amenity":"waste_basket","osm_id":"6877543107"},"type":"Feature"},
	{"geometry":{"coordinates":[-0.149724,51.497038],"type":"Point"},"properties":{"amenity":"waste_basket","osm_id":"6877559419"},"type":"Feature"},
	{"geometry":{"coordinates":[-0.151048,51.501348],"type":"Point"},"properties":{"amenity":"waste_basket","osm_id":"6877583854"},"type":"Feature"},
	{"geometry":{"coordinates":[-0.158545,51.503261],"type":"Point"},"properties":{"amenity":"waste_basket","osm_id":"6920503407"},"type":"Feature"},
	{"geometry":{"coordinates":[-0.111816,51.483493],"type":"Point"},"properties":{"amenity":"recycling","osm_id":"7010954743","tag":{"colour":"White","operator":"Chris Carey's Collections","recycling:curtains":"yes","recycling:fabric":"yes","recycling:shoes":"yes","recycling:textiles":"yes","recycling_type":"container"}},"type":"Feature"},
	{"geometry":{"coordinates":[-0.111857,51.491348],"type":"Point"},"properties":{"amenity":"recycling","osm_id":"7010954744","tag":{"colour":"Red","operator":"Chris Carey's Collections","recycling:shoes":"yes","recycling:textiles":"yes","recycling_type":"container"}},"type":"Feature"},
	{"geometry":{"coordinates":[-0.167589,51.4627],"type":"Point"},"properties":{"amenity":"waste_basket","osm_id":"7160012639"},"type":"Feature"},
	{"geometry":{"coordinates":[-0.126674,51.508014],"type":"Point"},"properties":{"amenity":"waste_basket","osm_id":"7165063053"},"type":"Feature"},
	{"geometry":{"coordinates":[-0.128072,51.489499],"type":"Point"},"properties":{"amenity":"waste_basket","osm_id":"7165085609"},"type":"Feature"},
	{"geometry":{"coordinates":[-0.134402,51.472626],"type":"Point"},"properties":{"amenity":"waste_basket","osm_id":"7165098756"},"type":"Feature"},
	{"geometry":{"coordinates":[-0.158918,51.497671],"type":"Point"},"properties":{"amenity":"waste_basket","osm_id":"7261919595"},"type":"Feature"},
	{"geometry":{"coordinates":[-0.170357,51.460242],"type":"Point"},"properties":{"amenity":"waste_basket","osm_id":"7433708391"},"type":"Feature"},
	{"geometry":{"coordinates":[-0.173676,51.459075],"type":"Point"},"properties":{"amenity":"recycling","osm_id":"7433722491","tag":{"recycling:clothes":"yes"}},"type":"Feature"},
	{"geometry":{"coordinates":[-0.154866,51.48979],"type":"Point"},"properties":{"amenity":"waste_basket","osm_id":"7542376250","tag":{"waste":"recycling;trash"}},"type":"Feature"},
	{"geometry":{"coordinates":[-0.174009,51.489414],"type":"Point"},"properties":{"amenity":"waste_basket","osm_id":"7618040070","tag":{"material":"metal","waste":"trash"}},"type":"Feature"},
	{"geometry":{"coordinates":[-0.174644,51.457743],"type":"Point"},"properties":{"amenity":"recycling","osm_id":"7643651226","tag":{"recycling:clothes":"yes","recycling:shoes":"yes"}},"type":"Feature"},
	{"geometry":{"coordinates":[-0.152428,51.458771],"type":"Point"},"properties":{"amenity":"waste_basket","osm_id":"7696159166"},"type":"Feature"},
	{"geometry":{"coordinates":[-0.153348,51.459026],"type":"Point"},"properties":{"amenity":"waste_basket","osm_id":"7696162466"},"type":"Feature"},
	{"geometry":{"coordinates":[-0.149716,51.458053],"type":"Point"},"properties":{"amenity":"waste_basket","osm_id":"7696163141"},"type":"Feature"}
]
}
