{
"type": "FeatureCollection",
"lastupdate": "2020-07-25T00:42:33Z",
"features": [
	{"geometry":{"coordinates":[-0.970682,51.435045],"type":"Point"},"properties":{"amenity":"recycling","osm_id":"278565745","tag":{"recycling:cans":"yes","recycling:clothes":"yes","recycling:glass":"yes","recycling_type":"container"}},"type":"Feature"},
	{"geometry":{"coordinates":[-0.970467,51.424204],"type":"Point"},"properties":{"amenity":"recycling","osm_id":"581908713","tag":{"recycling:clothes":"yes","recycling:glass":"yes","recycling:paper":"yes"}},"type":"Feature"},
	{"geometry":{"coordinates":[-0.989469,51.443744],"type":"Point"},"properties":{"amenity":"recycling","osm_id":"588998530","tag":{"recycling:clothes":"yes","recycling:glass":"yes","recycling_type":"container"}},"type":"Feature"},
	{"geometry":{"coordinates":[-0.977218,51.44793],"type":"Point"},"properties":{"amenity":"recycling","osm_id":"588998590","tag":{"recycling:clothes":"yes","recycling:glass":"yes","recycling_type":"container"}},"type":"Feature"},
	{"geometry":{"coordinates":[-1.04334,51.411435],"type":"Point"},"properties":{"amenity":"waste_basket","osm_id":"772403928"},"type":"Feature"},
	{"geometry":{"coordinates":[-1.02071,51.444356],"type":"Point"},"properties":{"amenity":"recycling","osm_id":"825107085","tag":{"recycling:glass":"yes"}},"type":"Feature"},
	{"geometry":{"coordinates":[-1.023525,51.451298],"type":"Point"},"properties":{"amenity":"waste_basket","osm_id":"828131320"},"type":"Feature"},
	{"geometry":{"coordinates":[-1.006358,51.45385],"type":"Point"},"properties":{"amenity":"waste_basket","osm_id":"2383978676"},"type":"Feature"},
	{"geometry":{"coordinates":[-0.975626,51.430547],"type":"Point"},"properties":{"amenity":"waste_basket","osm_id":"2493732462"},"type":"Feature"},
	{"geometry":{"coordinates":[-0.975363,51.430771],"type":"Point"},"properties":{"amenity":"waste_basket","osm_id":"2493732463"},"type":"Feature"},
	{"geometry":{"coordinates":[-0.978809,51.453493],"type":"Point"},"properties":{"amenity":"recycling","osm_id":"3780787719","tag":{"recycling:cans":"no","recycling:clothes":"no","recycling:glass":"yes","recycling:glass_bottles":"yes","recycling:paper":"no","recycling:plastic":"no","recycling_type":"container"}},"type":"Feature"},
	{"geometry":{"coordinates":[-1.006397,51.450026],"type":"Point"},"properties":{"amenity":"recycling","osm_id":"3978139234","tag":{"recycling:cans":"no","recycling:clothes":"no","recycling:glass":"yes","recycling:glass_bottles":"yes","recycling:paper":"no","recycling:plastic":"no","recycling_type":"container"}},"type":"Feature"},
	{"geometry":{"coordinates":[-1.025817,51.444969],"type":"Point"},"properties":{"amenity":"waste_basket","osm_id":"5058555658"},"type":"Feature"},
	{"geometry":{"coordinates":[-1.025962,51.444817],"type":"Point"},"properties":{"amenity":"waste_basket","osm_id":"5058555659"},"type":"Feature"},
	{"geometry":{"coordinates":[-1.046387,51.442557],"type":"Point"},"properties":{"amenity":"waste_basket","osm_id":"5058654189"},"type":"Feature"},
	{"geometry":{"coordinates":[-1.016374,51.44814],"type":"Point"},"properties":{"amenity":"waste_basket","osm_id":"5141016879"},"type":"Feature"},
	{"geometry":{"coordinates":[-1.016372,51.448337],"type":"Point"},"properties":{"amenity":"waste_basket","osm_id":"5141016882"},"type":"Feature"},
	{"geometry":{"coordinates":[-0.978727,51.453332],"type":"Point"},"properties":{"amenity":"waste_basket","osm_id":"5272094588"},"type":"Feature"},
	{"geometry":{"coordinates":[-1.020673,51.444342],"type":"Point"},"properties":{"amenity":"waste_basket","osm_id":"5341781667"},"type":"Feature"},
	{"geometry":{"coordinates":[-1.016431,51.444674],"type":"Point"},"properties":{"amenity":"waste_basket","osm_id":"5348552916"},"type":"Feature"},
	{"geometry":{"coordinates":[-1.044398,51.442546],"type":"Point"},"properties":{"amenity":"waste_basket","osm_id":"5397051371"},"type":"Feature"},
	{"geometry":{"coordinates":[-1.024108,51.444386],"type":"Point"},"properties":{"amenity":"waste_basket","osm_id":"5397051372"},"type":"Feature"},
	{"geometry":{"coordinates":[-1.017744,51.449644],"type":"Point"},"properties":{"amenity":"recycling","osm_id":"5552253487","tag":{"recycling:clothes":"yes","recycling_type":"container"}},"type":"Feature"},
	{"geometry":{"coordinates":[-1.017583,51.444555],"type":"Point"},"properties":{"amenity":"waste_basket","osm_id":"5568836143"},"type":"Feature"},
	{"geometry":{"coordinates":[-1.02112,51.444577],"type":"Point"},"properties":{"amenity":"waste_basket","osm_id":"5568836144"},"type":"Feature"},
	{"geometry":{"coordinates":[-1.020465,51.444136],"type":"Point"},"properties":{"amenity":"waste_basket","osm_id":"5568874039"},"type":"Feature"},
	{"geometry":{"coordinates":[-1.017824,51.448074],"type":"Point"},"properties":{"amenity":"waste_basket","osm_id":"5586220322"},"type":"Feature"},
	{"geometry":{"coordinates":[-1.030039,51.447261],"type":"Point"},"properties":{"amenity":"waste_basket","osm_id":"5586220323"},"type":"Feature"},
	{"geometry":{"coordinates":[-1.022278,51.447984],"type":"Point"},"properties":{"amenity":"waste_basket","osm_id":"5586220324"},"type":"Feature"},
	{"geometry":{"coordinates":[-1.019393,51.447946],"type":"Point"},"properties":{"amenity":"waste_basket","osm_id":"5586220327"},"type":"Feature"},
	{"geometry":{"coordinates":[-1.027935,51.448747],"type":"Point"},"properties":{"amenity":"waste_basket","osm_id":"5586220333"},"type":"Feature"},
	{"geometry":{"coordinates":[-1.018317,51.447969],"type":"Point"},"properties":{"amenity":"waste_basket","osm_id":"5586220335"},"type":"Feature"},
	{"geometry":{"coordinates":[-1.029797,51.449318],"type":"Point"},"properties":{"amenity":"waste_basket","osm_id":"5586220337"},"type":"Feature"},
	{"geometry":{"coordinates":[-1.020326,51.448099],"type":"Point"},"properties":{"amenity":"waste_basket","osm_id":"5586220339"},"type":"Feature"},
	{"geometry":{"coordinates":[-1.007281,51.445918],"type":"Point"},"properties":{"amenity":"waste_basket","osm_id":"5599783525"},"type":"Feature"},
	{"geometry":{"coordinates":[-0.984691,51.450515],"type":"Point"},"properties":{"amenity":"waste_basket","osm_id":"5599828295"},"type":"Feature"},
	{"geometry":{"coordinates":[-0.988632,51.44957],"type":"Point"},"properties":{"amenity":"waste_basket","osm_id":"5599828297"},"type":"Feature"},
	{"geometry":{"coordinates":[-0.983868,51.450757],"type":"Point"},"properties":{"amenity":"waste_basket","osm_id":"5599832189"},"type":"Feature"},
	{"geometry":{"coordinates":[-1.017228,51.449896],"type":"Point"},"properties":{"amenity":"waste_basket","osm_id":"5600225621"},"type":"Feature"},
	{"geometry":{"coordinates":[-1.016695,51.449324],"type":"Point"},"properties":{"amenity":"waste_basket","osm_id":"5604368604"},"type":"Feature"},
	{"geometry":{"coordinates":[-1.016139,51.447434],"type":"Point"},"properties":{"amenity":"waste_basket","osm_id":"5604368608"},"type":"Feature"},
	{"geometry":{"coordinates":[-1.017639,51.44925],"type":"Point"},"properties":{"amenity":"waste_basket","osm_id":"5604368610"},"type":"Feature"},
	{"geometry":{"coordinates":[-1.018901,51.444073],"type":"Point"},"properties":{"amenity":"waste_basket","osm_id":"5604368611"},"type":"Feature"},
	{"geometry":{"coordinates":[-1.010224,51.442524],"type":"Point"},"properties":{"amenity":"recycling","osm_id":"5606949426","tag":{"recycling_type":"container"}},"type":"Feature"},
	{"geometry":{"coordinates":[-1.019283,51.442769],"type":"Point"},"properties":{"amenity":"waste_basket","osm_id":"5606990321"},"type":"Feature"},
	{"geometry":{"coordinates":[-1.020735,51.444393],"type":"Point"},"properties":{"amenity":"recycling","osm_id":"5615210757","tag":{"recycling:clothes":"yes","recycling_type":"container"}},"type":"Feature"},
	{"geometry":{"coordinates":[-0.982794,51.453094],"type":"Point"},"properties":{"amenity":"waste_basket","osm_id":"5621285021"},"type":"Feature"},
	{"geometry":{"coordinates":[-0.976956,51.452997],"type":"Point"},"properties":{"amenity":"waste_basket","osm_id":"5630261734"},"type":"Feature"},
	{"geometry":{"coordinates":[-1.025642,51.444839],"type":"Point"},"properties":{"amenity":"waste_basket","osm_id":"5782969758"},"type":"Feature"},
	{"geometry":{"coordinates":[-0.967138,51.439762],"type":"Point"},"properties":{"amenity":"waste_basket","osm_id":"5840333908"},"type":"Feature"},
	{"geometry":{"coordinates":[-0.967361,51.439841],"type":"Point"},"properties":{"amenity":"waste_basket","osm_id":"5840333909"},"type":"Feature"},
	{"geometry":{"coordinates":[-0.968166,51.433537],"type":"Point"},"properties":{"amenity":"recycling","osm_id":"5924062337","tag":{"recycling:clothes":"yes","recycling_type":"container"}},"type":"Feature"},
	{"geometry":{"coordinates":[-0.968279,51.433769],"type":"Point"},"properties":{"amenity":"waste_basket","osm_id":"5924062339"},"type":"Feature"},
	{"geometry":{"coordinates":[-0.968302,51.434157],"type":"Point"},"properties":{"amenity":"waste_basket","osm_id":"5924062340"},"type":"Feature"},
	{"geometry":{"coordinates":[-0.967962,51.443925],"type":"Point"},"properties":{"amenity":"waste_basket","osm_id":"5940643638"},"type":"Feature"},
	{"geometry":{"coordinates":[-0.968517,51.444524],"type":"Point"},"properties":{"amenity":"waste_basket","osm_id":"5940643669"},"type":"Feature"},
	{"geometry":{"coordinates":[-0.968851,51.444489],"type":"Point"},"properties":{"amenity":"waste_basket","osm_id":"5940643676"},"type":"Feature"},
	{"geometry":{"coordinates":[-0.96942,51.44499],"type":"Point"},"properties":{"amenity":"waste_basket","osm_id":"5940644414"},"type":"Feature"},
	{"geometry":{"coordinates":[-0.972095,51.444146],"type":"Point"},"properties":{"amenity":"waste_basket","osm_id":"5940644419"},"type":"Feature"},
	{"geometry":{"coordinates":[-0.972217,51.444082],"type":"Point"},"properties":{"amenity":"recycling","osm_id":"5940644420","tag":{"recycling:glass":"yes","recycling_type":"container"}},"type":"Feature"},
	{"geometry":{"coordinates":[-0.972218,51.444047],"type":"Point"},"properties":{"amenity":"recycling","osm_id":"5940644421","tag":{"operator":"Cystic Fibrosis Trust","recycling:clothes":"yes","recycling:shoes":"yes","recycling_type":"container"}},"type":"Feature"},
	{"geometry":{"coordinates":[-0.972379,51.444365],"type":"Point"},"properties":{"amenity":"waste_basket","osm_id":"5940644426"},"type":"Feature"},
	{"geometry":{"coordinates":[-1.013708,51.444454],"type":"Point"},"properties":{"amenity":"recycling","osm_id":"5951892224","tag":{"recycling_type":"container"}},"type":"Feature"},
	{"geometry":{"coordinates":[-0.96788,51.443607],"type":"Point"},"properties":{"amenity":"waste_basket","osm_id":"6002790619"},"type":"Feature"},
	{"geometry":{"coordinates":[-0.968193,51.452594],"type":"Point"},"properties":{"amenity":"waste_basket","osm_id":"6221613839"},"type":"Feature"},
	{"geometry":{"coordinates":[-0.967901,51.436617],"type":"Point"},"properties":{"amenity":"waste_basket","osm_id":"6294380804"},"type":"Feature"},
	{"geometry":{"coordinates":[-0.980221,51.405784],"type":"Point"},"properties":{"amenity":"waste_basket","osm_id":"6529099595","tag":{"waste":"trash"}},"type":"Feature"},
	{"geometry":{"coordinates":[-0.980158,51.405773],"type":"Point"},"properties":{"amenity":"waste_basket","osm_id":"6529099646","tag":{"waste":"trash"}},"type":"Feature"},
	{"geometry":{"coordinates":[-0.980108,51.40585],"type":"Point"},"properties":{"amenity":"waste_basket","osm_id":"6529099650","tag":{"waste":"trash"}},"type":"Feature"},
	{"geometry":{"coordinates":[-0.980101,51.405886],"type":"Point"},"properties":{"amenity":"waste_basket","osm_id":"6529099651","tag":{"waste":"trash"}},"type":"Feature"},
	{"geometry":{"coordinates":[-0.979963,51.405996],"type":"Point"},"properties":{"amenity":"waste_basket","osm_id":"6529099659","tag":{"waste":"trash"}},"type":"Feature"},
	{"geometry":{"coordinates":[-0.980363,51.405643],"type":"Point"},"properties":{"amenity":"waste_basket","osm_id":"6529099666","tag":{"waste":"trash"}},"type":"Feature"},
	{"geometry":{"coordinates":[-0.97728,51.453919],"type":"Point"},"properties":{"amenity":"waste_basket","osm_id":"6546219431","tag":{"waste":"trash"}},"type":"Feature"},
	{"geometry":{"coordinates":[-0.976383,51.45396],"type":"Point"},"properties":{"amenity":"waste_basket","osm_id":"6546219437","tag":{"waste":"trash"}},"type":"Feature"},
	{"geometry":{"coordinates":[-0.976407,51.453918],"type":"Point"},"properties":{"amenity":"waste_basket","osm_id":"6546219439","tag":{"waste":"trash"}},"type":"Feature"},
	{"geometry":{"coordinates":[-0.976456,51.453835],"type":"Point"},"properties":{"amenity":"waste_basket","osm_id":"6546219444","tag":{"waste":"trash"}},"type":"Feature"},
	{"geometry":{"coordinates":[-0.976326,51.453737],"type":"Point"},"properties":{"amenity":"waste_basket","osm_id":"6546219449","tag":{"waste":"trash"}},"type":"Feature"},
	{"geometry":{"coordinates":[-0.976645,51.453718],"type":"Point"},"properties":{"amenity":"waste_basket","osm_id":"6546219453","tag":{"waste":"trash"}},"type":"Feature"},
	{"geometry":{"coordinates":[-0.975561,51.453584],"type":"Point"},"properties":{"amenity":"waste_basket","osm_id":"6546219458","tag":{"waste":"trash"}},"type":"Feature"},
	{"geometry":{"coordinates":[-0.975648,51.453543],"type":"Point"},"properties":{"amenity":"waste_basket","osm_id":"6546219459","tag":{"waste":"trash"}},"type":"Feature"},
	{"geometry":{"coordinates":[-0.97586,51.453485],"type":"Point"},"properties":{"amenity":"waste_basket","osm_id":"6546219463","tag":{"waste":"trash"}},"type":"Feature"},
	{"geometry":{"coordinates":[-0.976142,51.45345],"type":"Point"},"properties":{"amenity":"waste_basket","osm_id":"6546219465","tag":{"waste":"trash"}},"type":"Feature"},
	{"geometry":{"coordinates":[-0.976055,51.453408],"type":"Point"},"properties":{"amenity":"waste_basket","osm_id":"6546219467","tag":{"waste":"trash"}},"type":"Feature"},
	{"geometry":{"coordinates":[-0.976363,51.453171],"type":"Point"},"properties":{"amenity":"waste_basket","osm_id":"6546219469","tag":{"waste":"trash"}},"type":"Feature"},
	{"geometry":{"coordinates":[-0.97642,51.453176],"type":"Point"},"properties":{"amenity":"waste_basket","osm_id":"6546219470","tag":{"waste":"trash"}},"type":"Feature"},
	{"geometry":{"coordinates":[-0.976639,51.453256],"type":"Point"},"properties":{"amenity":"waste_basket","osm_id":"6546219472","tag":{"waste":"trash"}},"type":"Feature"},
	{"geometry":{"coordinates":[-0.976781,51.453088],"type":"Point"},"properties":{"amenity":"waste_basket","osm_id":"6546219474","tag":{"waste":"trash"}},"type":"Feature"},
	{"geometry":{"coordinates":[-0.974518,51.449713],"type":"Point"},"properties":{"amenity":"waste_basket","osm_id":"6573180225","tag":{"waste":"trash"}},"type":"Feature"},
	{"geometry":{"coordinates":[-0.975553,51.439383],"type":"Point"},"properties":{"amenity":"waste_basket","osm_id":"6573180244","tag":{"waste":"trash"}},"type":"Feature"},
	{"geometry":{"coordinates":[-0.972941,51.441793],"type":"Point"},"properties":{"amenity":"waste_basket","osm_id":"6573180265","tag":{"waste":"dog_excrement"}},"type":"Feature"},
	{"geometry":{"coordinates":[-0.973959,51.442272],"type":"Point"},"properties":{"amenity":"waste_basket","osm_id":"6573180266","tag":{"waste":"dog_excrement"}},"type":"Feature"},
	{"geometry":{"coordinates":[-0.973762,51.443284],"type":"Point"},"properties":{"amenity":"waste_basket","osm_id":"6573180267","tag":{"waste":"trash"}},"type":"Feature"},
	{"geometry":{"coordinates":[-0.973947,51.443793],"type":"Point"},"properties":{"amenity":"waste_basket","osm_id":"6573180270","tag":{"waste":"trash"}},"type":"Feature"},
	{"geometry":{"coordinates":[-0.973833,51.443886],"type":"Point"},"properties":{"amenity":"waste_basket","osm_id":"6573180276","tag":{"waste":"dog_excrement"}},"type":"Feature"},
	{"geometry":{"coordinates":[-0.973409,51.450494],"type":"Point"},"properties":{"amenity":"waste_basket","osm_id":"6573180299","tag":{"waste":"dog_excrement"}},"type":"Feature"},
	{"geometry":{"coordinates":[-0.972961,51.451199],"type":"Point"},"properties":{"amenity":"waste_basket","osm_id":"6573180300","tag":{"waste":"trash"}},"type":"Feature"},
	{"geometry":{"coordinates":[-0.973105,51.451515],"type":"Point"},"properties":{"amenity":"waste_basket","osm_id":"6573180315","tag":{"waste":"trash"}},"type":"Feature"},
	{"geometry":{"coordinates":[-1.024945,51.443932],"type":"Point"},"properties":{"amenity":"waste_basket","osm_id":"7020814241"},"type":"Feature"},
	{"geometry":{"coordinates":[-1.017469,51.442612],"type":"Point"},"properties":{"amenity":"waste_basket","osm_id":"7143487546"},"type":"Feature"},
	{"geometry":{"coordinates":[-0.986091,51.434279],"type":"Point"},"properties":{"amenity":"waste_basket","osm_id":"7185367688","tag":{"waste":"trash"}},"type":"Feature"},
	{"geometry":{"coordinates":[-1.023819,51.444054],"type":"Point"},"properties":{"amenity":"waste_basket","osm_id":"7417927889","tag":{"indoor":"no","material":"metal","waste":"trash"}},"type":"Feature"},
	{"geometry":{"coordinates":[-0.973751,51.431818],"type":"Point"},"properties":{"amenity":"waste_basket","osm_id":"7682368929"},"type":"Feature"}
]
}
