{
"type": "FeatureCollection",
"lastupdate": "2020-07-31T01:06:47Z",
"features": [
	{"geometry":{"coordinates":[-0.563807,51.763195],"type":"Point"},"properties":{"amenity":"recycling","osm_id":"297361758"},"type":"Feature"},
	{"geometry":{"coordinates":[-0.572933,51.757301],"type":"Point"},"properties":{"amenity":"recycling","osm_id":"365199802","tag":{"access":"private"}},"type":"Feature"},
	{"geometry":{"coordinates":[-0.565739,51.759966],"type":"Point"},"properties":{"amenity":"recycling","osm_id":"1855433916"},"type":"Feature"},
	{"geometry":{"coordinates":[-0.575786,51.76324],"type":"Point"},"properties":{"amenity":"waste_basket","osm_id":"3992586321"},"type":"Feature"},
	{"geometry":{"coordinates":[-0.565722,51.75842],"type":"Point"},"properties":{"amenity":"waste_basket","osm_id":"3993900026"},"type":"Feature"},
	{"geometry":{"coordinates":[-0.565787,51.75893],"type":"Point"},"properties":{"amenity":"waste_basket","osm_id":"3993900049"},"type":"Feature"},
	{"geometry":{"coordinates":[-0.58351,51.769422],"type":"Point"},"properties":{"amenity":"recycling","osm_id":"4753433689"},"type":"Feature"},
	{"geometry":{"coordinates":[-0.589717,51.766954],"type":"Point"},"properties":{"amenity":"waste_basket","osm_id":"4756799893"},"type":"Feature"},
	{"geometry":{"coordinates":[-0.562984,51.761001],"type":"Point"},"properties":{"amenity":"recycling","osm_id":"4943322745","tag":{"recycling:glass":"yes","recycling:glass_bottles":"yes","recycling_type":"container"}},"type":"Feature"},
	{"geometry":{"coordinates":[-0.594924,51.75897],"type":"Point"},"properties":{"amenity":"waste_basket","osm_id":"5198900641"},"type":"Feature"},
	{"geometry":{"coordinates":[-0.566955,51.762888],"type":"Point"},"properties":{"amenity":"waste_basket","osm_id":"7644641258","tag":{"waste":"trash"}},"type":"Feature"},
	{"geometry":{"coordinates":[-0.580218,51.763594],"type":"Point"},"properties":{"amenity":"waste_basket","osm_id":"7647724504","tag":{"waste":"trash"}},"type":"Feature"}
]
}
