{
"type": "FeatureCollection",
"lastupdate": "2020-07-25T00:42:33Z",
"features": [
	{"geometry":{"coordinates":[-0.593916,51.709712],"type":"Point"},"properties":{"amenity":"recycling","osm_id":"84882740"},"type":"Feature"},
	{"geometry":{"coordinates":[-0.613853,51.705192],"type":"Point"},"properties":{"amenity":"recycling","osm_id":"84916063"},"type":"Feature"},
	{"geometry":{"coordinates":[-0.610007,51.70657],"type":"Point"},"properties":{"amenity":"recycling","osm_id":"84916245"},"type":"Feature"},
	{"geometry":{"coordinates":[-0.602376,51.676857],"type":"Point"},"properties":{"amenity":"recycling","osm_id":"2470183531"},"type":"Feature"},
	{"geometry":{"coordinates":[-0.608598,51.710438],"type":"Point"},"properties":{"amenity":"waste_basket","osm_id":"3168719814"},"type":"Feature"},
	{"geometry":{"coordinates":[-0.613679,51.705314],"type":"Point"},"properties":{"amenity":"recycling","name":"Star Yard Recycling Point","osm_id":"3366053135","tag":{"recycling:books":"yes","recycling:cans":"yes","recycling:clothes":"yes","recycling:glass":"yes","recycling:paper":"yes","recycling:plastic":"yes"}},"type":"Feature"},
	{"geometry":{"coordinates":[-0.612183,51.708403],"type":"Point"},"properties":{"amenity":"recycling","osm_id":"3366079749","tag":{"recycling:cans":"yes","recycling:glass":"yes","recycling:paper":"yes","recycling:plastic":"yes"}},"type":"Feature"},
	{"geometry":{"coordinates":[-0.608631,51.698975],"type":"Point"},"properties":{"amenity":"recycling","name":"The Moor Car Park Recycling","osm_id":"3366116856","tag":{"recycling:cans":"yes","recycling:cardboard":"yes","recycling:clothes":"yes","recycling:glass":"yes","recycling:paper":"yes","recycling:plastic":"yes","recycling:shoes":"yes","recycling_type":"centre"}},"type":"Feature"},
	{"geometry":{"coordinates":[-0.554246,51.672732],"type":"Point"},"properties":{"amenity":"waste_basket","osm_id":"3678187503"},"type":"Feature"},
	{"geometry":{"coordinates":[-0.591732,51.677324],"type":"Point"},"properties":{"amenity":"waste_basket","osm_id":"5613503322"},"type":"Feature"},
	{"geometry":{"coordinates":[-0.533135,51.723613],"type":"Point"},"properties":{"amenity":"waste_basket","osm_id":"5859622128","tag":{"waste":"trash"}},"type":"Feature"},
	{"geometry":{"coordinates":[-0.532197,51.723201],"type":"Point"},"properties":{"amenity":"waste_basket","osm_id":"5859622172","tag":{"waste":"trash"}},"type":"Feature"},
	{"geometry":{"coordinates":[-0.531842,51.722911],"type":"Point"},"properties":{"amenity":"waste_basket","osm_id":"5859622298","tag":{"waste":"trash"}},"type":"Feature"},
	{"geometry":{"coordinates":[-0.53165,51.722801],"type":"Point"},"properties":{"amenity":"waste_basket","osm_id":"5859622320","tag":{"waste":"trash"}},"type":"Feature"},
	{"geometry":{"coordinates":[-0.530753,51.723011],"type":"Point"},"properties":{"amenity":"waste_basket","osm_id":"5859622325","tag":{"waste":"trash"}},"type":"Feature"},
	{"geometry":{"coordinates":[-0.530932,51.721984],"type":"Point"},"properties":{"amenity":"waste_basket","osm_id":"5859622588","tag":{"waste":"trash"}},"type":"Feature"},
	{"geometry":{"coordinates":[-0.530031,51.721542],"type":"Point"},"properties":{"amenity":"waste_basket","osm_id":"5859622606","tag":{"waste":"dog_excrement"}},"type":"Feature"},
	{"geometry":{"coordinates":[-0.528983,51.723517],"type":"Point"},"properties":{"amenity":"waste_basket","osm_id":"5859622632","tag":{"waste":"dog_excrement"}},"type":"Feature"},
	{"geometry":{"coordinates":[-0.529447,51.721414],"type":"Point"},"properties":{"amenity":"waste_basket","osm_id":"5859623209","tag":{"waste":"trash"}},"type":"Feature"},
	{"geometry":{"coordinates":[-0.528668,51.721039],"type":"Point"},"properties":{"amenity":"waste_basket","osm_id":"5859623211","tag":{"waste":"dog_excrement"}},"type":"Feature"},
	{"geometry":{"coordinates":[-0.53471,51.696573],"type":"Point"},"properties":{"amenity":"waste_basket","osm_id":"5859623284","tag":{"waste":"trash"}},"type":"Feature"},
	{"geometry":{"coordinates":[-0.531646,51.697246],"type":"Point"},"properties":{"amenity":"waste_basket","osm_id":"5859623405","tag":{"waste":"trash"}},"type":"Feature"},
	{"geometry":{"coordinates":[-0.530365,51.696715],"type":"Point"},"properties":{"amenity":"waste_basket","osm_id":"5859623440","tag":{"waste":"trash"}},"type":"Feature"},
	{"geometry":{"coordinates":[-0.53014,51.696553],"type":"Point"},"properties":{"amenity":"waste_basket","osm_id":"5859623454","tag":{"waste":"dog_excrement"}},"type":"Feature"},
	{"geometry":{"coordinates":[-0.547473,51.673362],"type":"Point"},"properties":{"amenity":"waste_basket","osm_id":"7631973167"},"type":"Feature"}
]
}
