{
"type": "FeatureCollection",
"lastupdate": "2020-07-26T00:31:07Z",
"features": [
	{"geometry":{"coordinates":[-5.471836,56.413051],"type":"Point"},"properties":{"amenity":"waste_basket","osm_id":"7290055494","tag":{"waste":"trash"}},"type":"Feature"},
	{"geometry":{"coordinates":[-5.469635,56.410551],"type":"Point"},"properties":{"amenity":"waste_basket","osm_id":"7291913296","tag":{"waste":"trash"}},"type":"Feature"},
	{"geometry":{"coordinates":[-5.471385,56.411469],"type":"Point"},"properties":{"amenity":"waste_basket","osm_id":"7293030348","tag":{"operator":"Tesco","waste":"trash"}},"type":"Feature"},
	{"geometry":{"coordinates":[-5.471728,56.411806],"type":"Point"},"properties":{"amenity":"waste_basket","osm_id":"7293111619","tag":{"waste":"trash"}},"type":"Feature"},
	{"geometry":{"coordinates":[-5.472375,56.413299],"type":"Point"},"properties":{"amenity":"waste_basket","osm_id":"7293237684","tag":{"waste":"trash"}},"type":"Feature"},
	{"geometry":{"coordinates":[-5.472383,56.41333],"type":"Point"},"properties":{"amenity":"waste_basket","osm_id":"7293272585","tag":{"waste":"trash"}},"type":"Feature"},
	{"geometry":{"coordinates":[-5.472583,56.413303],"type":"Point"},"properties":{"amenity":"waste_basket","osm_id":"7293321999","tag":{"waste":"trash"}},"type":"Feature"},
	{"geometry":{"coordinates":[-5.472828,56.412644],"type":"Point"},"properties":{"amenity":"waste_basket","osm_id":"7293322004","tag":{"waste":"trash"}},"type":"Feature"},
	{"geometry":{"coordinates":[-5.47313,56.412768],"type":"Point"},"properties":{"amenity":"waste_basket","osm_id":"7293322006","tag":{"waste":"trash"}},"type":"Feature"},
	{"geometry":{"coordinates":[-5.473181,56.412572],"type":"Point"},"properties":{"amenity":"waste_basket","osm_id":"7293322008","tag":{"waste":"trash"}},"type":"Feature"},
	{"geometry":{"coordinates":[-5.473182,56.412326],"type":"Point"},"properties":{"amenity":"waste_basket","osm_id":"7293322013","tag":{"waste":"trash"}},"type":"Feature"},
	{"geometry":{"coordinates":[-5.472851,56.411966],"type":"Point"},"properties":{"amenity":"waste_basket","osm_id":"7293322030","tag":{"waste":"trash"}},"type":"Feature"},
	{"geometry":{"coordinates":[-5.472387,56.413637],"type":"Point"},"properties":{"amenity":"waste_basket","osm_id":"7293363315","tag":{"waste":"trash"}},"type":"Feature"},
	{"geometry":{"coordinates":[-5.472433,56.413849],"type":"Point"},"properties":{"amenity":"waste_basket","osm_id":"7293387890","tag":{"waste":"trash"}},"type":"Feature"}
]
}
