{
"type": "FeatureCollection",
"lastupdate": "2020-07-31T01:06:47Z",
"features": [
	{"geometry":{"coordinates":[-0.17667,51.520486],"type":"Point"},"properties":{"amenity":"recycling","osm_id":"34578728"},"type":"Feature"},
	{"geometry":{"coordinates":[-0.25166,51.545781],"type":"Point"},"properties":{"amenity":"recycling","osm_id":"304464939"},"type":"Feature"},
	{"geometry":{"coordinates":[-0.260218,51.534728],"type":"Point"},"properties":{"amenity":"recycling","osm_id":"304652747"},"type":"Feature"},
	{"geometry":{"coordinates":[-0.212819,51.513196],"type":"Point"},"properties":{"amenity":"recycling","osm_id":"419776463","tag":{"location":"overground","recycling_type":"container"}},"type":"Feature"},
	{"geometry":{"coordinates":[-0.198164,51.518615],"type":"Point"},"properties":{"amenity":"recycling","osm_id":"511660784"},"type":"Feature"},
	{"geometry":{"coordinates":[-0.196133,51.518266],"type":"Point"},"properties":{"amenity":"recycling","osm_id":"511703522"},"type":"Feature"},
	{"geometry":{"coordinates":[-0.181505,51.517745],"type":"Point"},"properties":{"amenity":"waste_basket","osm_id":"521651713"},"type":"Feature"},
	{"geometry":{"coordinates":[-0.186408,51.517587],"type":"Point"},"properties":{"amenity":"recycling","osm_id":"521681526"},"type":"Feature"},
	{"geometry":{"coordinates":[-0.18898,51.517866],"type":"Point"},"properties":{"amenity":"waste_basket","osm_id":"521715912"},"type":"Feature"},
	{"geometry":{"coordinates":[-0.188825,51.517762],"type":"Point"},"properties":{"amenity":"waste_basket","osm_id":"521715917"},"type":"Feature"},
	{"geometry":{"coordinates":[-0.179255,51.541398],"type":"Point"},"properties":{"amenity":"recycling","osm_id":"709208361"},"type":"Feature"},
	{"geometry":{"coordinates":[-0.20369,51.547668],"type":"Point"},"properties":{"amenity":"recycling","osm_id":"737790008"},"type":"Feature"},
	{"geometry":{"coordinates":[-0.246879,51.522295],"type":"Point"},"properties":{"amenity":"waste_basket","osm_id":"934845738"},"type":"Feature"},
	{"geometry":{"coordinates":[-0.245248,51.52275],"type":"Point"},"properties":{"amenity":"waste_basket","osm_id":"934845739"},"type":"Feature"},
	{"geometry":{"coordinates":[-0.237433,51.524407],"type":"Point"},"properties":{"amenity":"waste_basket","osm_id":"934845740"},"type":"Feature"},
	{"geometry":{"coordinates":[-0.24606,51.522524],"type":"Point"},"properties":{"amenity":"waste_basket","osm_id":"934845741"},"type":"Feature"},
	{"geometry":{"coordinates":[-0.240573,51.523659],"type":"Point"},"properties":{"amenity":"waste_basket","osm_id":"934845744"},"type":"Feature"},
	{"geometry":{"coordinates":[-0.19007,51.513573],"type":"Point"},"properties":{"amenity":"recycling","osm_id":"1116225153"},"type":"Feature"},
	{"geometry":{"coordinates":[-0.183014,51.546992],"type":"Point"},"properties":{"amenity":"recycling","osm_id":"1230932184"},"type":"Feature"},
	{"geometry":{"coordinates":[-0.187585,51.539796],"type":"Point"},"properties":{"amenity":"recycling","osm_id":"1343327806","tag":{"recycling:clothes":"yes","recycling:shoes":"yes","recycling_type":"container"}},"type":"Feature"},
	{"geometry":{"coordinates":[-0.185843,51.513859],"type":"Point"},"properties":{"amenity":"recycling","osm_id":"1356415184"},"type":"Feature"},
	{"geometry":{"coordinates":[-0.186155,51.52406],"type":"Point"},"properties":{"amenity":"recycling","osm_id":"1374549032","tag":{"recycling:cans":"yes","recycling:cardboard":"yes","recycling:glass":"yes","recycling:paper":"yes","recycling:plastic":"yes","recycling:waste":"yes","recycling_type":"container"}},"type":"Feature"},
	{"geometry":{"coordinates":[-0.187049,51.5232],"type":"Point"},"properties":{"amenity":"recycling","osm_id":"1374549466","tag":{"recycling:cans":"yes","recycling:cardboard":"yes","recycling:glass":"yes","recycling:paper":"yes","recycling:plastic":"yes","recycling:waste":"yes","recycling_type":"container"}},"type":"Feature"},
	{"geometry":{"coordinates":[-0.183931,51.523184],"type":"Point"},"properties":{"amenity":"recycling","osm_id":"1374555353","tag":{"recycling:cans":"yes","recycling:cardboard":"yes","recycling:clothes":"yes","recycling:glass":"yes","recycling:paper":"yes","recycling:plastic":"yes","recycling:shoes":"yes","recycling:small_appliances":"yes","recycling:waste":"yes","recycling_type":"container"}},"type":"Feature"},
	{"geometry":{"coordinates":[-0.197919,51.540196],"type":"Point"},"properties":{"amenity":"recycling","osm_id":"1619545977"},"type":"Feature"},
	{"geometry":{"coordinates":[-0.192232,51.5518],"type":"Point"},"properties":{"amenity":"recycling","osm_id":"1671272862"},"type":"Feature"},
	{"geometry":{"coordinates":[-0.18523,51.52442],"type":"Point"},"properties":{"amenity":"waste_basket","osm_id":"1675544143"},"type":"Feature"},
	{"geometry":{"coordinates":[-0.191324,51.52756],"type":"Point"},"properties":{"amenity":"waste_basket","osm_id":"1687078418"},"type":"Feature"},
	{"geometry":{"coordinates":[-0.192666,51.526952],"type":"Point"},"properties":{"amenity":"recycling","osm_id":"1687504715","tag":{"recycling:cans":"yes","recycling:cardboard":"yes","recycling:glass":"yes","recycling:paper":"yes","recycling:plastic":"yes","recycling:waste":"yes","recycling_type":"container"}},"type":"Feature"},
	{"geometry":{"coordinates":[-0.193523,51.529403],"type":"Point"},"properties":{"amenity":"recycling","osm_id":"1687546259","tag":{"recycling:cans":"yes","recycling:cardboard":"yes","recycling:glass":"yes","recycling:paper":"yes","recycling:plastic":"yes","recycling:waste":"yes","recycling_type":"container"}},"type":"Feature"},
	{"geometry":{"coordinates":[-0.189855,51.527595],"type":"Point"},"properties":{"amenity":"waste_basket","osm_id":"1688516450"},"type":"Feature"},
	{"geometry":{"coordinates":[-0.201934,51.523269],"type":"Point"},"properties":{"amenity":"recycling","osm_id":"1896476884","tag":{"recycling:cans":"yes","recycling:cardboard":"yes","recycling:glass":"yes","recycling:plastic":"yes","recycling:waste":"yes","recycling_type":"container"}},"type":"Feature"},
	{"geometry":{"coordinates":[-0.179675,51.519325],"type":"Point"},"properties":{"amenity":"waste_basket","osm_id":"2364619728"},"type":"Feature"},
	{"geometry":{"coordinates":[-0.19638,51.544699],"type":"Point"},"properties":{"amenity":"waste_basket","osm_id":"2472549091"},"type":"Feature"},
	{"geometry":{"coordinates":[-0.199408,51.544872],"type":"Point"},"properties":{"amenity":"recycling","osm_id":"2473260308"},"type":"Feature"},
	{"geometry":{"coordinates":[-0.18904,51.545153],"type":"Point"},"properties":{"amenity":"waste_basket","osm_id":"2473889958"},"type":"Feature"},
	{"geometry":{"coordinates":[-0.186811,51.53993],"type":"Point"},"properties":{"amenity":"waste_basket","osm_id":"2474278426"},"type":"Feature"},
	{"geometry":{"coordinates":[-0.184581,51.540401],"type":"Point"},"properties":{"amenity":"recycling","osm_id":"2474278567"},"type":"Feature"},
	{"geometry":{"coordinates":[-0.183994,51.54054],"type":"Point"},"properties":{"amenity":"recycling","osm_id":"2474278600"},"type":"Feature"},
	{"geometry":{"coordinates":[-0.181923,51.54105],"type":"Point"},"properties":{"amenity":"recycling","osm_id":"2474278688"},"type":"Feature"},
	{"geometry":{"coordinates":[-0.181512,51.541164],"type":"Point"},"properties":{"amenity":"recycling","osm_id":"2474278698"},"type":"Feature"},
	{"geometry":{"coordinates":[-0.181206,51.541241],"type":"Point"},"properties":{"amenity":"recycling","osm_id":"2474278706"},"type":"Feature"},
	{"geometry":{"coordinates":[-0.180789,51.541348],"type":"Point"},"properties":{"amenity":"recycling","osm_id":"2474278716"},"type":"Feature"},
	{"geometry":{"coordinates":[-0.180692,51.541919],"type":"Point"},"properties":{"amenity":"waste_basket","osm_id":"2475841118"},"type":"Feature"},
	{"geometry":{"coordinates":[-0.180022,51.545516],"type":"Point"},"properties":{"amenity":"waste_basket","osm_id":"2475842024"},"type":"Feature"},
	{"geometry":{"coordinates":[-0.192489,51.544321],"type":"Point"},"properties":{"amenity":"waste_basket","osm_id":"2478729071","tag":{"check_date":"2020-03-31"}},"type":"Feature"},
	{"geometry":{"coordinates":[-0.192565,51.537344],"type":"Point"},"properties":{"amenity":"waste_basket","osm_id":"2525475603"},"type":"Feature"},
	{"geometry":{"coordinates":[-0.19181,51.528731],"type":"Point"},"properties":{"amenity":"waste_basket","osm_id":"2532779184"},"type":"Feature"},
	{"geometry":{"coordinates":[-0.191934,51.528606],"type":"Point"},"properties":{"amenity":"waste_basket","osm_id":"2532779188","tag":{"check_date":"2020-06-01"}},"type":"Feature"},
	{"geometry":{"coordinates":[-0.191248,51.529444],"type":"Point"},"properties":{"amenity":"waste_basket","osm_id":"2532779373","tag":{"check_date":"2020-04-25"}},"type":"Feature"},
	{"geometry":{"coordinates":[-0.189222,51.529627],"type":"Point"},"properties":{"amenity":"waste_basket","osm_id":"2532779408","tag":{"check_date":"2020-05-29"}},"type":"Feature"},
	{"geometry":{"coordinates":[-0.189224,51.529633],"type":"Point"},"properties":{"amenity":"recycling","osm_id":"2532779411"},"type":"Feature"},
	{"geometry":{"coordinates":[-0.18936,51.529649],"type":"Point"},"properties":{"amenity":"waste_basket","osm_id":"2532779416"},"type":"Feature"},
	{"geometry":{"coordinates":[-0.189313,51.529676],"type":"Point"},"properties":{"amenity":"waste_basket","osm_id":"2532779427"},"type":"Feature"},
	{"geometry":{"coordinates":[-0.191096,51.530644],"type":"Point"},"properties":{"amenity":"waste_basket","osm_id":"2532779611","tag":{"check_date":"2020-02-02"}},"type":"Feature"},
	{"geometry":{"coordinates":[-0.191092,51.530659],"type":"Point"},"properties":{"amenity":"recycling","osm_id":"2532779615","tag":{"recycling_type":"container"}},"type":"Feature"},
	{"geometry":{"coordinates":[-0.191094,51.532088],"type":"Point"},"properties":{"amenity":"recycling","osm_id":"2532779997"},"type":"Feature"},
	{"geometry":{"coordinates":[-0.221589,51.537474],"type":"Point"},"properties":{"amenity":"recycling","osm_id":"2619954406"},"type":"Feature"},
	{"geometry":{"coordinates":[-0.19278,51.544506],"type":"Point"},"properties":{"amenity":"waste_basket","osm_id":"2647994421"},"type":"Feature"},
	{"geometry":{"coordinates":[-0.187352,51.533535],"type":"Point"},"properties":{"amenity":"waste_basket","osm_id":"2824528146"},"type":"Feature"},
	{"geometry":{"coordinates":[-0.187354,51.533678],"type":"Point"},"properties":{"amenity":"waste_basket","osm_id":"2824528147","tag":{"check_date":"2019-11-17"}},"type":"Feature"},
	{"geometry":{"coordinates":[-0.189137,51.534666],"type":"Point"},"properties":{"amenity":"waste_basket","osm_id":"2824528166"},"type":"Feature"},
	{"geometry":{"coordinates":[-0.2045,51.53412],"type":"Point"},"properties":{"amenity":"waste_basket","osm_id":"3522707160","tag":{"recycling":"yes"}},"type":"Feature"},
	{"geometry":{"coordinates":[-0.204563,51.534243],"type":"Point"},"properties":{"amenity":"waste_basket","osm_id":"3522707172","tag":{"recycling":"yes"}},"type":"Feature"},
	{"geometry":{"coordinates":[-0.177488,51.521123],"type":"Point"},"properties":{"amenity":"waste_basket","osm_id":"3581338021"},"type":"Feature"},
	{"geometry":{"coordinates":[-0.197742,51.511012],"type":"Point"},"properties":{"amenity":"waste_basket","osm_id":"3621014616"},"type":"Feature"},
	{"geometry":{"coordinates":[-0.176044,51.514927],"type":"Point"},"properties":{"amenity":"waste_basket","osm_id":"3624951698"},"type":"Feature"},
	{"geometry":{"coordinates":[-0.181088,51.517723],"type":"Point"},"properties":{"amenity":"waste_basket","osm_id":"3624951699"},"type":"Feature"},
	{"geometry":{"coordinates":[-0.203057,51.513495],"type":"Point"},"properties":{"amenity":"waste_basket","osm_id":"3625977868"},"type":"Feature"},
	{"geometry":{"coordinates":[-0.202877,51.513559],"type":"Point"},"properties":{"amenity":"waste_basket","osm_id":"3625978283"},"type":"Feature"},
	{"geometry":{"coordinates":[-0.1907,51.533685],"type":"Point"},"properties":{"amenity":"waste_basket","osm_id":"3638910432","tag":{"check_date":"2019-10-12"}},"type":"Feature"},
	{"geometry":{"coordinates":[-0.191553,51.533792],"type":"Point"},"properties":{"amenity":"waste_basket","osm_id":"3638910452","tag":{"check_date":"2019-10-12"}},"type":"Feature"},
	{"geometry":{"coordinates":[-0.191622,51.533828],"type":"Point"},"properties":{"amenity":"recycling","osm_id":"3638910458","tag":{"recycling:cans":"yes","recycling:cardboard":"yes","recycling:clothes":"yes","recycling:electrical_appliances":"yes","recycling:glass_bottles":"yes","recycling:paper":"yes","recycling:plastic_bottles":"yes","recycling:plastic_packaging":"yes","recycling:shoes":"yes","recycling_type":"container"}},"type":"Feature"},
	{"geometry":{"coordinates":[-0.191045,51.533927],"type":"Point"},"properties":{"amenity":"waste_basket","osm_id":"3638910469","tag":{"check_date":"2019-10-12"}},"type":"Feature"},
	{"geometry":{"coordinates":[-0.18785,51.532554],"type":"Point"},"properties":{"amenity":"waste_basket","osm_id":"3651150194"},"type":"Feature"},
	{"geometry":{"coordinates":[-0.185872,51.5299],"type":"Point"},"properties":{"amenity":"recycling","osm_id":"3654503937"},"type":"Feature"},
	{"geometry":{"coordinates":[-0.185794,51.529943],"type":"Point"},"properties":{"amenity":"recycling","osm_id":"3654503946"},"type":"Feature"},
	{"geometry":{"coordinates":[-0.188482,51.52891],"type":"Point"},"properties":{"amenity":"recycling","osm_id":"3654531275","tag":{"recycling:cans":"yes","recycling:cardboard":"yes","recycling:glass":"yes","recycling:paper":"yes","recycling:plastic":"yes","recycling:waste":"yes","recycling_type":"container"}},"type":"Feature"},
	{"geometry":{"coordinates":[-0.19457,51.527832],"type":"Point"},"properties":{"amenity":"recycling","osm_id":"3654594757","tag":{"recycling:cans":"yes","recycling:cardboard":"yes","recycling:glass":"yes","recycling:paper":"yes","recycling:plastic":"yes","recycling:waste":"yes","recycling_type":"container"}},"type":"Feature"},
	{"geometry":{"coordinates":[-0.203842,51.532821],"type":"Point"},"properties":{"amenity":"recycling","osm_id":"3658174718"},"type":"Feature"},
	{"geometry":{"coordinates":[-0.188181,51.530113],"type":"Point"},"properties":{"amenity":"recycling","osm_id":"3663817137"},"type":"Feature"},
	{"geometry":{"coordinates":[-0.189267,51.508936],"type":"Point"},"properties":{"amenity":"waste_basket","osm_id":"3679071805"},"type":"Feature"},
	{"geometry":{"coordinates":[-0.189353,51.509196],"type":"Point"},"properties":{"amenity":"waste_basket","osm_id":"3679071809"},"type":"Feature"},
	{"geometry":{"coordinates":[-0.187583,51.509744],"type":"Point"},"properties":{"amenity":"waste_basket","osm_id":"3679158372"},"type":"Feature"},
	{"geometry":{"coordinates":[-0.187315,51.509184],"type":"Point"},"properties":{"amenity":"waste_basket","osm_id":"3679158386"},"type":"Feature"},
	{"geometry":{"coordinates":[-0.187615,51.509857],"type":"Point"},"properties":{"amenity":"waste_basket","osm_id":"3679163779","tag":{"waste":"dog"}},"type":"Feature"},
	{"geometry":{"coordinates":[-0.18566,51.510023],"type":"Point"},"properties":{"amenity":"waste_basket","osm_id":"3679165090"},"type":"Feature"},
	{"geometry":{"coordinates":[-0.183632,51.5102],"type":"Point"},"properties":{"amenity":"waste_basket","osm_id":"3679165092"},"type":"Feature"},
	{"geometry":{"coordinates":[-0.183576,51.51021],"type":"Point"},"properties":{"amenity":"waste_basket","osm_id":"3679165093","tag":{"waste_type":"dog_excrement"}},"type":"Feature"},
	{"geometry":{"coordinates":[-0.182378,51.531734],"type":"Point"},"properties":{"amenity":"waste_basket","osm_id":"3697316596"},"type":"Feature"},
	{"geometry":{"coordinates":[-0.185626,51.534385],"type":"Point"},"properties":{"amenity":"waste_basket","osm_id":"3697658923"},"type":"Feature"},
	{"geometry":{"coordinates":[-0.185955,51.534227],"type":"Point"},"properties":{"amenity":"waste_basket","osm_id":"3697658924"},"type":"Feature"},
	{"geometry":{"coordinates":[-0.176982,51.532028],"type":"Point"},"properties":{"amenity":"waste_basket","osm_id":"3699042341"},"type":"Feature"},
	{"geometry":{"coordinates":[-0.18212,51.535997],"type":"Point"},"properties":{"amenity":"waste_basket","osm_id":"3699087400"},"type":"Feature"},
	{"geometry":{"coordinates":[-0.178937,51.537388],"type":"Point"},"properties":{"amenity":"waste_basket","osm_id":"3699133615"},"type":"Feature"},
	{"geometry":{"coordinates":[-0.183002,51.536731],"type":"Point"},"properties":{"amenity":"waste_basket","osm_id":"3699220339"},"type":"Feature"},
	{"geometry":{"coordinates":[-0.182974,51.536877],"type":"Point"},"properties":{"amenity":"waste_basket","osm_id":"3699236802"},"type":"Feature"},
	{"geometry":{"coordinates":[-0.178554,51.539037],"type":"Point"},"properties":{"amenity":"waste_basket","osm_id":"3699659750"},"type":"Feature"},
	{"geometry":{"coordinates":[-0.183766,51.537551],"type":"Point"},"properties":{"amenity":"recycling","osm_id":"3699660661","tag":{"recycling:cans":"yes","recycling:glass":"yes","recycling:paper":"yes","recycling:plastic":"yes","recycling:small_appliances":"yes"}},"type":"Feature"},
	{"geometry":{"coordinates":[-0.178468,51.535376],"type":"Point"},"properties":{"amenity":"waste_basket","osm_id":"3700152931"},"type":"Feature"},
	{"geometry":{"coordinates":[-0.180327,51.534793],"type":"Point"},"properties":{"amenity":"waste_basket","osm_id":"3700195947"},"type":"Feature"},
	{"geometry":{"coordinates":[-0.180541,51.534642],"type":"Point"},"properties":{"amenity":"waste_basket","osm_id":"3700195948"},"type":"Feature"},
	{"geometry":{"coordinates":[-0.17629,51.535994],"type":"Point"},"properties":{"amenity":"waste_basket","osm_id":"3700249440"},"type":"Feature"},
	{"geometry":{"coordinates":[-0.177578,51.530043],"type":"Point"},"properties":{"amenity":"waste_basket","osm_id":"3701713714"},"type":"Feature"},
	{"geometry":{"coordinates":[-0.177017,51.531572],"type":"Point"},"properties":{"amenity":"waste_basket","osm_id":"3701715767"},"type":"Feature"},
	{"geometry":{"coordinates":[-0.179122,51.531673],"type":"Point"},"properties":{"amenity":"waste_basket","osm_id":"3701936408"},"type":"Feature"},
	{"geometry":{"coordinates":[-0.179659,51.530691],"type":"Point"},"properties":{"amenity":"waste_basket","osm_id":"3701999483"},"type":"Feature"},
	{"geometry":{"coordinates":[-0.181915,51.53298],"type":"Point"},"properties":{"amenity":"waste_basket","osm_id":"3702048258"},"type":"Feature"},
	{"geometry":{"coordinates":[-0.182324,51.533128],"type":"Point"},"properties":{"amenity":"waste_basket","osm_id":"3702048263"},"type":"Feature"},
	{"geometry":{"coordinates":[-0.18282,51.532987],"type":"Point"},"properties":{"amenity":"waste_basket","osm_id":"3702048272"},"type":"Feature"},
	{"geometry":{"coordinates":[-0.179677,51.534069],"type":"Point"},"properties":{"amenity":"waste_basket","osm_id":"3702087265"},"type":"Feature"},
	{"geometry":{"coordinates":[-0.185869,51.53544],"type":"Point"},"properties":{"amenity":"waste_basket","osm_id":"3702095161"},"type":"Feature"},
	{"geometry":{"coordinates":[-0.182246,51.538873],"type":"Point"},"properties":{"amenity":"recycling","osm_id":"3702102778","tag":{"recycling:cans":"yes","recycling:glass":"yes","recycling:paper":"yes","recycling:plastic":"yes","recycling_type":"container"}},"type":"Feature"},
	{"geometry":{"coordinates":[-0.177941,51.539775],"type":"Point"},"properties":{"amenity":"waste_basket","osm_id":"3702122881"},"type":"Feature"},
	{"geometry":{"coordinates":[-0.177874,51.539792],"type":"Point"},"properties":{"amenity":"recycling","osm_id":"3702122882","tag":{"recycling:cans":"yes","recycling:glass":"yes","recycling:paper":"yes","recycling:shoes":"yes"}},"type":"Feature"},
	{"geometry":{"coordinates":[-0.181154,51.530248],"type":"Point"},"properties":{"amenity":"waste_basket","osm_id":"3710548183"},"type":"Feature"},
	{"geometry":{"coordinates":[-0.175929,51.539494],"type":"Point"},"properties":{"amenity":"recycling","osm_id":"3717724289","tag":{"recycling:clothes":"yes","recycling:shoes":"yes"}},"type":"Feature"},
	{"geometry":{"coordinates":[-0.207492,51.528608],"type":"Point"},"properties":{"amenity":"recycling","osm_id":"3725994865"},"type":"Feature"},
	{"geometry":{"coordinates":[-0.208733,51.528732],"type":"Point"},"properties":{"amenity":"waste_basket","osm_id":"3725994952"},"type":"Feature"},
	{"geometry":{"coordinates":[-0.207743,51.530297],"type":"Point"},"properties":{"amenity":"waste_basket","osm_id":"3725995590"},"type":"Feature"},
	{"geometry":{"coordinates":[-0.203112,51.531166],"type":"Point"},"properties":{"amenity":"recycling","osm_id":"3868135085"},"type":"Feature"},
	{"geometry":{"coordinates":[-0.20239,51.528796],"type":"Point"},"properties":{"amenity":"recycling","osm_id":"4002694989"},"type":"Feature"},
	{"geometry":{"coordinates":[-0.201495,51.533879],"type":"Point"},"properties":{"amenity":"recycling","osm_id":"4189302699","tag":{"recycling_type":"container"}},"type":"Feature"},
	{"geometry":{"coordinates":[-0.201084,51.53344],"type":"Point"},"properties":{"amenity":"waste_basket","osm_id":"4252446011","tag":{"waste":"recycling"}},"type":"Feature"},
	{"geometry":{"coordinates":[-0.201411,51.533531],"type":"Point"},"properties":{"amenity":"recycling","osm_id":"4252446012","tag":{"recycling_type":"container"}},"type":"Feature"},
	{"geometry":{"coordinates":[-0.20104,51.533726],"type":"Point"},"properties":{"amenity":"waste_basket","osm_id":"4252446014","tag":{"waste":"recycling"}},"type":"Feature"},
	{"geometry":{"coordinates":[-0.201772,51.524218],"type":"Point"},"properties":{"amenity":"recycling","osm_id":"4333954777"},"type":"Feature"},
	{"geometry":{"coordinates":[-0.201632,51.524309],"type":"Point"},"properties":{"amenity":"waste_basket","osm_id":"4333954781"},"type":"Feature"},
	{"geometry":{"coordinates":[-0.20249,51.524699],"type":"Point"},"properties":{"amenity":"waste_basket","osm_id":"4333956592"},"type":"Feature"},
	{"geometry":{"coordinates":[-0.2029,51.524787],"type":"Point"},"properties":{"amenity":"waste_basket","osm_id":"4333956595"},"type":"Feature"},
	{"geometry":{"coordinates":[-0.189436,51.50963],"type":"Point"},"properties":{"amenity":"recycling","osm_id":"4339560140","tag":{"location":"overground","recycling_type":"container"}},"type":"Feature"},
	{"geometry":{"coordinates":[-0.18948,51.509633],"type":"Point"},"properties":{"amenity":"waste_basket","osm_id":"4339560148"},"type":"Feature"},
	{"geometry":{"coordinates":[-0.189455,51.509636],"type":"Point"},"properties":{"amenity":"waste_basket","osm_id":"4339560157","tag":{"waste":"dog_excrement"}},"type":"Feature"},
	{"geometry":{"coordinates":[-0.203277,51.525115],"type":"Point"},"properties":{"amenity":"waste_basket","osm_id":"4344089133","tag":{"check_date":"2020-05-17"}},"type":"Feature"},
	{"geometry":{"coordinates":[-0.216866,51.530958],"type":"Point"},"properties":{"amenity":"waste_basket","osm_id":"4355810483"},"type":"Feature"},
	{"geometry":{"coordinates":[-0.215836,51.531254],"type":"Point"},"properties":{"amenity":"waste_basket","osm_id":"4355811112"},"type":"Feature"},
	{"geometry":{"coordinates":[-0.204777,51.532882],"type":"Point"},"properties":{"amenity":"waste_basket","osm_id":"4356148689"},"type":"Feature"},
	{"geometry":{"coordinates":[-0.21847,51.533457],"type":"Point"},"properties":{"amenity":"waste_basket","osm_id":"4366433033"},"type":"Feature"},
	{"geometry":{"coordinates":[-0.218926,51.533543],"type":"Point"},"properties":{"amenity":"waste_basket","osm_id":"4366433050"},"type":"Feature"},
	{"geometry":{"coordinates":[-0.219714,51.53446],"type":"Point"},"properties":{"amenity":"waste_basket","osm_id":"4560492244"},"type":"Feature"},
	{"geometry":{"coordinates":[-0.220188,51.535354],"type":"Point"},"properties":{"amenity":"waste_basket","osm_id":"4560492375"},"type":"Feature"},
	{"geometry":{"coordinates":[-0.187661,51.522326],"type":"Point"},"properties":{"amenity":"recycling","osm_id":"4561653703","tag":{"recycling:cans":"yes","recycling:cardboard":"yes","recycling:glass":"yes","recycling:paper":"yes","recycling:plastic":"yes","recycling_type":"container"}},"type":"Feature"},
	{"geometry":{"coordinates":[-0.187753,51.520991],"type":"Point"},"properties":{"amenity":"recycling","osm_id":"4561653756","tag":{"recycling:cans":"yes","recycling:cardboard":"yes","recycling:glass":"yes","recycling:paper":"yes","recycling:plastic":"yes","recycling_type":"container"}},"type":"Feature"},
	{"geometry":{"coordinates":[-0.185553,51.519794],"type":"Point"},"properties":{"amenity":"waste_basket","osm_id":"4561653789","tag":{"check_date":"2020-06-01"}},"type":"Feature"},
	{"geometry":{"coordinates":[-0.1918,51.52677],"type":"Point"},"properties":{"amenity":"recycling","osm_id":"4589516848"},"type":"Feature"},
	{"geometry":{"coordinates":[-0.197367,51.524964],"type":"Point"},"properties":{"amenity":"waste_basket","osm_id":"4590625407"},"type":"Feature"},
	{"geometry":{"coordinates":[-0.197301,51.524951],"type":"Point"},"properties":{"amenity":"recycling","osm_id":"4590625408","tag":{"recycling:cans":"yes","recycling:cardboard":"yes","recycling:glass":"yes","recycling:paper":"yes","recycling:plastic":"yes","recycling:waste":"yes","recycling_type":"container"}},"type":"Feature"},
	{"geometry":{"coordinates":[-0.197701,51.527647],"type":"Point"},"properties":{"amenity":"recycling","osm_id":"4592770324","tag":{"recycling:cans":"yes","recycling:cardboard":"yes","recycling:glass":"yes","recycling:paper":"yes","recycling:plastic":"yes","recycling:waste":"yes","recycling_type":"container"}},"type":"Feature"},
	{"geometry":{"coordinates":[-0.197413,51.527969],"type":"Point"},"properties":{"amenity":"waste_basket","osm_id":"4592770339","tag":{"last_check":"2020-03-09"}},"type":"Feature"},
	{"geometry":{"coordinates":[-0.206369,51.530014],"type":"Point"},"properties":{"amenity":"recycling","osm_id":"4608137816"},"type":"Feature"},
	{"geometry":{"coordinates":[-0.201607,51.545112],"type":"Point"},"properties":{"amenity":"waste_basket","osm_id":"4677251369"},"type":"Feature"},
	{"geometry":{"coordinates":[-0.20126,51.544772],"type":"Point"},"properties":{"amenity":"waste_basket","osm_id":"4677251398","tag":{"check_date":"2020-06-24"}},"type":"Feature"},
	{"geometry":{"coordinates":[-0.190352,51.546451],"type":"Point"},"properties":{"amenity":"waste_basket","osm_id":"4677251730"},"type":"Feature"},
	{"geometry":{"coordinates":[-0.179352,51.542877],"type":"Point"},"properties":{"amenity":"waste_basket","osm_id":"4677251794"},"type":"Feature"},
	{"geometry":{"coordinates":[-0.19137,51.545864],"type":"Point"},"properties":{"amenity":"waste_basket","osm_id":"4678229622"},"type":"Feature"},
	{"geometry":{"coordinates":[-0.206837,51.53063],"type":"Point"},"properties":{"amenity":"waste_basket","osm_id":"4678382538"},"type":"Feature"},
	{"geometry":{"coordinates":[-0.208029,51.532413],"type":"Point"},"properties":{"amenity":"recycling","osm_id":"4678382581"},"type":"Feature"},
	{"geometry":{"coordinates":[-0.207964,51.531261],"type":"Point"},"properties":{"amenity":"recycling","osm_id":"4678383358"},"type":"Feature"},
	{"geometry":{"coordinates":[-0.225762,51.533432],"type":"Point"},"properties":{"amenity":"recycling","osm_id":"4711582287"},"type":"Feature"},
	{"geometry":{"coordinates":[-0.228354,51.530826],"type":"Point"},"properties":{"amenity":"recycling","osm_id":"4725632553","tag":{"recycling_type":"container"}},"type":"Feature"},
	{"geometry":{"coordinates":[-0.228811,51.530579],"type":"Point"},"properties":{"amenity":"waste_basket","osm_id":"4725632765"},"type":"Feature"},
	{"geometry":{"coordinates":[-0.227852,51.530264],"type":"Point"},"properties":{"amenity":"waste_basket","osm_id":"4726481983"},"type":"Feature"},
	{"geometry":{"coordinates":[-0.226749,51.530326],"type":"Point"},"properties":{"amenity":"waste_basket","osm_id":"4726481984"},"type":"Feature"},
	{"geometry":{"coordinates":[-0.227286,51.530381],"type":"Point"},"properties":{"amenity":"waste_basket","osm_id":"4726481985"},"type":"Feature"},
	{"geometry":{"coordinates":[-0.181682,51.528296],"type":"Point"},"properties":{"amenity":"recycling","osm_id":"4729447988","tag":{"recycling_type":"container"}},"type":"Feature"},
	{"geometry":{"coordinates":[-0.187243,51.515609],"type":"Point"},"properties":{"amenity":"recycling","osm_id":"4807918373","tag":{"recycling:cans":"yes","recycling:cardboard":"yes","recycling:clothes":"yes","recycling:glass_bottles":"yes","recycling_type":"container"}},"type":"Feature"},
	{"geometry":{"coordinates":[-0.181975,51.534984],"type":"Point"},"properties":{"amenity":"waste_basket","osm_id":"5337345894"},"type":"Feature"},
	{"geometry":{"coordinates":[-0.184717,51.530627],"type":"Point"},"properties":{"amenity":"recycling","osm_id":"5337347123","tag":{"opening_hours":"08:00-20:00","recycling:cans":"yes","recycling:cardboard":"yes","recycling:clothes":"yes","recycling:glass":"yes","recycling:glass_bottles":"yes","recycling:paper":"yes","recycling:plastic_bottles":"yes","recycling:shoes":"yes","recycling:small_appliances":"yes","recycling_type":"centre"}},"type":"Feature"},
	{"geometry":{"coordinates":[-0.18538,51.530118],"type":"Point"},"properties":{"amenity":"waste_basket","osm_id":"5337347124"},"type":"Feature"},
	{"geometry":{"coordinates":[-0.250401,51.559666],"type":"Point"},"properties":{"amenity":"waste_basket","osm_id":"6019922883"},"type":"Feature"},
	{"geometry":{"coordinates":[-0.250221,51.559593],"type":"Point"},"properties":{"amenity":"waste_basket","osm_id":"6019922884"},"type":"Feature"},
	{"geometry":{"coordinates":[-0.226986,51.516438],"type":"Point"},"properties":{"amenity":"waste_basket","osm_id":"6110620094"},"type":"Feature"},
	{"geometry":{"coordinates":[-0.263121,51.549508],"type":"Point"},"properties":{"amenity":"waste_basket","osm_id":"6282975993"},"type":"Feature"},
	{"geometry":{"coordinates":[-0.191755,51.533799],"type":"Point"},"properties":{"amenity":"waste_basket","osm_id":"6873201593"},"type":"Feature"},
	{"geometry":{"coordinates":[-0.191118,51.53071],"type":"Point"},"properties":{"amenity":"waste_basket","osm_id":"7179779576"},"type":"Feature"},
	{"geometry":{"coordinates":[-0.180538,51.541885],"type":"Point"},"properties":{"amenity":"waste_basket","osm_id":"7408944823"},"type":"Feature"},
	{"geometry":{"coordinates":[-0.181128,51.53931],"type":"Point"},"properties":{"amenity":"waste_basket","osm_id":"7408944825"},"type":"Feature"},
	{"geometry":{"coordinates":[-0.193415,51.52942],"type":"Point"},"properties":{"amenity":"waste_basket","osm_id":"7447112059"},"type":"Feature"},
	{"geometry":{"coordinates":[-0.19331,51.529495],"type":"Point"},"properties":{"amenity":"waste_basket","osm_id":"7447112060"},"type":"Feature"},
	{"geometry":{"coordinates":[-0.191279,51.529316],"type":"Point"},"properties":{"amenity":"waste_basket","osm_id":"7579876298"},"type":"Feature"},
	{"geometry":{"coordinates":[-0.191528,51.529029],"type":"Point"},"properties":{"amenity":"waste_basket","osm_id":"7579876299"},"type":"Feature"},
	{"geometry":{"coordinates":[-0.191982,51.528562],"type":"Point"},"properties":{"amenity":"waste_basket","osm_id":"7579876300"},"type":"Feature"},
	{"geometry":{"coordinates":[-0.233842,51.513568],"type":"Point"},"properties":{"amenity":"recycling","osm_id":"7736050887","tag":{"recycling:shoes":"yes","recycling_type":"container"}},"type":"Feature"}
]
}
