{
"type": "FeatureCollection",
"lastupdate": "2020-07-29T00:24:51Z",
"features": [
	{"geometry":{"coordinates":[-0.18222,50.83728],"type":"Point"},"properties":{"amenity":"recycling","osm_id":"25891484"},"type":"Feature"},
	{"geometry":{"coordinates":[-0.189424,50.840874],"type":"Point"},"properties":{"amenity":"recycling","osm_id":"25892499"},"type":"Feature"},
	{"geometry":{"coordinates":[-0.180359,50.824854],"type":"Point"},"properties":{"amenity":"recycling","osm_id":"87290713"},"type":"Feature"},
	{"geometry":{"coordinates":[-0.248684,50.842941],"type":"Point"},"properties":{"amenity":"recycling","osm_id":"1338001344"},"type":"Feature"},
	{"geometry":{"coordinates":[-0.25966,50.832808],"type":"Point"},"properties":{"amenity":"recycling","osm_id":"1338043882","tag":{"recycling_type":"centre"}},"type":"Feature"},
	{"geometry":{"coordinates":[-0.207453,50.833194],"type":"Point"},"properties":{"amenity":"waste_basket","osm_id":"2440354075"},"type":"Feature"},
	{"geometry":{"coordinates":[-0.207079,50.833169],"type":"Point"},"properties":{"amenity":"waste_basket","osm_id":"2440358687"},"type":"Feature"},
	{"geometry":{"coordinates":[-0.206721,50.833037],"type":"Point"},"properties":{"amenity":"waste_basket","osm_id":"2440364331"},"type":"Feature"},
	{"geometry":{"coordinates":[-0.198045,50.83172],"type":"Point"},"properties":{"amenity":"waste_basket","osm_id":"2440368880"},"type":"Feature"},
	{"geometry":{"coordinates":[-0.20552,50.836128],"type":"Point"},"properties":{"amenity":"waste_basket","osm_id":"2456757996"},"type":"Feature"},
	{"geometry":{"coordinates":[-0.207194,50.833546],"type":"Point"},"properties":{"amenity":"waste_basket","osm_id":"2456835114"},"type":"Feature"},
	{"geometry":{"coordinates":[-0.20704,50.833514],"type":"Point"},"properties":{"amenity":"waste_basket","osm_id":"2456839556"},"type":"Feature"},
	{"geometry":{"coordinates":[-0.21373,50.834416],"type":"Point"},"properties":{"amenity":"waste_basket","osm_id":"2457157826"},"type":"Feature"},
	{"geometry":{"coordinates":[-0.206755,50.833951],"type":"Point"},"properties":{"amenity":"waste_basket","osm_id":"2457194744"},"type":"Feature"},
	{"geometry":{"coordinates":[-0.211752,50.83391],"type":"Point"},"properties":{"amenity":"waste_basket","osm_id":"2457838283"},"type":"Feature"},
	{"geometry":{"coordinates":[-0.207298,50.836118],"type":"Point"},"properties":{"amenity":"waste_basket","osm_id":"2457902822"},"type":"Feature"},
	{"geometry":{"coordinates":[-0.206058,50.835596],"type":"Point"},"properties":{"amenity":"waste_basket","osm_id":"2457903120"},"type":"Feature"},
	{"geometry":{"coordinates":[-0.211962,50.83659],"type":"Point"},"properties":{"amenity":"recycling","osm_id":"2457913322","tag":{"recycling:books":"yes","recycling:cans":"yes","recycling:cardboard":"yes","recycling:cartons":"yes","recycling:clothes":"yes","recycling:glass":"yes","recycling:glass_bottles":"yes","recycling:magazines":"yes","recycling:newspaper":"yes","recycling:paper":"yes","recycling:paper_packaging":"yes","recycling:plastic":"yes","recycling:plastic_bottles":"yes","recycling:plastic_packaging":"yes","recycling:small_appliances":"no","recycling_type":"container"}},"type":"Feature"},
	{"geometry":{"coordinates":[-0.208284,50.830605],"type":"Point"},"properties":{"amenity":"waste_basket","osm_id":"2464501007"},"type":"Feature"},
	{"geometry":{"coordinates":[-0.237003,50.829781],"type":"Point"},"properties":{"amenity":"waste_basket","osm_id":"2474201072"},"type":"Feature"},
	{"geometry":{"coordinates":[-0.21985,50.835493],"type":"Point"},"properties":{"amenity":"waste_basket","osm_id":"2474276955"},"type":"Feature"},
	{"geometry":{"coordinates":[-0.189696,50.84363],"type":"Point"},"properties":{"amenity":"waste_basket","osm_id":"2474339220"},"type":"Feature"},
	{"geometry":{"coordinates":[-0.178529,50.839059],"type":"Point"},"properties":{"amenity":"waste_basket","osm_id":"2496263455"},"type":"Feature"},
	{"geometry":{"coordinates":[-0.177397,50.834735],"type":"Point"},"properties":{"amenity":"recycling","name":"Glass, plastic, paper and card","osm_id":"2901847062"},"type":"Feature"},
	{"geometry":{"coordinates":[-0.181025,50.846335],"type":"Point"},"properties":{"amenity":"waste_basket","osm_id":"5045030996"},"type":"Feature"}
]
}
