{
"type": "FeatureCollection",
"lastupdate": "2020-07-28T01:29:12Z",
"features": [
	{"geometry":{"coordinates":[0.064888,52.178451],"type":"Point"},"properties":{"amenity":"recycling","osm_id":"33129692"},"type":"Feature"},
	{"geometry":{"coordinates":[0.005159,52.185293],"type":"Point"},"properties":{"amenity":"recycling","osm_id":"60851087"},"type":"Feature"},
	{"geometry":{"coordinates":[0.019958,52.188771],"type":"Point"},"properties":{"amenity":"recycling","osm_id":"60851208"},"type":"Feature"},
	{"geometry":{"coordinates":[0.039201,52.186817],"type":"Point"},"properties":{"amenity":"recycling","osm_id":"3443323430"},"type":"Feature"},
	{"geometry":{"coordinates":[0.038055,52.186976],"type":"Point"},"properties":{"amenity":"recycling","osm_id":"3443323441"},"type":"Feature"},
	{"geometry":{"coordinates":[0.084028,52.199901],"type":"Point"},"properties":{"amenity":"recycling","name":"Laundry Farm","osm_id":"4892296865","tag":{"access":"private","collection_times":"Weekly","operator":"University of Cambridge","recycling:fluorescent_tubes":"yes","recycling_type":"container"}},"type":"Feature"},
	{"geometry":{"coordinates":[0.084111,52.209492],"type":"Point"},"properties":{"amenity":"recycling","name":"Department of Materials Science","osm_id":"4892314831","tag":{"access":"private","collection_times":"Weekly","operator":"University of Cambridge","recycling:fluorescent_tubes":"yes","recycling_type":"container"}},"type":"Feature"},
	{"geometry":{"coordinates":[0.026878,52.190059],"type":"Point"},"properties":{"amenity":"waste_basket","osm_id":"5552904755"},"type":"Feature"}
]
}
