{
"type": "FeatureCollection",
"lastupdate": "2020-07-27T00:28:31Z",
"features": [
	{"geometry":{"coordinates":[-3.117446,51.02504],"type":"Point"},"properties":{"amenity":"waste_basket","osm_id":"3694953151","tag":{"waste":"trash"}},"type":"Feature"},
	{"geometry":{"coordinates":[-3.134785,51.018738],"type":"Point"},"properties":{"amenity":"waste_basket","osm_id":"4397403753","tag":{"waste_basket":"dog_excrement"}},"type":"Feature"},
	{"geometry":{"coordinates":[-3.138675,51.027317],"type":"Point"},"properties":{"amenity":"waste_basket","osm_id":"4408359314","tag":{"waste":"trash"}},"type":"Feature"},
	{"geometry":{"coordinates":[-3.097596,51.021182],"type":"Point"},"properties":{"amenity":"waste_basket","osm_id":"4695430741","tag":{"waste":"dog_excrement"}},"type":"Feature"},
	{"geometry":{"coordinates":[-3.130362,51.018252],"type":"Point"},"properties":{"amenity":"waste_basket","osm_id":"4893982467","tag":{"waste":"trash"}},"type":"Feature"},
	{"geometry":{"coordinates":[-3.140503,51.027103],"type":"Point"},"properties":{"amenity":"waste_basket","osm_id":"4903917359","tag":{"waste":"dog_excrement"}},"type":"Feature"},
	{"geometry":{"coordinates":[-3.14197,51.02634],"type":"Point"},"properties":{"amenity":"waste_basket","osm_id":"4903917360","tag":{"waste":"trash"}},"type":"Feature"},
	{"geometry":{"coordinates":[-3.096919,51.013938],"type":"Point"},"properties":{"amenity":"waste_basket","osm_id":"4909436020","tag":{"waste":"trash"}},"type":"Feature"},
	{"geometry":{"coordinates":[-3.145876,51.023887],"type":"Point"},"properties":{"amenity":"waste_basket","name":"Dog waste","osm_id":"4932732301","tag":{"waste":"dog_excrement"}},"type":"Feature"},
	{"geometry":{"coordinates":[-3.135471,51.028712],"type":"Point"},"properties":{"amenity":"waste_basket","name":"Dog waste","osm_id":"4945994901","tag":{"waste":"dog_excrement"}},"type":"Feature"},
	{"geometry":{"coordinates":[-3.084176,51.017882],"type":"Point"},"properties":{"amenity":"waste_basket","osm_id":"4968460960","tag":{"waste":"trash"}},"type":"Feature"},
	{"geometry":{"coordinates":[-3.08924,51.020203],"type":"Point"},"properties":{"amenity":"waste_basket","osm_id":"4968460961","tag":{"waste":"trash"}},"type":"Feature"},
	{"geometry":{"coordinates":[-3.087625,51.029264],"type":"Point"},"properties":{"amenity":"waste_basket","osm_id":"5098539513","tag":{"waste":"dog_excrement"}},"type":"Feature"},
	{"geometry":{"coordinates":[-3.08761,51.029349],"type":"Point"},"properties":{"amenity":"waste_basket","osm_id":"5098539514","tag":{"waste":"trash"}},"type":"Feature"},
	{"geometry":{"coordinates":[-3.148272,51.026032],"type":"Point"},"properties":{"amenity":"waste_basket","osm_id":"5157272283","tag":{"waste":"trash"}},"type":"Feature"},
	{"geometry":{"coordinates":[-3.148909,51.026118],"type":"Point"},"properties":{"amenity":"waste_basket","osm_id":"5157272287","tag":{"waste":"trash"}},"type":"Feature"},
	{"geometry":{"coordinates":[-3.14895,51.026056],"type":"Point"},"properties":{"amenity":"waste_basket","osm_id":"5157272288","tag":{"waste":"trash"}},"type":"Feature"},
	{"geometry":{"coordinates":[-3.14884,51.026224],"type":"Point"},"properties":{"amenity":"waste_basket","osm_id":"5157272291","tag":{"waste":"trash"}},"type":"Feature"},
	{"geometry":{"coordinates":[-3.148312,51.026315],"type":"Point"},"properties":{"amenity":"waste_basket","osm_id":"5157272294","tag":{"waste":"trash"}},"type":"Feature"},
	{"geometry":{"coordinates":[-3.149365,51.024868],"type":"Point"},"properties":{"amenity":"waste_basket","osm_id":"5971938053","tag":{"layer":"1","waste":"dog_excrement"}},"type":"Feature"},
	{"geometry":{"coordinates":[-3.138736,51.027339],"type":"Point"},"properties":{"amenity":"waste_basket","osm_id":"6517092274","tag":{"waste":"dog_excrement"}},"type":"Feature"},
	{"geometry":{"coordinates":[-3.111387,51.060215],"type":"Point"},"properties":{"amenity":"waste_basket","osm_id":"6754443689","tag":{"waste":"trash"}},"type":"Feature"},
	{"geometry":{"coordinates":[-3.114532,51.060909],"type":"Point"},"properties":{"amenity":"waste_basket","osm_id":"6754443723","tag":{"waste":"trash"}},"type":"Feature"},
	{"geometry":{"coordinates":[-3.150933,51.038104],"type":"Point"},"properties":{"amenity":"recycling","osm_id":"6754444420","tag":{"recycling:clothes":"yes","recycling_type":"container"}},"type":"Feature"},
	{"geometry":{"coordinates":[-3.151035,51.038129],"type":"Point"},"properties":{"amenity":"recycling","osm_id":"6754444421","tag":{"recycling:clothes":"yes","recycling_type":"container"}},"type":"Feature"},
	{"geometry":{"coordinates":[-3.102735,51.020192],"type":"Point"},"properties":{"amenity":"waste_basket","osm_id":"6754453248","tag":{"covered":"yes","waste":"trash"}},"type":"Feature"},
	{"geometry":{"coordinates":[-3.10268,51.02018],"type":"Point"},"properties":{"amenity":"waste_basket","osm_id":"6754453249","tag":{"covered":"yes","waste":"trash"}},"type":"Feature"},
	{"geometry":{"coordinates":[-3.102633,51.020257],"type":"Point"},"properties":{"amenity":"waste_basket","osm_id":"6754453267","tag":{"covered":"yes","waste":"trash"}},"type":"Feature"},
	{"geometry":{"coordinates":[-3.102689,51.020269],"type":"Point"},"properties":{"amenity":"waste_basket","osm_id":"6754453268","tag":{"covered":"yes","waste":"trash"}},"type":"Feature"},
	{"geometry":{"coordinates":[-3.14108,51.029863],"type":"Point"},"properties":{"amenity":"waste_basket","osm_id":"6754455771","tag":{"waste":"dog_excrement"}},"type":"Feature"},
	{"geometry":{"coordinates":[-3.139997,51.02934],"type":"Point"},"properties":{"amenity":"waste_basket","osm_id":"6754455776","tag":{"waste":"trash"}},"type":"Feature"},
	{"geometry":{"coordinates":[-3.145893,51.023885],"type":"Point"},"properties":{"amenity":"waste_basket","osm_id":"7009809333"},"type":"Feature"},
	{"geometry":{"coordinates":[-3.144686,51.02623],"type":"Point"},"properties":{"amenity":"waste_basket","osm_id":"7009809334"},"type":"Feature"},
	{"geometry":{"coordinates":[-3.146757,51.028365],"type":"Point"},"properties":{"amenity":"waste_basket","osm_id":"7141492976","tag":{"waste":"dog_excrement"}},"type":"Feature"},
	{"geometry":{"coordinates":[-3.146686,51.028349],"type":"Point"},"properties":{"amenity":"waste_basket","osm_id":"7141492977"},"type":"Feature"},
	{"geometry":{"coordinates":[-3.103277,51.015642],"type":"Point"},"properties":{"amenity":"waste_basket","osm_id":"7477284829","tag":{"colour":"black","material":"metal","waste":"trash"}},"type":"Feature"},
	{"geometry":{"coordinates":[-3.10314,51.015243],"type":"Point"},"properties":{"amenity":"waste_basket","osm_id":"7477284830","tag":{"colour":"black","material":"metal","waste":"trash"}},"type":"Feature"},
	{"geometry":{"coordinates":[-3.104407,51.015185],"type":"Point"},"properties":{"amenity":"waste_basket","osm_id":"7477284846","tag":{"colour":"black","material":"metal","waste":"trash"}},"type":"Feature"},
	{"geometry":{"coordinates":[-3.104593,51.014916],"type":"Point"},"properties":{"amenity":"waste_basket","osm_id":"7477284852","tag":{"colour":"black","material":"metal","waste":"trash"}},"type":"Feature"},
	{"geometry":{"coordinates":[-3.104904,51.014749],"type":"Point"},"properties":{"amenity":"waste_basket","osm_id":"7477284874","tag":{"colour":"grey","material":"plastic","waste":"trash"}},"type":"Feature"},
	{"geometry":{"coordinates":[-3.105037,51.014922],"type":"Point"},"properties":{"amenity":"waste_basket","osm_id":"7477286571","tag":{"colour":"black","material":"metal","waste":"trash"}},"type":"Feature"}
]
}
