{
"type": "FeatureCollection",
"lastupdate": "2020-07-24T00:48:03Z",
"features": [
	{"geometry":{"coordinates":[-2.291829,53.543859],"type":"Point"},"properties":{"amenity":"recycling","name":"Fountain Place, Recycling","osm_id":"967674482"},"type":"Feature"},
	{"geometry":{"coordinates":[-2.297395,53.592046],"type":"Point"},"properties":{"amenity":"waste_basket","osm_id":"4968265065"},"type":"Feature"},
	{"geometry":{"coordinates":[-2.369222,53.561422],"type":"Point"},"properties":{"amenity":"waste_basket","osm_id":"5240215739"},"type":"Feature"},
	{"geometry":{"coordinates":[-2.369649,53.561357],"type":"Point"},"properties":{"amenity":"waste_basket","osm_id":"5240215936"},"type":"Feature"},
	{"geometry":{"coordinates":[-2.372391,53.56259],"type":"Point"},"properties":{"amenity":"waste_basket","osm_id":"5240574167"},"type":"Feature"},
	{"geometry":{"coordinates":[-2.372258,53.56276],"type":"Point"},"properties":{"amenity":"waste_basket","osm_id":"5240574168"},"type":"Feature"},
	{"geometry":{"coordinates":[-2.372211,53.563118],"type":"Point"},"properties":{"amenity":"waste_basket","osm_id":"5240574172"},"type":"Feature"},
	{"geometry":{"coordinates":[-2.371219,53.561966],"type":"Point"},"properties":{"amenity":"waste_basket","osm_id":"5240574177"},"type":"Feature"},
	{"geometry":{"coordinates":[-2.370814,53.561868],"type":"Point"},"properties":{"amenity":"waste_basket","osm_id":"5240574178"},"type":"Feature"},
	{"geometry":{"coordinates":[-2.370243,53.561634],"type":"Point"},"properties":{"amenity":"waste_basket","osm_id":"5240574179"},"type":"Feature"},
	{"geometry":{"coordinates":[-2.363075,53.57082],"type":"Point"},"properties":{"amenity":"waste_basket","osm_id":"5242425446","tag":{"waste":"dog_excrement"}},"type":"Feature"},
	{"geometry":{"coordinates":[-2.315756,53.564645],"type":"Point"},"properties":{"amenity":"waste_basket","osm_id":"5326911049"},"type":"Feature"},
	{"geometry":{"coordinates":[-2.371197,53.547347],"type":"Point"},"properties":{"amenity":"waste_basket","osm_id":"5587591635"},"type":"Feature"},
	{"geometry":{"coordinates":[-2.361222,53.573972],"type":"Point"},"properties":{"amenity":"recycling","osm_id":"6139519271","tag":{"recycling_type":"centre"}},"type":"Feature"},
	{"geometry":{"coordinates":[-2.369279,53.557226],"type":"Point"},"properties":{"amenity":"waste_basket","osm_id":"6341087880"},"type":"Feature"},
	{"geometry":{"coordinates":[-2.370616,53.561924],"type":"Point"},"properties":{"amenity":"waste_basket","osm_id":"6351815559"},"type":"Feature"},
	{"geometry":{"coordinates":[-2.369009,53.569199],"type":"Point"},"properties":{"amenity":"waste_basket","osm_id":"6360799023"},"type":"Feature"},
	{"geometry":{"coordinates":[-2.36128,53.574018],"type":"Point"},"properties":{"amenity":"waste_basket","osm_id":"6367309872"},"type":"Feature"},
	{"geometry":{"coordinates":[-2.295233,53.549964],"type":"Point"},"properties":{"amenity":"waste_basket","osm_id":"6972766564"},"type":"Feature"}
]
}
