{
"type": "FeatureCollection",
"lastupdate": "2020-07-24T00:48:03Z",
"features": [
	{"geometry":{"coordinates":[-1.618465,54.976842],"type":"Point"},"properties":{"amenity":"recycling","osm_id":"263545319"},"type":"Feature"},
	{"geometry":{"coordinates":[-1.599087,54.968897],"type":"Point"},"properties":{"amenity":"recycling","osm_id":"356843943","tag":{"recycling:cans":"yes","recycling:paper":"yes","recycling:plastic":"yes","recycling_type":"container"}},"type":"Feature"},
	{"geometry":{"coordinates":[-1.61578,54.970325],"type":"Point"},"properties":{"amenity":"waste_basket","osm_id":"1768997752"},"type":"Feature"},
	{"geometry":{"coordinates":[-1.615622,54.970383],"type":"Point"},"properties":{"amenity":"waste_basket","osm_id":"1768997765"},"type":"Feature"},
	{"geometry":{"coordinates":[-1.604609,54.945024],"type":"Point"},"properties":{"amenity":"recycling","osm_id":"2934856836","tag":{"location":"overground","recycling_type":"container"}},"type":"Feature"},
	{"geometry":{"coordinates":[-1.622723,54.972135],"type":"Point"},"properties":{"amenity":"waste_basket","osm_id":"3428788089"},"type":"Feature"},
	{"geometry":{"coordinates":[-1.623321,54.97225],"type":"Point"},"properties":{"amenity":"waste_basket","osm_id":"3428793612"},"type":"Feature"},
	{"geometry":{"coordinates":[-1.622833,54.972383],"type":"Point"},"properties":{"amenity":"waste_basket","osm_id":"3428793637"},"type":"Feature"},
	{"geometry":{"coordinates":[-1.600397,54.970258],"type":"Point"},"properties":{"amenity":"waste_basket","osm_id":"4054768070"},"type":"Feature"},
	{"geometry":{"coordinates":[-1.605647,54.970488],"type":"Point"},"properties":{"amenity":"waste_basket","osm_id":"4084962411"},"type":"Feature"},
	{"geometry":{"coordinates":[-1.60562,54.970453],"type":"Point"},"properties":{"amenity":"waste_basket","osm_id":"4084962412"},"type":"Feature"},
	{"geometry":{"coordinates":[-1.605963,54.970796],"type":"Point"},"properties":{"amenity":"waste_basket","osm_id":"4084962413"},"type":"Feature"},
	{"geometry":{"coordinates":[-1.604258,54.970422],"type":"Point"},"properties":{"amenity":"waste_basket","osm_id":"4088036872"},"type":"Feature"},
	{"geometry":{"coordinates":[-1.58367,54.976785],"type":"Point"},"properties":{"amenity":"waste_basket","osm_id":"4131187779"},"type":"Feature"},
	{"geometry":{"coordinates":[-1.582494,54.976955],"type":"Point"},"properties":{"amenity":"waste_basket","osm_id":"4133966714"},"type":"Feature"},
	{"geometry":{"coordinates":[-1.582272,54.976861],"type":"Point"},"properties":{"amenity":"waste_basket","osm_id":"4139258071"},"type":"Feature"},
	{"geometry":{"coordinates":[-1.617962,54.971133],"type":"Point"},"properties":{"amenity":"waste_basket","osm_id":"4185103810"},"type":"Feature"},
	{"geometry":{"coordinates":[-1.601139,54.96342],"type":"Point"},"properties":{"amenity":"waste_basket","osm_id":"4191576762"},"type":"Feature"},
	{"geometry":{"coordinates":[-1.606253,54.968612],"type":"Point"},"properties":{"amenity":"waste_basket","osm_id":"4271501774"},"type":"Feature"},
	{"geometry":{"coordinates":[-1.599859,54.970344],"type":"Point"},"properties":{"amenity":"waste_basket","osm_id":"4271501787"},"type":"Feature"},
	{"geometry":{"coordinates":[-1.58741,54.97054],"type":"Point"},"properties":{"amenity":"waste_basket","osm_id":"4271501790"},"type":"Feature"},
	{"geometry":{"coordinates":[-1.595565,54.971161],"type":"Point"},"properties":{"amenity":"waste_basket","osm_id":"4271501822"},"type":"Feature"},
	{"geometry":{"coordinates":[-1.591701,54.971215],"type":"Point"},"properties":{"amenity":"waste_basket","osm_id":"4271501827"},"type":"Feature"},
	{"geometry":{"coordinates":[-1.593213,54.971276],"type":"Point"},"properties":{"amenity":"waste_basket","osm_id":"4271501834"},"type":"Feature"},
	{"geometry":{"coordinates":[-1.599405,54.968839],"type":"Point"},"properties":{"amenity":"waste_basket","osm_id":"4353884581"},"type":"Feature"},
	{"geometry":{"coordinates":[-1.599253,54.968859],"type":"Point"},"properties":{"amenity":"waste_basket","osm_id":"4353884582"},"type":"Feature"},
	{"geometry":{"coordinates":[-1.597349,54.969555],"type":"Point"},"properties":{"amenity":"waste_basket","osm_id":"4353885164"},"type":"Feature"},
	{"geometry":{"coordinates":[-1.596779,54.969646],"type":"Point"},"properties":{"amenity":"waste_basket","osm_id":"4353885189"},"type":"Feature"},
	{"geometry":{"coordinates":[-1.596256,54.969676],"type":"Point"},"properties":{"amenity":"waste_basket","osm_id":"4353885201"},"type":"Feature"},
	{"geometry":{"coordinates":[-1.599431,54.934953],"type":"Point"},"properties":{"amenity":"waste_basket","osm_id":"4367897967"},"type":"Feature"},
	{"geometry":{"coordinates":[-1.599441,54.935006],"type":"Point"},"properties":{"amenity":"recycling","osm_id":"4367897968"},"type":"Feature"},
	{"geometry":{"coordinates":[-1.599784,54.936341],"type":"Point"},"properties":{"amenity":"waste_basket","osm_id":"4379220974"},"type":"Feature"},
	{"geometry":{"coordinates":[-1.588432,54.932671],"type":"Point"},"properties":{"amenity":"recycling","osm_id":"4380341024","tag":{"recycling:clothes":"yes"}},"type":"Feature"},
	{"geometry":{"coordinates":[-1.591347,54.945498],"type":"Point"},"properties":{"amenity":"waste_basket","osm_id":"4380736533"},"type":"Feature"},
	{"geometry":{"coordinates":[-1.583181,54.94543],"type":"Point"},"properties":{"amenity":"waste_basket","osm_id":"4385119386"},"type":"Feature"},
	{"geometry":{"coordinates":[-1.58315,54.945414],"type":"Point"},"properties":{"amenity":"recycling","osm_id":"4385119387"},"type":"Feature"},
	{"geometry":{"coordinates":[-1.60248,54.967182],"type":"Point"},"properties":{"amenity":"waste_basket","osm_id":"4387184937"},"type":"Feature"},
	{"geometry":{"coordinates":[-1.602463,54.967156],"type":"Point"},"properties":{"amenity":"recycling","osm_id":"4387184938"},"type":"Feature"},
	{"geometry":{"coordinates":[-1.587106,54.95575],"type":"Point"},"properties":{"amenity":"waste_basket","osm_id":"4387229488"},"type":"Feature"},
	{"geometry":{"coordinates":[-1.584723,54.950578],"type":"Point"},"properties":{"amenity":"waste_basket","osm_id":"4387229712"},"type":"Feature"},
	{"geometry":{"coordinates":[-1.595413,54.951214],"type":"Point"},"properties":{"amenity":"waste_basket","osm_id":"4387262443"},"type":"Feature"},
	{"geometry":{"coordinates":[-1.596699,54.952955],"type":"Point"},"properties":{"amenity":"waste_basket","osm_id":"4387294141"},"type":"Feature"},
	{"geometry":{"coordinates":[-1.616156,54.950058],"type":"Point"},"properties":{"amenity":"waste_basket","osm_id":"4387306415"},"type":"Feature"},
	{"geometry":{"coordinates":[-1.602142,54.950224],"type":"Point"},"properties":{"amenity":"recycling","osm_id":"4387332936"},"type":"Feature"},
	{"geometry":{"coordinates":[-1.61128,54.949801],"type":"Point"},"properties":{"amenity":"waste_basket","osm_id":"4393216866"},"type":"Feature"},
	{"geometry":{"coordinates":[-1.611077,54.949797],"type":"Point"},"properties":{"amenity":"recycling","osm_id":"4393216867"},"type":"Feature"},
	{"geometry":{"coordinates":[-1.605102,54.950808],"type":"Point"},"properties":{"amenity":"waste_basket","osm_id":"4393238798"},"type":"Feature"},
	{"geometry":{"coordinates":[-1.606718,54.953142],"type":"Point"},"properties":{"amenity":"waste_basket","osm_id":"4393276214"},"type":"Feature"},
	{"geometry":{"coordinates":[-1.607752,54.954394],"type":"Point"},"properties":{"amenity":"recycling","osm_id":"4393498242"},"type":"Feature"},
	{"geometry":{"coordinates":[-1.609307,54.955878],"type":"Point"},"properties":{"amenity":"recycling","osm_id":"4397300051"},"type":"Feature"},
	{"geometry":{"coordinates":[-1.608606,54.956603],"type":"Point"},"properties":{"amenity":"waste_basket","osm_id":"4397320697"},"type":"Feature"},
	{"geometry":{"coordinates":[-1.608414,54.956146],"type":"Point"},"properties":{"amenity":"waste_basket","osm_id":"4397320698"},"type":"Feature"},
	{"geometry":{"coordinates":[-1.608239,54.956046],"type":"Point"},"properties":{"amenity":"waste_basket","osm_id":"4397320719"},"type":"Feature"},
	{"geometry":{"coordinates":[-1.611845,54.960144],"type":"Point"},"properties":{"amenity":"recycling","osm_id":"4397659229"},"type":"Feature"},
	{"geometry":{"coordinates":[-1.604319,54.963431],"type":"Point"},"properties":{"amenity":"waste_basket","osm_id":"4397679916"},"type":"Feature"},
	{"geometry":{"coordinates":[-1.603752,54.9624],"type":"Point"},"properties":{"amenity":"recycling","osm_id":"4397679927","tag":{"recycling_type":"container"}},"type":"Feature"},
	{"geometry":{"coordinates":[-1.603456,54.96166],"type":"Point"},"properties":{"amenity":"waste_basket","osm_id":"4397679935"},"type":"Feature"},
	{"geometry":{"coordinates":[-1.603468,54.96161],"type":"Point"},"properties":{"amenity":"recycling","osm_id":"4397687840"},"type":"Feature"},
	{"geometry":{"coordinates":[-1.604143,54.964135],"type":"Point"},"properties":{"amenity":"waste_basket","osm_id":"4397687869"},"type":"Feature"},
	{"geometry":{"coordinates":[-1.60442,54.964333],"type":"Point"},"properties":{"amenity":"waste_basket","osm_id":"4397687870"},"type":"Feature"},
	{"geometry":{"coordinates":[-1.60138,54.963812],"type":"Point"},"properties":{"amenity":"waste_basket","osm_id":"4397690902"},"type":"Feature"},
	{"geometry":{"coordinates":[-1.601316,54.963699],"type":"Point"},"properties":{"amenity":"waste_basket","osm_id":"4397690903"},"type":"Feature"},
	{"geometry":{"coordinates":[-1.600792,54.962533],"type":"Point"},"properties":{"amenity":"waste_basket","osm_id":"4398528728"},"type":"Feature"},
	{"geometry":{"coordinates":[-1.601589,54.961916],"type":"Point"},"properties":{"amenity":"waste_basket","osm_id":"4398576149"},"type":"Feature"},
	{"geometry":{"coordinates":[-1.601842,54.961656],"type":"Point"},"properties":{"amenity":"waste_basket","osm_id":"4398576192"},"type":"Feature"},
	{"geometry":{"coordinates":[-1.600946,54.963515],"type":"Point"},"properties":{"amenity":"recycling","osm_id":"4398610795"},"type":"Feature"},
	{"geometry":{"coordinates":[-1.600967,54.963495],"type":"Point"},"properties":{"amenity":"waste_basket","osm_id":"4398610796"},"type":"Feature"},
	{"geometry":{"coordinates":[-1.627499,54.950729],"type":"Point"},"properties":{"amenity":"recycling","osm_id":"4398666364"},"type":"Feature"},
	{"geometry":{"coordinates":[-1.620601,54.949312],"type":"Point"},"properties":{"amenity":"waste_basket","osm_id":"4398889469"},"type":"Feature"},
	{"geometry":{"coordinates":[-1.637545,54.939204],"type":"Point"},"properties":{"amenity":"waste_basket","osm_id":"4409703562"},"type":"Feature"},
	{"geometry":{"coordinates":[-1.638673,54.941753],"type":"Point"},"properties":{"amenity":"recycling","osm_id":"4409730823"},"type":"Feature"},
	{"geometry":{"coordinates":[-1.638662,54.941818],"type":"Point"},"properties":{"amenity":"waste_basket","osm_id":"4409730824"},"type":"Feature"},
	{"geometry":{"coordinates":[-1.646944,54.948704],"type":"Point"},"properties":{"amenity":"waste_basket","osm_id":"4409793549"},"type":"Feature"},
	{"geometry":{"coordinates":[-1.64619,54.948694],"type":"Point"},"properties":{"amenity":"waste_basket","osm_id":"4409793588"},"type":"Feature"},
	{"geometry":{"coordinates":[-1.639903,54.953293],"type":"Point"},"properties":{"amenity":"waste_basket","osm_id":"4414660587"},"type":"Feature"},
	{"geometry":{"coordinates":[-1.641701,54.950626],"type":"Point"},"properties":{"amenity":"waste_basket","osm_id":"4414690200"},"type":"Feature"},
	{"geometry":{"coordinates":[-1.647289,54.955981],"type":"Point"},"properties":{"amenity":"waste_basket","osm_id":"4414690216"},"type":"Feature"},
	{"geometry":{"coordinates":[-1.600979,54.97001],"type":"Point"},"properties":{"amenity":"waste_basket","osm_id":"4500664769"},"type":"Feature"},
	{"geometry":{"coordinates":[-1.605466,54.971796],"type":"Point"},"properties":{"amenity":"waste_basket","osm_id":"4502345244"},"type":"Feature"},
	{"geometry":{"coordinates":[-1.607193,54.968324],"type":"Point"},"properties":{"amenity":"waste_basket","osm_id":"4504210947"},"type":"Feature"},
	{"geometry":{"coordinates":[-1.621951,54.967207],"type":"Point"},"properties":{"amenity":"waste_basket","osm_id":"4504609105"},"type":"Feature"},
	{"geometry":{"coordinates":[-1.612261,54.970102],"type":"Point"},"properties":{"amenity":"waste_basket","osm_id":"4513906052"},"type":"Feature"},
	{"geometry":{"coordinates":[-1.613699,54.97113],"type":"Point"},"properties":{"amenity":"waste_basket","osm_id":"4515366479"},"type":"Feature"},
	{"geometry":{"coordinates":[-1.6139,54.971273],"type":"Point"},"properties":{"amenity":"waste_basket","osm_id":"4515366480"},"type":"Feature"},
	{"geometry":{"coordinates":[-1.613918,54.971237],"type":"Point"},"properties":{"amenity":"waste_basket","osm_id":"4515366481"},"type":"Feature"},
	{"geometry":{"coordinates":[-1.613944,54.971202],"type":"Point"},"properties":{"amenity":"waste_basket","osm_id":"4515366482"},"type":"Feature"},
	{"geometry":{"coordinates":[-1.614011,54.971264],"type":"Point"},"properties":{"amenity":"waste_basket","osm_id":"4515366486"},"type":"Feature"},
	{"geometry":{"coordinates":[-1.614109,54.971256],"type":"Point"},"properties":{"amenity":"waste_basket","osm_id":"4515366487"},"type":"Feature"},
	{"geometry":{"coordinates":[-1.614225,54.971362],"type":"Point"},"properties":{"amenity":"waste_basket","osm_id":"4515366595"},"type":"Feature"},
	{"geometry":{"coordinates":[-1.614322,54.971387],"type":"Point"},"properties":{"amenity":"waste_basket","osm_id":"4515366596"},"type":"Feature"},
	{"geometry":{"coordinates":[-1.614356,54.971325],"type":"Point"},"properties":{"amenity":"waste_basket","osm_id":"4515366597"},"type":"Feature"},
	{"geometry":{"coordinates":[-1.614838,54.971443],"type":"Point"},"properties":{"amenity":"waste_basket","osm_id":"4515366601"},"type":"Feature"},
	{"geometry":{"coordinates":[-1.614716,54.971365],"type":"Point"},"properties":{"amenity":"waste_basket","osm_id":"4515366602"},"type":"Feature"},
	{"geometry":{"coordinates":[-1.614545,54.971418],"type":"Point"},"properties":{"amenity":"waste_basket","osm_id":"4515366603"},"type":"Feature"},
	{"geometry":{"coordinates":[-1.615784,54.971621],"type":"Point"},"properties":{"amenity":"waste_basket","osm_id":"4515409810"},"type":"Feature"},
	{"geometry":{"coordinates":[-1.616197,54.971744],"type":"Point"},"properties":{"amenity":"waste_basket","osm_id":"4515409811"},"type":"Feature"},
	{"geometry":{"coordinates":[-1.618529,54.970868],"type":"Point"},"properties":{"amenity":"waste_basket","osm_id":"4515560383"},"type":"Feature"},
	{"geometry":{"coordinates":[-1.620767,54.971771],"type":"Point"},"properties":{"amenity":"waste_basket","osm_id":"4516691879"},"type":"Feature"},
	{"geometry":{"coordinates":[-1.620071,54.972524],"type":"Point"},"properties":{"amenity":"waste_basket","osm_id":"4516691884"},"type":"Feature"},
	{"geometry":{"coordinates":[-1.61139,54.97135],"type":"Point"},"properties":{"amenity":"waste_basket","osm_id":"4516764303"},"type":"Feature"},
	{"geometry":{"coordinates":[-1.6097,54.971457],"type":"Point"},"properties":{"amenity":"waste_basket","osm_id":"4516885169"},"type":"Feature"},
	{"geometry":{"coordinates":[-1.609591,54.974734],"type":"Point"},"properties":{"amenity":"waste_basket","osm_id":"4517264553"},"type":"Feature"},
	{"geometry":{"coordinates":[-1.61523,54.974196],"type":"Point"},"properties":{"amenity":"waste_basket","osm_id":"4517322268"},"type":"Feature"},
	{"geometry":{"coordinates":[-1.614761,54.974432],"type":"Point"},"properties":{"amenity":"waste_basket","osm_id":"4517323695"},"type":"Feature"},
	{"geometry":{"coordinates":[-1.613522,54.974058],"type":"Point"},"properties":{"amenity":"waste_basket","osm_id":"4517332350"},"type":"Feature"},
	{"geometry":{"coordinates":[-1.612497,54.974184],"type":"Point"},"properties":{"amenity":"waste_basket","osm_id":"4517332352"},"type":"Feature"},
	{"geometry":{"coordinates":[-1.612296,54.972526],"type":"Point"},"properties":{"amenity":"waste_basket","osm_id":"4518695391"},"type":"Feature"},
	{"geometry":{"coordinates":[-1.611056,54.972819],"type":"Point"},"properties":{"amenity":"waste_basket","osm_id":"4518695392"},"type":"Feature"},
	{"geometry":{"coordinates":[-1.612495,54.972879],"type":"Point"},"properties":{"amenity":"waste_basket","osm_id":"4518695397"},"type":"Feature"},
	{"geometry":{"coordinates":[-1.611608,54.973731],"type":"Point"},"properties":{"amenity":"waste_basket","osm_id":"4518715917"},"type":"Feature"},
	{"geometry":{"coordinates":[-1.627235,54.970117],"type":"Point"},"properties":{"amenity":"waste_basket","osm_id":"4563584455"},"type":"Feature"},
	{"geometry":{"coordinates":[-1.63044,54.971306],"type":"Point"},"properties":{"amenity":"waste_basket","osm_id":"4563652272"},"type":"Feature"},
	{"geometry":{"coordinates":[-1.657444,54.969954],"type":"Point"},"properties":{"amenity":"waste_basket","osm_id":"4564870552"},"type":"Feature"},
	{"geometry":{"coordinates":[-1.660332,54.971131],"type":"Point"},"properties":{"amenity":"recycling","name":"Cash 4 Clothes","osm_id":"4564946296","tag":{"addr:city":"Newcastle Upon Tyne","addr:street":"Condercum Road","recycling:clothes":"yes","recycling:shoes":"yes","recycling_type":"centre"}},"type":"Feature"},
	{"geometry":{"coordinates":[-1.656333,54.969999],"type":"Point"},"properties":{"amenity":"waste_basket","osm_id":"4587030422"},"type":"Feature"},
	{"geometry":{"coordinates":[-1.656041,54.969954],"type":"Point"},"properties":{"amenity":"recycling","osm_id":"4587030426","tag":{"recycling_type":"container"}},"type":"Feature"},
	{"geometry":{"coordinates":[-1.655531,54.969894],"type":"Point"},"properties":{"amenity":"waste_basket","osm_id":"4587060018"},"type":"Feature"},
	{"geometry":{"coordinates":[-1.644748,54.968696],"type":"Point"},"properties":{"amenity":"waste_basket","osm_id":"4587181898"},"type":"Feature"},
	{"geometry":{"coordinates":[-1.644509,54.968697],"type":"Point"},"properties":{"amenity":"recycling","osm_id":"4587181899","tag":{"recycling:clothes":"yes","recycling:shoes":"yes","recycling_type":"container"}},"type":"Feature"},
	{"geometry":{"coordinates":[-1.654341,54.975671],"type":"Point"},"properties":{"amenity":"waste_basket","osm_id":"4590623744"},"type":"Feature"},
	{"geometry":{"coordinates":[-1.656273,54.975979],"type":"Point"},"properties":{"amenity":"waste_basket","osm_id":"4590641860"},"type":"Feature"},
	{"geometry":{"coordinates":[-1.65866,54.976156],"type":"Point"},"properties":{"amenity":"waste_basket","osm_id":"4590658946"},"type":"Feature"},
	{"geometry":{"coordinates":[-1.640391,54.975668],"type":"Point"},"properties":{"amenity":"waste_basket","osm_id":"4598110889"},"type":"Feature"},
	{"geometry":{"coordinates":[-1.651343,54.975372],"type":"Point"},"properties":{"amenity":"recycling","osm_id":"4601470457","tag":{"recycling_type":"container"}},"type":"Feature"},
	{"geometry":{"coordinates":[-1.651151,54.975324],"type":"Point"},"properties":{"amenity":"waste_basket","osm_id":"4601908672"},"type":"Feature"},
	{"geometry":{"coordinates":[-1.653502,54.975873],"type":"Point"},"properties":{"amenity":"recycling","osm_id":"4603415234","tag":{"recycling_type":"container"}},"type":"Feature"},
	{"geometry":{"coordinates":[-1.65568,54.97611],"type":"Point"},"properties":{"amenity":"waste_basket","osm_id":"4603415256"},"type":"Feature"},
	{"geometry":{"coordinates":[-1.620996,54.97177],"type":"Point"},"properties":{"amenity":"waste_basket","osm_id":"4888592116"},"type":"Feature"},
	{"geometry":{"coordinates":[-1.619432,54.971034],"type":"Point"},"properties":{"amenity":"waste_basket","osm_id":"4893936469"},"type":"Feature"},
	{"geometry":{"coordinates":[-1.620532,54.970614],"type":"Point"},"properties":{"amenity":"waste_basket","osm_id":"4894082209"},"type":"Feature"},
	{"geometry":{"coordinates":[-1.619512,54.971029],"type":"Point"},"properties":{"amenity":"waste_basket","osm_id":"4894425959"},"type":"Feature"},
	{"geometry":{"coordinates":[-1.622331,54.971433],"type":"Point"},"properties":{"amenity":"waste_basket","osm_id":"4899630705"},"type":"Feature"},
	{"geometry":{"coordinates":[-1.618858,54.969037],"type":"Point"},"properties":{"amenity":"waste_basket","osm_id":"4945535428"},"type":"Feature"},
	{"geometry":{"coordinates":[-1.60304,54.970821],"type":"Point"},"properties":{"amenity":"waste_basket","osm_id":"5405141103"},"type":"Feature"},
	{"geometry":{"coordinates":[-1.665346,54.958872],"type":"Point"},"properties":{"amenity":"waste_basket","osm_id":"5692942564","tag":{"level":"0"}},"type":"Feature"},
	{"geometry":{"coordinates":[-1.665162,54.958853],"type":"Point"},"properties":{"amenity":"waste_basket","osm_id":"5692942565","tag":{"level":"0"}},"type":"Feature"},
	{"geometry":{"coordinates":[-1.614181,54.969773],"type":"Point"},"properties":{"amenity":"waste_basket","osm_id":"5939518941"},"type":"Feature"},
	{"geometry":{"coordinates":[-1.612113,54.970329],"type":"Point"},"properties":{"amenity":"waste_basket","osm_id":"5939518944"},"type":"Feature"},
	{"geometry":{"coordinates":[-1.586035,54.976464],"type":"Point"},"properties":{"amenity":"waste_basket","osm_id":"5941032319"},"type":"Feature"},
	{"geometry":{"coordinates":[-1.58564,54.976342],"type":"Point"},"properties":{"amenity":"waste_basket","osm_id":"5941032320"},"type":"Feature"},
	{"geometry":{"coordinates":[-1.584759,54.97663],"type":"Point"},"properties":{"amenity":"waste_basket","osm_id":"5941032321"},"type":"Feature"},
	{"geometry":{"coordinates":[-1.583236,54.976744],"type":"Point"},"properties":{"amenity":"waste_basket","osm_id":"5941032323"},"type":"Feature"},
	{"geometry":{"coordinates":[-1.611638,54.969805],"type":"Point"},"properties":{"amenity":"waste_basket","osm_id":"5961871389"},"type":"Feature"},
	{"geometry":{"coordinates":[-1.62441,54.971108],"type":"Point"},"properties":{"amenity":"waste_basket","osm_id":"5964282569","tag":{"waste":"trash"}},"type":"Feature"},
	{"geometry":{"coordinates":[-1.62353,54.970887],"type":"Point"},"properties":{"amenity":"waste_basket","osm_id":"5964282572","tag":{"waste":"trash"}},"type":"Feature"},
	{"geometry":{"coordinates":[-1.620955,54.968536],"type":"Point"},"properties":{"amenity":"waste_basket","osm_id":"5964282574","tag":{"waste":"trash"}},"type":"Feature"},
	{"geometry":{"coordinates":[-1.620867,54.968392],"type":"Point"},"properties":{"amenity":"waste_basket","osm_id":"5964282575","tag":{"waste":"trash"}},"type":"Feature"},
	{"geometry":{"coordinates":[-1.618267,54.968917],"type":"Point"},"properties":{"amenity":"waste_basket","osm_id":"5964282576","tag":{"waste":"trash"}},"type":"Feature"},
	{"geometry":{"coordinates":[-1.617605,54.969192],"type":"Point"},"properties":{"amenity":"waste_basket","osm_id":"5964282577","tag":{"waste":"trash"}},"type":"Feature"},
	{"geometry":{"coordinates":[-1.621785,54.974082],"type":"Point"},"properties":{"amenity":"waste_basket","osm_id":"6094279035"},"type":"Feature"},
	{"geometry":{"coordinates":[-1.602444,54.975584],"type":"Point"},"properties":{"amenity":"waste_basket","osm_id":"6110268039"},"type":"Feature"},
	{"geometry":{"coordinates":[-1.609069,54.976127],"type":"Point"},"properties":{"amenity":"waste_basket","osm_id":"6150114238"},"type":"Feature"},
	{"geometry":{"coordinates":[-1.620903,54.971091],"type":"Point"},"properties":{"amenity":"waste_basket","osm_id":"6211791467"},"type":"Feature"},
	{"geometry":{"coordinates":[-1.602738,54.960976],"type":"Point"},"properties":{"amenity":"waste_basket","osm_id":"6434334701"},"type":"Feature"},
	{"geometry":{"coordinates":[-1.605092,54.965149],"type":"Point"},"properties":{"amenity":"waste_basket","osm_id":"6434334712"},"type":"Feature"},
	{"geometry":{"coordinates":[-1.612772,54.975896],"type":"Point"},"properties":{"amenity":"waste_basket","osm_id":"6482289605"},"type":"Feature"},
	{"geometry":{"coordinates":[-1.634423,54.944242],"type":"Point"},"properties":{"amenity":"waste_basket","osm_id":"6504493183"},"type":"Feature"},
	{"geometry":{"coordinates":[-1.629337,54.957773],"type":"Point"},"properties":{"amenity":"waste_basket","osm_id":"6797418806","tag":{"waste":"trash"}},"type":"Feature"},
	{"geometry":{"coordinates":[-1.611844,54.970464],"type":"Point"},"properties":{"amenity":"waste_basket","osm_id":"6853756240"},"type":"Feature"}
]
}
