{
"type": "FeatureCollection",
"lastupdate": "2020-07-28T01:29:12Z",
"features": [
	{"geometry":{"coordinates":[-1.653565,54.699957],"type":"Point"},"properties":{"amenity":"waste_basket","osm_id":"1716421769"},"type":"Feature"},
	{"geometry":{"coordinates":[-1.654706,54.701076],"type":"Point"},"properties":{"amenity":"waste_basket","osm_id":"1716421810"},"type":"Feature"},
	{"geometry":{"coordinates":[-1.600017,54.698605],"type":"Point"},"properties":{"amenity":"recycling","osm_id":"1853544477","tag":{"recycling:books":"yes","recycling:cds":"yes","recycling:clothes":"yes"}},"type":"Feature"},
	{"geometry":{"coordinates":[-1.594695,54.705751],"type":"Point"},"properties":{"amenity":"waste_basket","osm_id":"4146807327"},"type":"Feature"},
	{"geometry":{"coordinates":[-1.598412,54.700901],"type":"Point"},"properties":{"amenity":"waste_basket","osm_id":"4146816336"},"type":"Feature"},
	{"geometry":{"coordinates":[-1.601979,54.698901],"type":"Point"},"properties":{"amenity":"waste_basket","osm_id":"4148893380"},"type":"Feature"},
	{"geometry":{"coordinates":[-1.601358,54.69912],"type":"Point"},"properties":{"amenity":"waste_basket","osm_id":"4148894290"},"type":"Feature"},
	{"geometry":{"coordinates":[-1.604044,54.69811],"type":"Point"},"properties":{"amenity":"waste_basket","osm_id":"4148925149"},"type":"Feature"},
	{"geometry":{"coordinates":[-1.603457,54.698392],"type":"Point"},"properties":{"amenity":"waste_basket","osm_id":"4148925155"},"type":"Feature"},
	{"geometry":{"coordinates":[-1.602797,54.698766],"type":"Point"},"properties":{"amenity":"waste_basket","osm_id":"4148938137"},"type":"Feature"},
	{"geometry":{"coordinates":[-1.60267,54.698737],"type":"Point"},"properties":{"amenity":"waste_basket","osm_id":"4148938140"},"type":"Feature"},
	{"geometry":{"coordinates":[-1.60197,54.6991],"type":"Point"},"properties":{"amenity":"waste_basket","osm_id":"4148948358"},"type":"Feature"},
	{"geometry":{"coordinates":[-1.601697,54.6992],"type":"Point"},"properties":{"amenity":"waste_basket","osm_id":"4148948359"},"type":"Feature"},
	{"geometry":{"coordinates":[-1.601577,54.699247],"type":"Point"},"properties":{"amenity":"waste_basket","osm_id":"4148948362"},"type":"Feature"},
	{"geometry":{"coordinates":[-1.601458,54.699285],"type":"Point"},"properties":{"amenity":"waste_basket","osm_id":"4148948363"},"type":"Feature"},
	{"geometry":{"coordinates":[-1.600457,54.69958],"type":"Point"},"properties":{"amenity":"waste_basket","osm_id":"4148967579"},"type":"Feature"},
	{"geometry":{"coordinates":[-1.599128,54.700435],"type":"Point"},"properties":{"amenity":"waste_basket","osm_id":"4149031459"},"type":"Feature"},
	{"geometry":{"coordinates":[-1.598577,54.700713],"type":"Point"},"properties":{"amenity":"waste_basket","osm_id":"4149031466"},"type":"Feature"},
	{"geometry":{"coordinates":[-1.606877,54.696299],"type":"Point"},"properties":{"amenity":"waste_basket","osm_id":"4149455728"},"type":"Feature"},
	{"geometry":{"coordinates":[-1.605054,54.697266],"type":"Point"},"properties":{"amenity":"waste_basket","osm_id":"4149455773"},"type":"Feature"},
	{"geometry":{"coordinates":[-1.605628,54.696722],"type":"Point"},"properties":{"amenity":"waste_basket","osm_id":"4149464604"},"type":"Feature"},
	{"geometry":{"coordinates":[-1.606027,54.696599],"type":"Point"},"properties":{"amenity":"waste_basket","osm_id":"4149464605"},"type":"Feature"},
	{"geometry":{"coordinates":[-1.61577,54.689332],"type":"Point"},"properties":{"amenity":"waste_basket","osm_id":"4149519058"},"type":"Feature"},
	{"geometry":{"coordinates":[-1.615802,54.689215],"type":"Point"},"properties":{"amenity":"waste_basket","osm_id":"4149519059"},"type":"Feature"},
	{"geometry":{"coordinates":[-1.614777,54.693242],"type":"Point"},"properties":{"amenity":"waste_basket","osm_id":"4149519728"},"type":"Feature"},
	{"geometry":{"coordinates":[-1.610713,54.694711],"type":"Point"},"properties":{"amenity":"waste_basket","osm_id":"4149550204"},"type":"Feature"},
	{"geometry":{"coordinates":[-1.610358,54.694825],"type":"Point"},"properties":{"amenity":"waste_basket","osm_id":"4149550205"},"type":"Feature"},
	{"geometry":{"coordinates":[-1.610896,54.696194],"type":"Point"},"properties":{"amenity":"waste_basket","osm_id":"4149550248"},"type":"Feature"},
	{"geometry":{"coordinates":[-1.602734,54.703857],"type":"Point"},"properties":{"amenity":"waste_basket","osm_id":"4150961411"},"type":"Feature"},
	{"geometry":{"coordinates":[-1.588592,54.713525],"type":"Point"},"properties":{"amenity":"waste_basket","osm_id":"4150995186"},"type":"Feature"},
	{"geometry":{"coordinates":[-1.641301,54.675784],"type":"Point"},"properties":{"amenity":"waste_basket","osm_id":"6432349420"},"type":"Feature"},
	{"geometry":{"coordinates":[-1.588244,54.724377],"type":"Point"},"properties":{"amenity":"waste_basket","osm_id":"6695688577","tag":{"waste":"trash"}},"type":"Feature"}
]
}
