{
"type": "FeatureCollection",
"lastupdate": "2020-07-25T00:42:33Z",
"features": [
	{"geometry":{"coordinates":[-1.624746,53.688164],"type":"Point"},"properties":{"amenity":"recycling","osm_id":"363870410","tag":{"recycling:cans":"yes","recycling:clothes":"yes","recycling:glass":"yes","recycling:paper":"yes","recycling:plastic_bags":"yes","recycling:shoes":"yes"}},"type":"Feature"},
	{"geometry":{"coordinates":[-1.63018,53.687589],"type":"Point"},"properties":{"amenity":"recycling","osm_id":"364808372","tag":{"recycling:clothes":"yes","recycling:glass":"yes","recycling:paper":"yes","recycling:shoes":"yes"}},"type":"Feature"},
	{"geometry":{"coordinates":[-1.620601,53.69032],"type":"Point"},"properties":{"amenity":"waste_basket","highway":"bus_stop","name":"Wakefield Road High Road","osm_id":"496722322","tag":{" Wakefield":null,"kerb":"raised","local_ref":"45015295","naptan:AtcoCode":"450015295","naptan:Bearing":"E","naptan:CommonName":"Wakefield Road High Road","naptan:Crossing":"High Road","naptan:Indicator":"Stop 45015295","naptan:PlusbusZoneRef":"LEEDS","naptan:ShortCommonName":"High Road","naptan:Street":"Wakefield Road","naptan:verified":"no","shelter":"no","timetable":"yes","towards":"Ossett"}},"type":"Feature"},
	{"geometry":{"coordinates":[-1.647785,53.689968],"type":"Point"},"properties":{"amenity":"waste_basket","osm_id":"982564498"},"type":"Feature"},
	{"geometry":{"coordinates":[-1.647183,53.691136],"type":"Point"},"properties":{"amenity":"waste_basket","osm_id":"982564514"},"type":"Feature"},
	{"geometry":{"coordinates":[-1.647143,53.689253],"type":"Point"},"properties":{"amenity":"waste_basket","osm_id":"982564526"},"type":"Feature"},
	{"geometry":{"coordinates":[-1.64888,53.690632],"type":"Point"},"properties":{"amenity":"waste_basket","osm_id":"982564550"},"type":"Feature"},
	{"geometry":{"coordinates":[-1.649941,53.689395],"type":"Point"},"properties":{"amenity":"waste_basket","osm_id":"982564561"},"type":"Feature"},
	{"geometry":{"coordinates":[-1.650308,53.693176],"type":"Point"},"properties":{"amenity":"waste_basket","osm_id":"982634249"},"type":"Feature"},
	{"geometry":{"coordinates":[-1.657511,53.679744],"type":"Point"},"properties":{"amenity":"waste_basket","osm_id":"1363570004"},"type":"Feature"},
	{"geometry":{"coordinates":[-1.659379,53.679764],"type":"Point"},"properties":{"amenity":"waste_basket","osm_id":"1363570005"},"type":"Feature"},
	{"geometry":{"coordinates":[-1.629685,53.690274],"type":"Point"},"properties":{"amenity":"waste_basket","osm_id":"1416446551"},"type":"Feature"},
	{"geometry":{"coordinates":[-1.624437,53.688865],"type":"Point"},"properties":{"amenity":"waste_basket","osm_id":"1613532838"},"type":"Feature"},
	{"geometry":{"coordinates":[-1.655607,53.687216],"type":"Point"},"properties":{"amenity":"recycling","osm_id":"1668534356","tag":{"recycling:clothes":"yes","recycling_type":"container"}},"type":"Feature"},
	{"geometry":{"coordinates":[-1.665829,53.678558],"type":"Point"},"properties":{"amenity":"recycling","osm_id":"1668826260","tag":{"recycling:clothes":"yes","recycling_type":"container"}},"type":"Feature"},
	{"geometry":{"coordinates":[-1.628965,53.672893],"type":"Point"},"properties":{"amenity":"recycling","osm_id":"1843091014","tag":{"recycling:glass":"yes","recycling_type":"container"}},"type":"Feature"},
	{"geometry":{"coordinates":[-1.615323,53.686703],"type":"Point"},"properties":{"amenity":"recycling","osm_id":"1871866990","tag":{"recycling:clothes":"yes","recycling:glass":"yes","recycling:shoes":"yes","recycling_type":"container"}},"type":"Feature"},
	{"geometry":{"coordinates":[-1.620834,53.658579],"type":"Point"},"properties":{"amenity":"recycling","osm_id":"2993005588","tag":{"recycling:clothes":"yes","recycling_type":"container"}},"type":"Feature"},
	{"geometry":{"coordinates":[-1.629776,53.673721],"type":"Point"},"properties":{"amenity":"recycling","osm_id":"3051029378","tag":{"recycling:clothes":"yes","recycling_type":"container"}},"type":"Feature"}
]
}
