{
"type": "FeatureCollection",
"lastupdate": "2020-07-27T00:28:31Z",
"features": [
	{"geometry":{"coordinates":[-5.205754,50.283238],"type":"Point"},"properties":{"amenity":"recycling","osm_id":"1326358705"},"type":"Feature"},
	{"geometry":{"coordinates":[-5.187987,50.240513],"type":"Point"},"properties":{"amenity":"waste_basket","osm_id":"3738308044","tag":{"waste":"dog_excrement"}},"type":"Feature"},
	{"geometry":{"coordinates":[-5.187708,50.240253],"type":"Point"},"properties":{"amenity":"waste_basket","osm_id":"3738314549"},"type":"Feature"},
	{"geometry":{"coordinates":[-5.187708,50.239198],"type":"Point"},"properties":{"amenity":"waste_basket","osm_id":"3738323192"},"type":"Feature"},
	{"geometry":{"coordinates":[-5.186074,50.237416],"type":"Point"},"properties":{"amenity":"waste_basket","osm_id":"3739657488","tag":{"waste":"dog_excrement"}},"type":"Feature"},
	{"geometry":{"coordinates":[-5.24015,50.286708],"type":"Point"},"properties":{"amenity":"recycling","osm_id":"3740743592","tag":{"recycling:cans":"yes","recycling:cardboard":"yes","recycling:glass_bottles":"yes","recycling:magazines":"yes","recycling:newspaper":"yes","recycling:paper":"yes","recycling:plastic_bottles":"yes"}},"type":"Feature"},
	{"geometry":{"coordinates":[-5.240286,50.286753],"type":"Point"},"properties":{"amenity":"waste_basket","osm_id":"3740743593"},"type":"Feature"},
	{"geometry":{"coordinates":[-5.240162,50.287082],"type":"Point"},"properties":{"amenity":"waste_basket","osm_id":"3740758349"},"type":"Feature"},
	{"geometry":{"coordinates":[-5.240391,50.287401],"type":"Point"},"properties":{"amenity":"waste_basket","osm_id":"3740758351","tag":{"waste":"dog_excrement"}},"type":"Feature"},
	{"geometry":{"coordinates":[-5.191104,50.24141],"type":"Point"},"properties":{"amenity":"waste_basket","osm_id":"3745927519"},"type":"Feature"},
	{"geometry":{"coordinates":[-5.192343,50.240177],"type":"Point"},"properties":{"amenity":"waste_basket","osm_id":"3745929584"},"type":"Feature"},
	{"geometry":{"coordinates":[-5.189522,50.237807],"type":"Point"},"properties":{"amenity":"waste_basket","osm_id":"3745960562"},"type":"Feature"},
	{"geometry":{"coordinates":[-5.188163,50.238681],"type":"Point"},"properties":{"amenity":"waste_basket","osm_id":"3746053610"},"type":"Feature"},
	{"geometry":{"coordinates":[-5.240575,50.286005],"type":"Point"},"properties":{"amenity":"waste_basket","osm_id":"3748574818"},"type":"Feature"},
	{"geometry":{"coordinates":[-5.240979,50.286128],"type":"Point"},"properties":{"amenity":"waste_basket","osm_id":"3748574823"},"type":"Feature"},
	{"geometry":{"coordinates":[-5.218441,50.242942],"type":"Point"},"properties":{"amenity":"waste_basket","osm_id":"6802693425"},"type":"Feature"},
	{"geometry":{"coordinates":[-5.217997,50.244056],"type":"Point"},"properties":{"amenity":"waste_basket","osm_id":"6802693426"},"type":"Feature"},
	{"geometry":{"coordinates":[-5.2269,50.241276],"type":"Point"},"properties":{"amenity":"waste_basket","osm_id":"7044814809"},"type":"Feature"},
	{"geometry":{"coordinates":[-5.226944,50.238866],"type":"Point"},"properties":{"amenity":"waste_basket","osm_id":"7044814855"},"type":"Feature"},
	{"geometry":{"coordinates":[-5.223756,50.239856],"type":"Point"},"properties":{"amenity":"waste_basket","osm_id":"7044814860"},"type":"Feature"},
	{"geometry":{"coordinates":[-5.204409,50.246518],"type":"Point"},"properties":{"amenity":"waste_basket","osm_id":"7235130244"},"type":"Feature"}
]
}
