{
"type": "FeatureCollection",
"lastupdate": "2020-07-31T01:06:47Z",
"features": [
	{"geometry":{"coordinates":[0.145341,52.211408],"type":"Point"},"properties":{"amenity":"recycling","osm_id":"19851711","tag":{"recycling:batteries":"no","recycling:books":"yes","recycling:cans":"no","recycling:cardboard":"yes","recycling:cartons":"no","recycling:clothes":"yes","recycling:electrical_appliances":"no","recycling:glass":"yes","recycling:glass_bottles":"yes","recycling:green_waste":"no","recycling:magazines":"yes","recycling:newspaper":"yes","recycling:paper":"yes","recycling:paper_packaging":"no","recycling:plastic":"no","recycling:plastic_bottles":"yes","recycling:plastic_packaging":"no","recycling:scrap_metal":"no","recycling:small_appliances":"no","recycling:waste":"yes","recycling:wood":"no","recycling_type":"centre"}},"type":"Feature"},
	{"geometry":{"coordinates":[0.145872,52.207333],"type":"Point"},"properties":{"amenity":"recycling","osm_id":"19851912","tag":{"location":"overground","recycling_type":"container"}},"type":"Feature"},
	{"geometry":{"coordinates":[0.140962,52.206368],"type":"Point"},"properties":{"amenity":"waste_basket","osm_id":"20826629","tag":{"description":"small mixed dry recycling and general waste bins"}},"type":"Feature"},
	{"geometry":{"coordinates":[0.138622,52.199636],"type":"Point"},"properties":{"amenity":"recycling","osm_id":"20826702","tag":{"location":"underground","recycling_type":"container"}},"type":"Feature"},
	{"geometry":{"coordinates":[0.114733,52.195462],"type":"Point"},"properties":{"amenity":"recycling","osm_id":"20963319","tag":{"operator":"Cambridge City Council","recycling:batteries":"yes","recycling:books":"yes","recycling:cans":"yes","recycling:cardboard":"yes","recycling:cartons":"yes","recycling:cds":"yes","recycling:clothes":"yes","recycling:foil":"yes","recycling:glass_bottles":"yes","recycling:low_energy_bulbs":"yes","recycling:paper":"yes","recycling:plastic_bags":"yes","recycling:plastic_bottles":"yes","recycling:plastic_packaging":"yes","recycling:shoes":"yes","recycling_type":"container"}},"type":"Feature"},
	{"geometry":{"coordinates":[0.11154,52.171158],"type":"Point"},"properties":{"amenity":"recycling","osm_id":"21642198"},"type":"Feature"},
	{"geometry":{"coordinates":[0.088587,52.209295],"type":"Point"},"properties":{"amenity":"recycling","osm_id":"24655613","tag":{"location":"overground","recycling_type":"container"}},"type":"Feature"},
	{"geometry":{"coordinates":[0.11561,52.172623],"type":"Point"},"properties":{"amenity":"recycling","osm_id":"292298246"},"type":"Feature"},
	{"geometry":{"coordinates":[0.161875,52.185673],"type":"Point"},"properties":{"amenity":"recycling","osm_id":"970559894"},"type":"Feature"},
	{"geometry":{"coordinates":[0.119601,52.201691],"type":"Point"},"properties":{"amenity":"waste_basket","osm_id":"1498638986"},"type":"Feature"},
	{"geometry":{"coordinates":[0.128437,52.193984],"type":"Point"},"properties":{"amenity":"recycling","osm_id":"1547135124"},"type":"Feature"},
	{"geometry":{"coordinates":[0.159188,52.200169],"type":"Point"},"properties":{"amenity":"recycling","osm_id":"1573017524"},"type":"Feature"},
	{"geometry":{"coordinates":[0.132837,52.204874],"type":"Point"},"properties":{"amenity":"recycling","name":"Recycling bins","osm_id":"1594798947","tag":{"recycling_type":"container"}},"type":"Feature"},
	{"geometry":{"coordinates":[0.137141,52.210801],"type":"Point"},"properties":{"amenity":"recycling","osm_id":"2141553969","tag":{"location":"overground","recycling_type":"container"}},"type":"Feature"},
	{"geometry":{"coordinates":[0.112055,52.165732],"type":"Point"},"properties":{"amenity":"recycling","osm_id":"3199245278","tag":{"location":"overground","recycling:books":"yes","recycling:clothes":"yes","recycling:small_appliances":"yes","recycling_type":"container"}},"type":"Feature"},
	{"geometry":{"coordinates":[0.122849,52.204281],"type":"Point"},"properties":{"amenity":"waste_basket","osm_id":"3242570482"},"type":"Feature"},
	{"geometry":{"coordinates":[0.108833,52.170767],"type":"Point"},"properties":{"amenity":"recycling","osm_id":"3574846363"},"type":"Feature"},
	{"geometry":{"coordinates":[0.108461,52.170841],"type":"Point"},"properties":{"amenity":"recycling","osm_id":"3574846366"},"type":"Feature"},
	{"geometry":{"coordinates":[0.137739,52.196247],"type":"Point"},"properties":{"amenity":"waste_basket","osm_id":"3698818605"},"type":"Feature"},
	{"geometry":{"coordinates":[0.118874,52.21403],"type":"Point"},"properties":{"amenity":"waste_basket","osm_id":"3712403176"},"type":"Feature"},
	{"geometry":{"coordinates":[0.125203,52.214336],"type":"Point"},"properties":{"amenity":"waste_basket","osm_id":"3712473580"},"type":"Feature"},
	{"geometry":{"coordinates":[0.115371,52.201824],"type":"Point"},"properties":{"amenity":"waste_basket","osm_id":"3715910101"},"type":"Feature"},
	{"geometry":{"coordinates":[0.123088,52.169017],"type":"Point"},"properties":{"amenity":"recycling","osm_id":"4509098516","tag":{"recycling:books":"yes","recycling:small_appliances":"yes","recycling:textiles":"yes","recycling_type":"container"}},"type":"Feature"},
	{"geometry":{"coordinates":[0.108237,52.200731],"type":"Point"},"properties":{"amenity":"recycling","name":"Sidgwick Site","osm_id":"4891724060","tag":{"access":"private","operator":"University of Cambridge","recycling:books":"yes","recycling:fluorescent_tubes":"yes","recycling:pallets":"yes","recycling:printer_ink_cartridges":"yes","recycling_type":"container"}},"type":"Feature"},
	{"geometry":{"coordinates":[0.142136,52.176964],"type":"Point"},"properties":{"amenity":"recycling","name":"Hutchison Cancer Cell Unit","osm_id":"4891731501","tag":{"access":"private","collection_times":"weekly","operator":"University of Cambridge","recycling:fluorescent_tubes":"yes","recycling_type":"container"}},"type":"Feature"},
	{"geometry":{"coordinates":[0.149989,52.173705],"type":"Point"},"properties":{"amenity":"recycling","name":"Strangeways Research Lab","osm_id":"4891734658","tag":{"access":"private","collection_times":"Weekly","operator":"University of Cambridge","recycling:fluorescent_tubes":"yes","recycling_type":"container"}},"type":"Feature"},
	{"geometry":{"coordinates":[0.120776,52.198251],"type":"Point"},"properties":{"amenity":"recycling","name":"Department of Engineering","osm_id":"4891788906","tag":{"access":"private","collection_times":"Weekly","operator":"University of Cambridge","recycling:fluorescent_tubes":"yes","recycling_type":"container"}},"type":"Feature"},
	{"geometry":{"coordinates":[0.102154,52.210117],"type":"Point"},"properties":{"amenity":"recycling","name":"Centre for Mathematical Sciences","osm_id":"4891806092","tag":{"access":"private","collection_times":"Weekly","operator":"University of Cambridge","recycling:batteries":"yes","recycling:books":"yes","recycling:electrical_items":"yes","recycling:fluorescent_tubes":"yes","recycling:printer_cartridges":"yes","recycling_type":"container"}},"type":"Feature"},
	{"geometry":{"coordinates":[0.128106,52.194571],"type":"Point"},"properties":{"amenity":"recycling","name":"Sainsbury Laboratory","osm_id":"4892206206","tag":{"access":"private","operator":"University of Cambridge","recycling:fluorescent_tubes":"yes","recycling_type":"container"}},"type":"Feature"},
	{"geometry":{"coordinates":[0.121707,52.202493],"type":"Point"},"properties":{"amenity":"recycling","name":"Botany Building","osm_id":"4892213153","tag":{" Ice Packs":null," Printer Cartridges":null," Wooden Pallets":null,"access":"private","collection_times":"Weekly","description":"By Botany Gate \u00e2\u0080\u0093 Fluorescent Tubes Workshop \u00e2\u0080\u0093 WEEE Stores \u00e2\u0080\u0093 Batteries","operator":"University of Cambridge","recycling:fluorescent_tubes":"yes","recycling_type":"container"}},"type":"Feature"},
	{"geometry":{"coordinates":[0.123754,52.201853],"type":"Point"},"properties":{"amenity":"recycling","name":"GeographyDepartment","osm_id":"4892221593","tag":{"access":"private","collection_times":"Weekly","operator":"University of Cambridge","recycling:fluorescent_tubes":"yes","recycling_type":"container"}},"type":"Feature"},
	{"geometry":{"coordinates":[0.122805,52.201344],"type":"Point"},"properties":{"amenity":"recycling","name":"Molteno Building","osm_id":"4892222807","tag":{"access":"private","collection_times":"Weekly","operator":"University of Cambridge","recycling:fluorescent_tubes":"yes","recycling_type":"container"}},"type":"Feature"},
	{"geometry":{"coordinates":[0.122096,52.203089],"type":"Point"},"properties":{"amenity":"recycling","name":"Sedgwick Building","osm_id":"4892232566","tag":{"access":"private","collection_times":"Weekly","operator":"University of Cambridge","recycling:fluorescent_tubes":"yes","recycling_type":"container"}},"type":"Feature"},
	{"geometry":{"coordinates":[0.119772,52.199285],"type":"Point"},"properties":{"amenity":"recycling","name":"Fitzwilliam Museum","osm_id":"4892289380","tag":{"access":"private","collection_times":"Weekly","operator":"University of Cambridge","recycling:fluorescent_tubes":"yes","recycling_type":"container"}},"type":"Feature"},
	{"geometry":{"coordinates":[0.142233,52.172897],"type":"Point"},"properties":{"amenity":"recycling","name":"West Forvie Building","osm_id":"4892293915","tag":{"access":"private","collection_times":"Weekly","operator":"University of Cambridge","recycling:fluorescent_tubes":"yes","recycling_type":"container"}},"type":"Feature"},
	{"geometry":{"coordinates":[0.093348,52.210345],"type":"Point"},"properties":{"amenity":"recycling","name":"CAPE","osm_id":"4892304971","tag":{"access":"private","collection_times":"Weekly","operator":"University of Cambridge","recycling:fluorescent_tubes":"yes","recycling_type":"container"}},"type":"Feature"},
	{"geometry":{"coordinates":[0.091605,52.209174],"type":"Point"},"properties":{"amenity":"recycling","name":"Cavendish Labs","osm_id":"4892307081","tag":{"access":"private","collection_times":"Weekly","operator":"University of Cambridge","recycling:fluorescent_tubes":"yes","recycling_type":"container"}},"type":"Feature"},
	{"geometry":{"coordinates":[0.093434,52.211181],"type":"Point"},"properties":{"amenity":"recycling","name":"Roger Needham Building","osm_id":"4892315914","tag":{"access":"private","collection_times":"Weekly","operator":"University of Cambridge","recycling:batteries":"yes","recycling:fluorescent_tubes":"yes","recycling:pens":"yes","recycling_type":"container"}},"type":"Feature"},
	{"geometry":{"coordinates":[0.088262,52.211029],"type":"Point"},"properties":{"amenity":"recycling","name":"Veterinary Hospital","osm_id":"4892318513","tag":{"access":"private","operator":"University of Cambridge","recycling:fluorescent_tubes":"yes","recycling_type":"container"}},"type":"Feature"},
	{"geometry":{"coordinates":[0.107989,52.205063],"type":"Point"},"properties":{"amenity":"recycling","name":"University Library","osm_id":"4892324079","tag":{"access":"private","collection_times":"Weekly","operator":"University of Cambridge","recycling:fluorescent_tubes":"yes","recycling_type":"container"}},"type":"Feature"},
	{"geometry":{"coordinates":[0.120782,52.203029],"type":"Point"},"properties":{"amenity":"recycling","name":"Zoology Building","osm_id":"4892327209","tag":{"access":"private","collection_times":"Weekly","operator":"University of Cambridge","recycling:fluorescent_tubes":"yes","recycling_type":"container"}},"type":"Feature"},
	{"geometry":{"coordinates":[0.12255,52.199264],"type":"Point"},"properties":{"amenity":"recycling","name":"Gurdon Institute","osm_id":"4892334874","tag":{"access":"private","collection_times":"Weekly","operator":"University of Cambridge","recycling:fluorescent_tubes":"yes","recycling:pallets":"yes","recycling_type":"container"}},"type":"Feature"},
	{"geometry":{"coordinates":[0.121783,52.199966],"type":"Point"},"properties":{"amenity":"recycling","name":"Judge Business School","osm_id":"4892334880","tag":{"access":"private","collection_times":"Weekly","operator":"University of Cambridge","recycling:fluorescent_tubes":"yes","recycling_type":"container"}},"type":"Feature"},
	{"geometry":{"coordinates":[0.116353,52.205184],"type":"Point"},"properties":{"amenity":"recycling","name":"The Old Schools","osm_id":"4892337255","tag":{"access":"private","collection_times":"Weekly","operator":"University of Cambridge","recycling:fluorescent_tubes":"yes","recycling_type":"container"}},"type":"Feature"},
	{"geometry":{"coordinates":[0.11887,52.20345],"type":"Point"},"properties":{"amenity":"recycling","name":"Sociology Department","osm_id":"4892338958","tag":{" turn left through door. 'Terracycle' collection bin is clearly marked.":null,"description":"Inside archway from Free School Lane","operator":"University of Cambridge","recycling:pens":"yes","recycling_type":"container"}},"type":"Feature"},
	{"geometry":{"coordinates":[0.125657,52.197682],"type":"Point"},"properties":{"amenity":"recycling","name":"Department of Chemistry","osm_id":"4892339334","tag":{"access":"private","collection_times":"Mo","operator":"University of Cambridge","recycling:fluorescent_tubes":"yes","recycling_type":"container"}},"type":"Feature"},
	{"geometry":{"coordinates":[0.109104,52.202476],"type":"Point"},"properties":{"amenity":"recycling","name":"Alison Richard Building","osm_id":"4892341086","tag":{"access":"private","collection_times":"Weekly","operator":"University of Cambridge","recycling:pens":"yes","recycling_type":"container"}},"type":"Feature"},
	{"geometry":{"coordinates":[0.122727,52.198169],"type":"Point"},"properties":{"amenity":"recycling","name":"Counselling Service","osm_id":"4892346221","tag":{"access":"private","operator":"Univesity of Cambridge","recycling:pens":"yes","recycling_type":"container"}},"type":"Feature"},
	{"geometry":{"coordinates":[0.121941,52.200871],"type":"Point"},"properties":{"amenity":"recycling","name":"Downing Site","osm_id":"4892381178","tag":{"access":"private","operator":"University of Cambridge","recycling:pallets":"yes","recycling_type":"container"}},"type":"Feature"},
	{"geometry":{"coordinates":[0.122649,52.202384],"type":"Point"},"properties":{"amenity":"recycling","name":"Department of Psychology","osm_id":"4892399902","tag":{" printer cartridges and pens Technicians\u00e2\u0080\u0099 Office:  WEEE collection point First Floor Common Room: Take & replace book library":null,"access":"private","description":"Reception: Recycle batteries","operator":"University of Cambridge","recycling:batteries":"yes","recycling:books":"yes","recycling:electrical_items":"yes","recycling:pens":"yes","recycling:printer_cartridges":"yes","recycling_type":"container"}},"type":"Feature"},
	{"geometry":{"coordinates":[0.150071,52.20723],"type":"Point"},"properties":{"amenity":"waste_basket","osm_id":"5018542471"},"type":"Feature"},
	{"geometry":{"coordinates":[0.10196,52.210631],"type":"Point"},"properties":{"amenity":"recycling","name":"Centre for Mathematical Sciences","osm_id":"5235012810","tag":{"access":"private","collection_times":"Monthly","operator":"University of Cambridge","recycling:pallets":"yes","recycling_type":"container"}},"type":"Feature"},
	{"geometry":{"coordinates":[0.117282,52.202893],"type":"Point"},"properties":{"amenity":"waste_basket","osm_id":"5557748862","tag":{"access":"private","wheelchair":"yes"}},"type":"Feature"},
	{"geometry":{"coordinates":[0.100977,52.198727],"type":"Point"},"properties":{"amenity":"recycling","osm_id":"5604765632","tag":{" next to the bar":null,"access":"private","description":"In the Club room","owner":"University of Cambridge","owner_1":"Wolfson College","recycling:batteries":"yes","recycling_type":"container"}},"type":"Feature"},
	{"geometry":{"coordinates":[0.101697,52.198737],"type":"Point"},"properties":{"amenity":"recycling","osm_id":"5604765633","tag":{"access":"private","owner":"University of Cambridge","owner_1":"Wolfson College","recycling:mobile_phones":"yes","recycling:pens":"yes","recycling:toner":"yes","recycling_type":"container"}},"type":"Feature"},
	{"geometry":{"coordinates":[0.101417,52.197517],"type":"Point"},"properties":{"amenity":"recycling","osm_id":"5604765634","tag":{"access":"private","owner":"University of Cambridge","owner_1":"Wolfson College","recycling:bags":"yes","recycling:books":"yes","recycling:cds":"yes","recycling:clothes":"yes","recycling:dvds":"yes","recycling:shoes":"yes","recycling_type":"container"}},"type":"Feature"},
	{"geometry":{"coordinates":[0.133156,52.201609],"type":"Point"},"properties":{"amenity":"waste_basket","osm_id":"6330816850"},"type":"Feature"},
	{"geometry":{"coordinates":[0.142398,52.203718],"type":"Point"},"properties":{"amenity":"waste_basket","osm_id":"7359082438"},"type":"Feature"},
	{"geometry":{"coordinates":[0.152881,52.180447],"type":"Point"},"properties":{"amenity":"recycling","osm_id":"7446814138","tag":{"recycling:cans":"yes","recycling:cardboard":"yes","recycling:glass":"yes","recycling:glass_bottles":"yes","recycling:paper":"yes","recycling:plastic_bottles":"yes","recycling_type":"container"}},"type":"Feature"},
	{"geometry":{"coordinates":[0.152802,52.180439],"type":"Point"},"properties":{"amenity":"recycling","osm_id":"7446814139","tag":{"recycling:clothes":"yes","recycling:shoes":"yes","recycling_type":"container"}},"type":"Feature"},
	{"geometry":{"coordinates":[0.15557,52.209135],"type":"Point"},"properties":{"amenity":"recycling","osm_id":"7476248616","tag":{"recycling:shoes":"yes","recycling_type":"container"}},"type":"Feature"},
	{"geometry":{"coordinates":[0.155586,52.209122],"type":"Point"},"properties":{"amenity":"recycling","osm_id":"7476248617","tag":{"recycling:batteries":"yes","recycling_type":"container"}},"type":"Feature"},
	{"geometry":{"coordinates":[0.126214,52.168972],"type":"Point"},"properties":{"amenity":"waste_basket","osm_id":"7570186508","tag":{"waste":"dog_excrement"}},"type":"Feature"},
	{"geometry":{"coordinates":[0.118917,52.201752],"type":"Point"},"properties":{"amenity":"waste_basket","osm_id":"7575228658"},"type":"Feature"},
	{"geometry":{"coordinates":[0.120353,52.202366],"type":"Point"},"properties":{"amenity":"waste_basket","osm_id":"7575228667"},"type":"Feature"},
	{"geometry":{"coordinates":[0.12024,52.202333],"type":"Point"},"properties":{"amenity":"waste_basket","osm_id":"7575228669"},"type":"Feature"},
	{"geometry":{"coordinates":[0.119934,52.202144],"type":"Point"},"properties":{"amenity":"waste_basket","osm_id":"7575228672"},"type":"Feature"},
	{"geometry":{"coordinates":[0.119986,52.202059],"type":"Point"},"properties":{"amenity":"waste_basket","osm_id":"7575228684"},"type":"Feature"},
	{"geometry":{"coordinates":[0.119789,52.202221],"type":"Point"},"properties":{"amenity":"waste_basket","osm_id":"7575244386"},"type":"Feature"},
	{"geometry":{"coordinates":[0.119792,52.202163],"type":"Point"},"properties":{"amenity":"waste_basket","osm_id":"7575244390"},"type":"Feature"},
	{"geometry":{"coordinates":[0.124585,52.211517],"type":"Point"},"properties":{"amenity":"waste_basket","osm_id":"7703635101"},"type":"Feature"},
	{"geometry":{"coordinates":[0.127033,52.210758],"type":"Point"},"properties":{"amenity":"waste_basket","osm_id":"7703635102"},"type":"Feature"}
]
}
