{
"type": "FeatureCollection",
"lastupdate": "2020-07-29T00:24:51Z",
"features": [
	{"geometry":{"coordinates":[0.148005,51.766301],"type":"Point"},"properties":{"amenity":"waste_basket","osm_id":"320752994","tag":{"waste":"dog_excrement"}},"type":"Feature"},
	{"geometry":{"coordinates":[0.114258,51.776497],"type":"Point"},"properties":{"amenity":"recycling","name":"The Stow Recycling Centre","osm_id":"1298325523","tag":{"opening_hours":"24/7","recycling:cans":"yes","recycling:cardboard":"no","recycling:glass_bottles":"yes","recycling:magazines":"yes","recycling:newspaper":"yes"}},"type":"Feature"},
	{"geometry":{"coordinates":[0.132427,51.758285],"type":"Point"},"properties":{"amenity":"waste_basket","osm_id":"4975386625"},"type":"Feature"},
	{"geometry":{"coordinates":[0.13225,51.758605],"type":"Point"},"properties":{"amenity":"waste_basket","osm_id":"4975386627"},"type":"Feature"},
	{"geometry":{"coordinates":[0.130639,51.758045],"type":"Point"},"properties":{"amenity":"waste_basket","osm_id":"4977402664"},"type":"Feature"},
	{"geometry":{"coordinates":[0.132321,51.758301],"type":"Point"},"properties":{"amenity":"waste_basket","osm_id":"4977402666"},"type":"Feature"}
]
}
