{
"type": "FeatureCollection",
"lastupdate": "2020-07-29T00:24:51Z",
"features": [
	{"geometry":{"coordinates":[-2.384062,53.580506],"type":"Point"},"properties":{"amenity":"waste_basket","osm_id":"4962378808"},"type":"Feature"},
	{"geometry":{"coordinates":[-2.426516,53.579677],"type":"Point"},"properties":{"amenity":"waste_basket","osm_id":"4962630833"},"type":"Feature"},
	{"geometry":{"coordinates":[-2.428715,53.580588],"type":"Point"},"properties":{"amenity":"waste_basket","osm_id":"4962807036"},"type":"Feature"},
	{"geometry":{"coordinates":[-2.428719,53.580626],"type":"Point"},"properties":{"amenity":"waste_basket","osm_id":"4962807037"},"type":"Feature"},
	{"geometry":{"coordinates":[-2.426744,53.579142],"type":"Point"},"properties":{"amenity":"waste_basket","osm_id":"4962852358"},"type":"Feature"},
	{"geometry":{"coordinates":[-2.42689,53.578886],"type":"Point"},"properties":{"amenity":"waste_basket","osm_id":"4962852359"},"type":"Feature"},
	{"geometry":{"coordinates":[-2.426555,53.578369],"type":"Point"},"properties":{"amenity":"waste_basket","osm_id":"4962852360"},"type":"Feature"},
	{"geometry":{"coordinates":[-2.426623,53.577826],"type":"Point"},"properties":{"amenity":"waste_basket","osm_id":"4962852366"},"type":"Feature"},
	{"geometry":{"coordinates":[-2.426575,53.577729],"type":"Point"},"properties":{"amenity":"waste_basket","osm_id":"4962852367"},"type":"Feature"},
	{"geometry":{"coordinates":[-2.413626,53.587569],"type":"Point"},"properties":{"amenity":"waste_basket","osm_id":"4963318191"},"type":"Feature"},
	{"geometry":{"coordinates":[-2.411354,53.588681],"type":"Point"},"properties":{"amenity":"waste_basket","osm_id":"4963320922"},"type":"Feature"},
	{"geometry":{"coordinates":[-2.412467,53.592497],"type":"Point"},"properties":{"amenity":"waste_basket","osm_id":"4963320968"},"type":"Feature"},
	{"geometry":{"coordinates":[-2.430195,53.579614],"type":"Point"},"properties":{"amenity":"waste_basket","osm_id":"4963761247"},"type":"Feature"},
	{"geometry":{"coordinates":[-2.42954,53.579904],"type":"Point"},"properties":{"amenity":"waste_basket","osm_id":"4963761249"},"type":"Feature"},
	{"geometry":{"coordinates":[-2.428506,53.579734],"type":"Point"},"properties":{"amenity":"waste_basket","osm_id":"4963761271"},"type":"Feature"},
	{"geometry":{"coordinates":[-2.428303,53.579594],"type":"Point"},"properties":{"amenity":"waste_basket","osm_id":"4963761272"},"type":"Feature"},
	{"geometry":{"coordinates":[-2.430523,53.580664],"type":"Point"},"properties":{"amenity":"waste_basket","osm_id":"4963761279"},"type":"Feature"},
	{"geometry":{"coordinates":[-2.430509,53.580585],"type":"Point"},"properties":{"amenity":"waste_basket","osm_id":"4963761280"},"type":"Feature"},
	{"geometry":{"coordinates":[-2.430487,53.580464],"type":"Point"},"properties":{"amenity":"waste_basket","osm_id":"4963761281"},"type":"Feature"},
	{"geometry":{"coordinates":[-2.430355,53.580097],"type":"Point"},"properties":{"amenity":"waste_basket","osm_id":"4963761283"},"type":"Feature"},
	{"geometry":{"coordinates":[-2.427781,53.579743],"type":"Point"},"properties":{"amenity":"waste_basket","osm_id":"4963878491"},"type":"Feature"},
	{"geometry":{"coordinates":[-2.427732,53.579638],"type":"Point"},"properties":{"amenity":"waste_basket","osm_id":"4963878492"},"type":"Feature"},
	{"geometry":{"coordinates":[-2.426419,53.580906],"type":"Point"},"properties":{"amenity":"waste_basket","osm_id":"4963948279"},"type":"Feature"},
	{"geometry":{"coordinates":[-2.428437,53.578112],"type":"Point"},"properties":{"amenity":"waste_basket","osm_id":"4964026152"},"type":"Feature"},
	{"geometry":{"coordinates":[-2.428212,53.579038],"type":"Point"},"properties":{"amenity":"waste_basket","osm_id":"4964083311"},"type":"Feature"},
	{"geometry":{"coordinates":[-2.432913,53.578923],"type":"Point"},"properties":{"amenity":"waste_basket","osm_id":"4964256763"},"type":"Feature"},
	{"geometry":{"coordinates":[-2.425591,53.576479],"type":"Point"},"properties":{"amenity":"waste_basket","osm_id":"4965323889"},"type":"Feature"},
	{"geometry":{"coordinates":[-2.42544,53.576205],"type":"Point"},"properties":{"amenity":"waste_basket","osm_id":"4965323890"},"type":"Feature"},
	{"geometry":{"coordinates":[-2.425308,53.576038],"type":"Point"},"properties":{"amenity":"waste_basket","osm_id":"4965324122"},"type":"Feature"},
	{"geometry":{"coordinates":[-2.459782,53.561232],"type":"Point"},"properties":{"amenity":"waste_basket","osm_id":"4966092940"},"type":"Feature"},
	{"geometry":{"coordinates":[-2.384866,53.590082],"type":"Point"},"properties":{"amenity":"waste_basket","osm_id":"4970343090"},"type":"Feature"},
	{"geometry":{"coordinates":[-2.425076,53.575707],"type":"Point"},"properties":{"amenity":"waste_basket","osm_id":"4983300943"},"type":"Feature"},
	{"geometry":{"coordinates":[-2.425096,53.576087],"type":"Point"},"properties":{"amenity":"waste_basket","osm_id":"4983300944"},"type":"Feature"},
	{"geometry":{"coordinates":[-2.441553,53.557992],"type":"Point"},"properties":{"amenity":"waste_basket","osm_id":"5006966029"},"type":"Feature"},
	{"geometry":{"coordinates":[-2.408067,53.586419],"type":"Point"},"properties":{"amenity":"waste_basket","osm_id":"5234611374"},"type":"Feature"},
	{"geometry":{"coordinates":[-2.412601,53.59097],"type":"Point"},"properties":{"amenity":"waste_basket","osm_id":"5234710751"},"type":"Feature"},
	{"geometry":{"coordinates":[-2.412547,53.591276],"type":"Point"},"properties":{"amenity":"waste_basket","osm_id":"5234710767"},"type":"Feature"},
	{"geometry":{"coordinates":[-2.429549,53.580267],"type":"Point"},"properties":{"amenity":"waste_basket","osm_id":"5234865457"},"type":"Feature"},
	{"geometry":{"coordinates":[-2.428739,53.580707],"type":"Point"},"properties":{"amenity":"waste_basket","osm_id":"5234865460"},"type":"Feature"},
	{"geometry":{"coordinates":[-2.430061,53.577781],"type":"Point"},"properties":{"amenity":"waste_basket","osm_id":"5234934799"},"type":"Feature"},
	{"geometry":{"coordinates":[-2.430471,53.578562],"type":"Point"},"properties":{"amenity":"waste_basket","osm_id":"5234934801"},"type":"Feature"},
	{"geometry":{"coordinates":[-2.427958,53.579641],"type":"Point"},"properties":{"amenity":"waste_basket","osm_id":"5234934818"},"type":"Feature"},
	{"geometry":{"coordinates":[-2.428528,53.580247],"type":"Point"},"properties":{"amenity":"waste_basket","osm_id":"5234935033"},"type":"Feature"},
	{"geometry":{"coordinates":[-2.431644,53.579409],"type":"Point"},"properties":{"amenity":"waste_basket","osm_id":"5235026830"},"type":"Feature"},
	{"geometry":{"coordinates":[-2.428525,53.574401],"type":"Point"},"properties":{"amenity":"recycling","osm_id":"5235026870","tag":{"recycling_type":"container"}},"type":"Feature"},
	{"geometry":{"coordinates":[-2.385937,53.58106],"type":"Point"},"properties":{"amenity":"waste_basket","osm_id":"5235519310"},"type":"Feature"},
	{"geometry":{"coordinates":[-2.398713,53.543548],"type":"Point"},"properties":{"amenity":"recycling","osm_id":"5241107075","tag":{"recycling_type":"container"}},"type":"Feature"},
	{"geometry":{"coordinates":[-2.395649,53.570451],"type":"Point"},"properties":{"amenity":"waste_basket","osm_id":"5242358574"},"type":"Feature"},
	{"geometry":{"coordinates":[-2.395554,53.570551],"type":"Point"},"properties":{"amenity":"waste_basket","osm_id":"5242358575"},"type":"Feature"},
	{"geometry":{"coordinates":[-2.429355,53.547059],"type":"Point"},"properties":{"amenity":"waste_basket","osm_id":"5243424418"},"type":"Feature"},
	{"geometry":{"coordinates":[-2.427575,53.546747],"type":"Point"},"properties":{"amenity":"waste_basket","osm_id":"5243424642"},"type":"Feature"},
	{"geometry":{"coordinates":[-2.408585,53.547875],"type":"Point"},"properties":{"amenity":"waste_basket","osm_id":"5243424655"},"type":"Feature"},
	{"geometry":{"coordinates":[-2.400176,53.555043],"type":"Point"},"properties":{"amenity":"waste_basket","osm_id":"5243424696"},"type":"Feature"},
	{"geometry":{"coordinates":[-2.4018,53.557507],"type":"Point"},"properties":{"amenity":"waste_basket","osm_id":"5243424700"},"type":"Feature"},
	{"geometry":{"coordinates":[-2.425277,53.574428],"type":"Point"},"properties":{"amenity":"waste_basket","osm_id":"5245476987"},"type":"Feature"},
	{"geometry":{"coordinates":[-2.424759,53.574597],"type":"Point"},"properties":{"amenity":"waste_basket","osm_id":"5245476988"},"type":"Feature"},
	{"geometry":{"coordinates":[-2.453333,53.562153],"type":"Point"},"properties":{"amenity":"waste_basket","osm_id":"5248582986"},"type":"Feature"},
	{"geometry":{"coordinates":[-2.443816,53.566927],"type":"Point"},"properties":{"amenity":"waste_basket","osm_id":"5248583040"},"type":"Feature"},
	{"geometry":{"coordinates":[-2.443386,53.566995],"type":"Point"},"properties":{"amenity":"waste_basket","osm_id":"5248583041"},"type":"Feature"},
	{"geometry":{"coordinates":[-2.405211,53.580477],"type":"Point"},"properties":{"amenity":"waste_basket","osm_id":"5343007276"},"type":"Feature"},
	{"geometry":{"coordinates":[-2.405641,53.580482],"type":"Point"},"properties":{"amenity":"waste_basket","osm_id":"5343007277"},"type":"Feature"},
	{"geometry":{"coordinates":[-2.388144,53.581849],"type":"Point"},"properties":{"amenity":"waste_basket","osm_id":"5367887422"},"type":"Feature"},
	{"geometry":{"coordinates":[-2.422409,53.554797],"type":"Point"},"properties":{"amenity":"waste_basket","osm_id":"5424074848"},"type":"Feature"},
	{"geometry":{"coordinates":[-2.428626,53.546874],"type":"Point"},"properties":{"amenity":"waste_basket","osm_id":"5425012171"},"type":"Feature"},
	{"geometry":{"coordinates":[-2.428934,53.546417],"type":"Point"},"properties":{"amenity":"waste_basket","osm_id":"5425012190"},"type":"Feature"},
	{"geometry":{"coordinates":[-2.418761,53.57591],"type":"Point"},"properties":{"amenity":"waste_basket","osm_id":"5434910244"},"type":"Feature"},
	{"geometry":{"coordinates":[-2.408584,53.572205],"type":"Point"},"properties":{"amenity":"waste_basket","osm_id":"5436880686"},"type":"Feature"},
	{"geometry":{"coordinates":[-2.438577,53.56721],"type":"Point"},"properties":{"amenity":"waste_basket","osm_id":"5442689476"},"type":"Feature"},
	{"geometry":{"coordinates":[-2.434594,53.573203],"type":"Point"},"properties":{"amenity":"waste_basket","osm_id":"5442689685"},"type":"Feature"},
	{"geometry":{"coordinates":[-2.444657,53.558118],"type":"Point"},"properties":{"amenity":"waste_basket","osm_id":"5443811653"},"type":"Feature"},
	{"geometry":{"coordinates":[-2.405179,53.589145],"type":"Point"},"properties":{"amenity":"waste_basket","osm_id":"5527889437"},"type":"Feature"},
	{"geometry":{"coordinates":[-2.407684,53.588875],"type":"Point"},"properties":{"amenity":"waste_basket","osm_id":"5530014894"},"type":"Feature"},
	{"geometry":{"coordinates":[-2.409363,53.589304],"type":"Point"},"properties":{"amenity":"waste_basket","osm_id":"5532759008"},"type":"Feature"},
	{"geometry":{"coordinates":[-2.383819,53.542467],"type":"Point"},"properties":{"amenity":"waste_basket","osm_id":"5596285959"},"type":"Feature"},
	{"geometry":{"coordinates":[-2.384344,53.542817],"type":"Point"},"properties":{"amenity":"waste_basket","osm_id":"5596285970"},"type":"Feature"},
	{"geometry":{"coordinates":[-2.428361,53.575262],"type":"Point"},"properties":{"amenity":"waste_basket","osm_id":"6126574615"},"type":"Feature"},
	{"geometry":{"coordinates":[-2.450726,53.578997],"type":"Point"},"properties":{"amenity":"waste_basket","osm_id":"6132805382"},"type":"Feature"},
	{"geometry":{"coordinates":[-2.441148,53.582133],"type":"Point"},"properties":{"amenity":"waste_basket","osm_id":"6134879431"},"type":"Feature"},
	{"geometry":{"coordinates":[-2.412017,53.543326],"type":"Point"},"properties":{"amenity":"waste_basket","osm_id":"6297679220"},"type":"Feature"},
	{"geometry":{"coordinates":[-2.397612,53.54746],"type":"Point"},"properties":{"amenity":"waste_basket","osm_id":"6305565897"},"type":"Feature"},
	{"geometry":{"coordinates":[-2.391936,53.546643],"type":"Point"},"properties":{"amenity":"waste_basket","osm_id":"6310323963"},"type":"Feature"},
	{"geometry":{"coordinates":[-2.39181,53.546844],"type":"Point"},"properties":{"amenity":"waste_basket","osm_id":"6310323964"},"type":"Feature"},
	{"geometry":{"coordinates":[-2.390894,53.54513],"type":"Point"},"properties":{"amenity":"waste_basket","osm_id":"6312240360"},"type":"Feature"},
	{"geometry":{"coordinates":[-2.389905,53.544333],"type":"Point"},"properties":{"amenity":"waste_basket","osm_id":"6317748098"},"type":"Feature"},
	{"geometry":{"coordinates":[-2.394944,53.550041],"type":"Point"},"properties":{"amenity":"waste_basket","osm_id":"6322809288"},"type":"Feature"},
	{"geometry":{"coordinates":[-2.38929,53.5445],"type":"Point"},"properties":{"amenity":"waste_basket","osm_id":"6325003573"},"type":"Feature"},
	{"geometry":{"coordinates":[-2.373862,53.565955],"type":"Point"},"properties":{"amenity":"waste_basket","osm_id":"6356243654"},"type":"Feature"},
	{"geometry":{"coordinates":[-2.428623,53.560733],"type":"Point"},"properties":{"amenity":"waste_basket","osm_id":"6406351288"},"type":"Feature"},
	{"geometry":{"coordinates":[-2.428391,53.56043],"type":"Point"},"properties":{"amenity":"waste_basket","osm_id":"6406351290"},"type":"Feature"},
	{"geometry":{"coordinates":[-2.417008,53.562659],"type":"Point"},"properties":{"amenity":"waste_basket","osm_id":"6417565278"},"type":"Feature"},
	{"geometry":{"coordinates":[-2.416274,53.562086],"type":"Point"},"properties":{"amenity":"waste_basket","osm_id":"6417565441"},"type":"Feature"},
	{"geometry":{"coordinates":[-2.420878,53.559836],"type":"Point"},"properties":{"amenity":"waste_basket","osm_id":"6417565482"},"type":"Feature"},
	{"geometry":{"coordinates":[-2.41867,53.561613],"type":"Point"},"properties":{"amenity":"waste_basket","osm_id":"6418837647"},"type":"Feature"},
	{"geometry":{"coordinates":[-2.41317,53.560275],"type":"Point"},"properties":{"amenity":"waste_basket","osm_id":"6420358506"},"type":"Feature"},
	{"geometry":{"coordinates":[-2.412026,53.559572],"type":"Point"},"properties":{"amenity":"waste_basket","osm_id":"6420358507"},"type":"Feature"},
	{"geometry":{"coordinates":[-2.443754,53.566593],"type":"Point"},"properties":{"amenity":"recycling","osm_id":"6652660978","tag":{"colour":"Green","material":"metal","operator":"Ummah Welfare Trust","recycling:clothes":"yes","recycling:shoes":"yes","recycling_type":"container"}},"type":"Feature"},
	{"geometry":{"coordinates":[-2.440865,53.565622],"type":"Point"},"properties":{"amenity":"waste_basket","osm_id":"6653555418"},"type":"Feature"},
	{"geometry":{"coordinates":[-2.431668,53.562659],"type":"Point"},"properties":{"amenity":"waste_basket","osm_id":"6654503047"},"type":"Feature"},
	{"geometry":{"coordinates":[-2.431299,53.56118],"type":"Point"},"properties":{"amenity":"waste_basket","osm_id":"6654525604"},"type":"Feature"},
	{"geometry":{"coordinates":[-2.430744,53.559875],"type":"Point"},"properties":{"amenity":"waste_basket","osm_id":"6654689866"},"type":"Feature"},
	{"geometry":{"coordinates":[-2.430682,53.559735],"type":"Point"},"properties":{"amenity":"waste_basket","osm_id":"6654689867"},"type":"Feature"},
	{"geometry":{"coordinates":[-2.438794,53.561379],"type":"Point"},"properties":{"amenity":"recycling","osm_id":"6655834597","tag":{"operator":"Muslim Help","recycling:clothes":"yes","recycling_type":"container"}},"type":"Feature"},
	{"geometry":{"coordinates":[-2.438638,53.561359],"type":"Point"},"properties":{"amenity":"waste_basket","osm_id":"6655834598"},"type":"Feature"},
	{"geometry":{"coordinates":[-2.438874,53.558852],"type":"Point"},"properties":{"amenity":"waste_basket","osm_id":"6655891184"},"type":"Feature"},
	{"geometry":{"coordinates":[-2.441174,53.561397],"type":"Point"},"properties":{"amenity":"waste_basket","osm_id":"6656681186"},"type":"Feature"},
	{"geometry":{"coordinates":[-2.441159,53.562155],"type":"Point"},"properties":{"amenity":"waste_basket","osm_id":"6656681187"},"type":"Feature"},
	{"geometry":{"coordinates":[-2.451294,53.559223],"type":"Point"},"properties":{"amenity":"waste_basket","osm_id":"6665154073"},"type":"Feature"},
	{"geometry":{"coordinates":[-2.452997,53.560635],"type":"Point"},"properties":{"amenity":"waste_basket","osm_id":"6665154157"},"type":"Feature"},
	{"geometry":{"coordinates":[-2.450954,53.558807],"type":"Point"},"properties":{"amenity":"waste_basket","osm_id":"6665267328"},"type":"Feature"},
	{"geometry":{"coordinates":[-2.454673,53.561334],"type":"Point"},"properties":{"amenity":"waste_basket","osm_id":"6665387499"},"type":"Feature"},
	{"geometry":{"coordinates":[-2.453032,53.558799],"type":"Point"},"properties":{"amenity":"waste_basket","osm_id":"6673479859"},"type":"Feature"},
	{"geometry":{"coordinates":[-2.459995,53.565986],"type":"Point"},"properties":{"amenity":"waste_basket","osm_id":"6763456337"},"type":"Feature"},
	{"geometry":{"coordinates":[-2.459404,53.567016],"type":"Point"},"properties":{"amenity":"waste_basket","osm_id":"6765639935"},"type":"Feature"},
	{"geometry":{"coordinates":[-2.4511,53.567146],"type":"Point"},"properties":{"amenity":"waste_basket","osm_id":"6768704692"},"type":"Feature"},
	{"geometry":{"coordinates":[-2.45413,53.566969],"type":"Point"},"properties":{"amenity":"waste_basket","osm_id":"6771371479"},"type":"Feature"},
	{"geometry":{"coordinates":[-2.450752,53.571017],"type":"Point"},"properties":{"amenity":"waste_basket","osm_id":"6784474594"},"type":"Feature"},
	{"geometry":{"coordinates":[-2.443372,53.572814],"type":"Point"},"properties":{"amenity":"waste_basket","osm_id":"6797003217"},"type":"Feature"},
	{"geometry":{"coordinates":[-2.400905,53.555594],"type":"Point"},"properties":{"amenity":"waste_basket","osm_id":"6800517434"},"type":"Feature"},
	{"geometry":{"coordinates":[-2.437818,53.581704],"type":"Point"},"properties":{"amenity":"waste_basket","osm_id":"6805217426"},"type":"Feature"},
	{"geometry":{"coordinates":[-2.428801,53.572996],"type":"Point"},"properties":{"amenity":"waste_basket","osm_id":"6859869787"},"type":"Feature"},
	{"geometry":{"coordinates":[-2.426099,53.577544],"type":"Point"},"properties":{"amenity":"waste_basket","osm_id":"6860053558"},"type":"Feature"},
	{"geometry":{"coordinates":[-2.426326,53.577553],"type":"Point"},"properties":{"amenity":"waste_basket","osm_id":"6860053559"},"type":"Feature"},
	{"geometry":{"coordinates":[-2.425316,53.579588],"type":"Point"},"properties":{"amenity":"waste_basket","osm_id":"6860053562"},"type":"Feature"},
	{"geometry":{"coordinates":[-2.425393,53.579659],"type":"Point"},"properties":{"amenity":"waste_basket","osm_id":"6860053565"},"type":"Feature"},
	{"geometry":{"coordinates":[-2.426126,53.579616],"type":"Point"},"properties":{"amenity":"waste_basket","osm_id":"6860053566"},"type":"Feature"},
	{"geometry":{"coordinates":[-2.43287,53.581904],"type":"Point"},"properties":{"amenity":"waste_basket","osm_id":"6866328635"},"type":"Feature"},
	{"geometry":{"coordinates":[-2.433058,53.578345],"type":"Point"},"properties":{"amenity":"waste_basket","osm_id":"6869586241"},"type":"Feature"},
	{"geometry":{"coordinates":[-2.432206,53.576889],"type":"Point"},"properties":{"amenity":"waste_basket","osm_id":"6869586246"},"type":"Feature"},
	{"geometry":{"coordinates":[-2.430101,53.57715],"type":"Point"},"properties":{"amenity":"waste_basket","osm_id":"6870168699"},"type":"Feature"},
	{"geometry":{"coordinates":[-2.429014,53.577831],"type":"Point"},"properties":{"amenity":"waste_basket","osm_id":"6870168796"},"type":"Feature"},
	{"geometry":{"coordinates":[-2.430489,53.575826],"type":"Point"},"properties":{"amenity":"waste_basket","osm_id":"6871413217"},"type":"Feature"},
	{"geometry":{"coordinates":[-2.430279,53.575774],"type":"Point"},"properties":{"amenity":"waste_basket","osm_id":"6871413218"},"type":"Feature"},
	{"geometry":{"coordinates":[-2.430351,53.575873],"type":"Point"},"properties":{"amenity":"waste_basket","osm_id":"6871413219"},"type":"Feature"},
	{"geometry":{"coordinates":[-2.438309,53.587013],"type":"Point"},"properties":{"amenity":"waste_basket","osm_id":"6872686095"},"type":"Feature"},
	{"geometry":{"coordinates":[-2.439637,53.587394],"type":"Point"},"properties":{"amenity":"waste_basket","osm_id":"6872686147"},"type":"Feature"},
	{"geometry":{"coordinates":[-2.443894,53.583357],"type":"Point"},"properties":{"amenity":"waste_basket","osm_id":"6875138442"},"type":"Feature"},
	{"geometry":{"coordinates":[-2.439747,53.585328],"type":"Point"},"properties":{"amenity":"waste_basket","osm_id":"6875458015"},"type":"Feature"},
	{"geometry":{"coordinates":[-2.433574,53.590525],"type":"Point"},"properties":{"amenity":"waste_basket","osm_id":"6881094340"},"type":"Feature"},
	{"geometry":{"coordinates":[-2.434765,53.589621],"type":"Point"},"properties":{"amenity":"waste_basket","osm_id":"6881172239"},"type":"Feature"},
	{"geometry":{"coordinates":[-2.443489,53.591848],"type":"Point"},"properties":{"amenity":"waste_basket","osm_id":"7690785021"},"type":"Feature"}
]
}
