{
"type": "FeatureCollection",
"lastupdate": "2020-07-28T01:29:12Z",
"features": [
	{"geometry":{"coordinates":[0.754126,52.425567],"type":"Point"},"properties":{"amenity":"recycling","osm_id":"918306527","tag":{"recycling:glass":"yes"}},"type":"Feature"},
	{"geometry":{"coordinates":[0.754305,52.425716],"type":"Point"},"properties":{"amenity":"recycling","osm_id":"918306647","tag":{"recycling:clothes":"yes","recycling:shoes":"yes"}},"type":"Feature"},
	{"geometry":{"coordinates":[0.748322,52.418115],"type":"Point"},"properties":{"amenity":"recycling","osm_id":"955952876","tag":{"recycling:glass":"yes","recycling:paper":"yes"}},"type":"Feature"},
	{"geometry":{"coordinates":[0.748309,52.413087],"type":"Point"},"properties":{"amenity":"recycling","osm_id":"1010820244","tag":{"location":"overground","recycling:glass":"yes","recycling_type":"container"}},"type":"Feature"},
	{"geometry":{"coordinates":[0.721122,52.405158],"type":"Point"},"properties":{"amenity":"recycling","osm_id":"1055086411","tag":{"recycling:batteries":"yes","recycling:clothes":"yes","recycling:glass":"yes","recycling:paper":"yes"}},"type":"Feature"},
	{"geometry":{"coordinates":[0.785887,52.379866],"type":"Point"},"properties":{"amenity":"recycling","osm_id":"1177385756","tag":{"recycling:glass":"yes"}},"type":"Feature"},
	{"geometry":{"coordinates":[0.758788,52.413292],"type":"Point"},"properties":{"amenity":"waste_basket","osm_id":"1516378257","tag":{" COMMON":null,"bdc:name":"MELFORD BRIDGE ROAD","operator":"Breckland District Council","waste":"dog_excrement"}},"type":"Feature"},
	{"geometry":{"coordinates":[0.756724,52.414023],"type":"Point"},"properties":{"amenity":"waste_basket","osm_id":"1516378260","tag":{" COMMON":null,"bdc:name":"MELFORD BRIDGE ROAD","operator":"Breckland District Council","waste":"dog_excrement"}},"type":"Feature"},
	{"geometry":{"coordinates":[0.753243,52.408675],"type":"Point"},"properties":{"amenity":"waste_basket","osm_id":"1531086943","tag":{"bdc:name":"SPRING WALK","operator":"Breckland District Council","waste":"dog_excrement"}},"type":"Feature"},
	{"geometry":{"coordinates":[0.753218,52.40868],"type":"Point"},"properties":{"amenity":"waste_basket","osm_id":"1531086958","tag":{"bdc:name":"SPRING WALK","operator":"Breckland District Council"}},"type":"Feature"},
	{"geometry":{"coordinates":[0.764795,52.417866],"type":"Point"},"properties":{"amenity":"waste_basket","osm_id":"1583021069","tag":{"bdc:name":"CLOVERFIELDS","operator":"Breckland District Council"}},"type":"Feature"},
	{"geometry":{"coordinates":[0.770721,52.423746],"type":"Point"},"properties":{"amenity":"recycling","osm_id":"1856005610","tag":{"location":"overground","recycling:cans":"yes","recycling:clothes":"yes","recycling:glass":"yes","recycling:paper":"yes","recycling:plastic_bottles":"yes","recycling_type":"container"}},"type":"Feature"},
	{"geometry":{"coordinates":[0.751546,52.408751],"type":"Point"},"properties":{"amenity":"waste_basket","osm_id":"2600273325","tag":{"bdc:name":"SPRING WALK","operator":"Breckland District Council"}},"type":"Feature"},
	{"geometry":{"coordinates":[0.748282,52.411051],"type":"Point"},"properties":{"amenity":"waste_basket","osm_id":"2600273333","tag":{"bdc:name":"SPRING WALK","operator":"Breckland District Council"}},"type":"Feature"},
	{"geometry":{"coordinates":[0.754885,52.412288],"type":"Point"},"properties":{"amenity":"waste_basket","osm_id":"2600273366","tag":{"bdc:name":"CASTLE PARK","operator":"Breckland District Council","waste":"dog_excrement"}},"type":"Feature"},
	{"geometry":{"coordinates":[0.755836,52.412664],"type":"Point"},"properties":{"amenity":"waste_basket","osm_id":"2600273369","tag":{"bdc:name":"CASTLE PARK","operator":"Breckland District Council"}},"type":"Feature"},
	{"geometry":{"coordinates":[0.755945,52.412727],"type":"Point"},"properties":{"amenity":"waste_basket","osm_id":"2600273374","tag":{"bdc:name":"CASTLE PARK","operator":"Breckland District Council","waste":"dog_excrement"}},"type":"Feature"},
	{"geometry":{"coordinates":[0.771469,52.422221],"type":"Point"},"properties":{"amenity":"waste_basket","osm_id":"2605954155","tag":{"bdc:name":"CLOVERFIELDS","operator":"Breckland District Council","waste":"dog_excrement"}},"type":"Feature"},
	{"geometry":{"coordinates":[0.77149,52.42223],"type":"Point"},"properties":{"amenity":"waste_basket","osm_id":"2605954159","tag":{"bdc:name":"CLOVERFIELDS","operator":"Breckland District Council"}},"type":"Feature"},
	{"geometry":{"coordinates":[0.749198,52.416267],"type":"Point"},"properties":{"amenity":"recycling","osm_id":"2606069772","tag":{"location":"overground","recycling:clothes":"yes","recycling:shoes":"yes","recycling_type":"container"}},"type":"Feature"},
	{"geometry":{"coordinates":[0.768217,52.418653],"type":"Point"},"properties":{"amenity":"waste_basket","osm_id":"2697995766","tag":{"bdc:name":"ROSECROFT WAY","operator":"Breckland District Council"}},"type":"Feature"},
	{"geometry":{"coordinates":[0.768194,52.418661],"type":"Point"},"properties":{"amenity":"waste_basket","osm_id":"2697995777","tag":{"bdc:name":"ROSECROFT WAY","operator":"Breckland District Council","waste":"dog_excrement"}},"type":"Feature"},
	{"geometry":{"coordinates":[0.742982,52.412187],"type":"Point"},"properties":{"amenity":"recycling","osm_id":"2784210250","tag":{"recycling:clothes":"yes","recycling:shoes":"yes"}},"type":"Feature"},
	{"geometry":{"coordinates":[0.752961,52.427964],"type":"Point"},"properties":{"amenity":"waste_basket","osm_id":"2947259891","tag":{"waste":"dog_excrement"}},"type":"Feature"},
	{"geometry":{"coordinates":[0.733126,52.413187],"type":"Point"},"properties":{"amenity":"waste_basket","osm_id":"2947259911","tag":{"bdc:name":"ST JOHNS WAY JUNCTION MACKENZIE ROAD","operator":"Breckland District Council","waste":"dog_excrement"}},"type":"Feature"},
	{"geometry":{"coordinates":[0.736471,52.413376],"type":"Point"},"properties":{"amenity":"waste_basket","osm_id":"2947259912","tag":{"bdc:name":"ST JOHNS WAY","operator":"Breckland District Council","waste":"dog_excrement"}},"type":"Feature"},
	{"geometry":{"coordinates":[0.737985,52.413473],"type":"Point"},"properties":{"amenity":"waste_basket","osm_id":"2947259916","tag":{"bdc:name":"STEPHEN PRIOR UNDERPASS","operator":"Breckland District Council","waste":"dog_excrement"}},"type":"Feature"},
	{"geometry":{"coordinates":[0.738034,52.416958],"type":"Point"},"properties":{"amenity":"waste_basket","osm_id":"2947266045","tag":{"bdc:name":"WATER MEADOWS","operator":"Breckland District Council","waste":"dog_excrement"}},"type":"Feature"},
	{"geometry":{"coordinates":[0.75203,52.425273],"type":"Point"},"properties":{"amenity":"waste_basket","osm_id":"3013356154","tag":{"waste":"dog_excrement"}},"type":"Feature"},
	{"geometry":{"coordinates":[0.738034,52.415057],"type":"Point"},"properties":{"amenity":"waste_basket","osm_id":"3013356158","tag":{"bdc:name":"WATER MEADOWS","operator":"Breckland District Council"}},"type":"Feature"},
	{"geometry":{"coordinates":[0.737352,52.418672],"type":"Point"},"properties":{"amenity":"waste_basket","osm_id":"3013356165","tag":{"bdc:name":"CANTERBURY WAY","operator":"Breckland District Council","waste":"dog_excrement"}},"type":"Feature"},
	{"geometry":{"coordinates":[0.736577,52.418836],"type":"Point"},"properties":{"amenity":"waste_basket","osm_id":"3013356249"},"type":"Feature"},
	{"geometry":{"coordinates":[0.765617,52.419949],"type":"Point"},"properties":{"amenity":"waste_basket","osm_id":"3033457684","tag":{"bdc:name":"CLOVERFIELDS","operator":"Breckland District Council"}},"type":"Feature"},
	{"geometry":{"coordinates":[0.740148,52.40363],"type":"Point"},"properties":{"amenity":"waste_basket","osm_id":"3053117169","tag":{"bdc:name":"ELM RD/FIR RD","operator":"Breckland District Council","waste":"dog_excrement"}},"type":"Feature"},
	{"geometry":{"coordinates":[0.737238,52.404283],"type":"Point"},"properties":{"amenity":"waste_basket","osm_id":"3053117170","tag":{"bdc:name":"ELM RD/FIR RD","operator":"Breckland District Council","waste":"dog_excrement"}},"type":"Feature"},
	{"geometry":{"coordinates":[0.741703,52.37686],"type":"Point"},"properties":{"amenity":"recycling","osm_id":"3053151083","tag":{"recycling:glass":"yes","recycling:newspaper":"yes"}},"type":"Feature"},
	{"geometry":{"coordinates":[0.743569,52.378103],"type":"Point"},"properties":{"amenity":"waste_basket","osm_id":"3053151084","tag":{"waste":"dog_excrement"}},"type":"Feature"},
	{"geometry":{"coordinates":[0.749916,52.414097],"type":"Point"},"properties":{"amenity":"recycling","osm_id":"3250927766","tag":{"operator":"British Heart Foundation","recycling:clothes":"yes"}},"type":"Feature"},
	{"geometry":{"coordinates":[0.754895,52.412803],"type":"Point"},"properties":{"amenity":"waste_basket","osm_id":"3337676993","tag":{"bdc:name":"CASTLE PARK","operator":"Breckland District Council"}},"type":"Feature"},
	{"geometry":{"coordinates":[0.757449,52.412613],"type":"Point"},"properties":{"amenity":"waste_basket","osm_id":"3521485296","tag":{"bdc:name":"CASTLE PARK","operator":"Breckland District Council","waste":"dog_excrement"}},"type":"Feature"},
	{"geometry":{"coordinates":[0.726862,52.40592],"type":"Point"},"properties":{"amenity":"waste_basket","osm_id":"3616129903"},"type":"Feature"},
	{"geometry":{"coordinates":[0.759147,52.428357],"type":"Point"},"properties":{"amenity":"waste_basket","osm_id":"3726404939"},"type":"Feature"},
	{"geometry":{"coordinates":[0.754363,52.408101],"type":"Point"},"properties":{"amenity":"waste_basket","osm_id":"3971727257","tag":{" FOOTPATH":null,"bdc:name":"NUNN'S BRIDGES ROAD","operator":"Breckland District Council","waste":"dog_excrement"}},"type":"Feature"},
	{"geometry":{"coordinates":[0.7396,52.416392],"type":"Point"},"properties":{"amenity":"waste_basket","osm_id":"4125704351","tag":{"bdc:name":"WATER MEADOWS","operator":"Breckland District Council"}},"type":"Feature"},
	{"geometry":{"coordinates":[0.739714,52.416434],"type":"Point"},"properties":{"amenity":"waste_basket","osm_id":"4125704352","tag":{"bdc:name":"WATER MEADOWS","operator":"Breckland District Council","waste":"dog_excrement"}},"type":"Feature"},
	{"geometry":{"coordinates":[0.732983,52.415574],"type":"Point"},"properties":{"amenity":"waste_basket","osm_id":"4125704356","tag":{"bdc:name":"MEADOWS RIVER AREA","operator":"Breckland District Council","waste":"dog_excrement"}},"type":"Feature"},
	{"geometry":{"coordinates":[0.733795,52.418593],"type":"Point"},"properties":{"amenity":"recycling","osm_id":"4412257836","tag":{"recycling:glass":"yes","recycling_type":"container"}},"type":"Feature"},
	{"geometry":{"coordinates":[0.746719,52.41319],"type":"Point"},"properties":{"amenity":"waste_basket","osm_id":"4442919618","tag":{"bdc:name":"RIVERSIDE CINEMA DEVELOPMENT","operator":"Breckland District Council"}},"type":"Feature"},
	{"geometry":{"coordinates":[0.742893,52.40945],"type":"Point"},"properties":{"amenity":"recycling","osm_id":"4450548197","tag":{"recycling:clothes":"yes","recycling:shoes":"yes"}},"type":"Feature"},
	{"geometry":{"coordinates":[0.746526,52.413305],"type":"Point"},"properties":{"amenity":"waste_basket","osm_id":"4469808943","tag":{"bdc:name":"RIVERSIDE CINEMA DEVELOPMENT","operator":"Breckland District Council"}},"type":"Feature"},
	{"geometry":{"coordinates":[0.745757,52.413588],"type":"Point"},"properties":{"amenity":"waste_basket","osm_id":"4469808944","tag":{"bdc:name":"RIVERSIDE CINEMA DEVELOPMENT","operator":"Breckland District Council"}},"type":"Feature"},
	{"geometry":{"coordinates":[0.746647,52.418334],"type":"Point"},"properties":{"amenity":"waste_basket","osm_id":"4693748191","tag":{"waste":"dog_excrement"}},"type":"Feature"},
	{"geometry":{"coordinates":[0.746519,52.418375],"type":"Point"},"properties":{"amenity":"waste_basket","osm_id":"4693752990"},"type":"Feature"},
	{"geometry":{"coordinates":[0.766213,52.421803],"type":"Point"},"properties":{"amenity":"waste_basket","osm_id":"4693822997"},"type":"Feature"},
	{"geometry":{"coordinates":[0.769296,52.423753],"type":"Point"},"properties":{"amenity":"waste_basket","osm_id":"4693826494","tag":{"bdc:name":"BENBOW RD","operator":"Breckland District Council","waste":"dog_excrement"}},"type":"Feature"},
	{"geometry":{"coordinates":[0.76478,52.417831],"type":"Point"},"properties":{"amenity":"waste_basket","osm_id":"4693826495","tag":{"bdc:name":"CLOVERFIELDS","operator":"Breckland District Council","waste":"dog_excrement"}},"type":"Feature"},
	{"geometry":{"coordinates":[0.765689,52.425107],"type":"Point"},"properties":{"amenity":"waste_basket","osm_id":"4693827591","tag":{"bdc:name":"COLLINGWOOD WALK","operator":"Breckland District Council","waste":"dog_excrement"}},"type":"Feature"},
	{"geometry":{"coordinates":[0.769274,52.423904],"type":"Point"},"properties":{"amenity":"waste_basket","osm_id":"4693828092","tag":{"bdc:name":"BENBOW RD","operator":"Breckland District Council"}},"type":"Feature"},
	{"geometry":{"coordinates":[0.74868,52.40572],"type":"Point"},"properties":{"amenity":"waste_basket","osm_id":"4743873790","tag":{" OPP ST BARNABAS CLOSE":null,"bdc:name":"NUNN'S BRIDGES ROAD","operator":"Breckland District Council","waste":"dog_excrement"}},"type":"Feature"},
	{"geometry":{"coordinates":[0.748715,52.405767],"type":"Point"},"properties":{"amenity":"waste_basket","osm_id":"4743874941","tag":{" OPP ST BARNABAS CLOSE":null,"bdc:name":"NUNN'S BRIDGES ROAD","operator":"Breckland District Council"}},"type":"Feature"},
	{"geometry":{"coordinates":[0.742887,52.402925],"type":"Point"},"properties":{"amenity":"waste_basket","osm_id":"4754503524","tag":{"bdc:name":"ELM RD/FIR RD","operator":"Breckland District Council","waste":"dog_excrement"}},"type":"Feature"},
	{"geometry":{"coordinates":[0.742162,52.403118],"type":"Point"},"properties":{"amenity":"waste_basket","osm_id":"4754539924","tag":{"bdc:name":"ELM RD/FIR RD","operator":"Breckland District Council"}},"type":"Feature"},
	{"geometry":{"coordinates":[0.765012,52.415597],"type":"Point"},"properties":{"amenity":"waste_basket","osm_id":"4835256821","tag":{"bdc:name":"ROSECROFT WAY","operator":"Breckland District Council"}},"type":"Feature"},
	{"geometry":{"coordinates":[0.760641,52.410622],"type":"Point"},"properties":{"amenity":"waste_basket","osm_id":"4835256840","tag":{"bdc:name":"ARLINGTON WAY","operator":"Breckland District Council"}},"type":"Feature"},
	{"geometry":{"coordinates":[0.753981,52.408284],"type":"Point"},"properties":{"amenity":"waste_basket","osm_id":"4835257124","tag":{" FOOTPATH":null,"bdc:name":"NUNN'S BRIDGES ROAD","operator":"Breckland District Council"}},"type":"Feature"},
	{"geometry":{"coordinates":[0.7535,52.408245],"type":"Point"},"properties":{"amenity":"waste_basket","osm_id":"4835257125","tag":{" OPP CAR PARK":null,"bdc:name":"NUNN'S BRIDGES ROAD","operator":"Breckland District Council"}},"type":"Feature"},
	{"geometry":{"coordinates":[0.751316,52.408579],"type":"Point"},"properties":{"amenity":"waste_basket","osm_id":"4835257127","tag":{"bdc:name":"MILL LANE","operator":"Breckland District Council"}},"type":"Feature"},
	{"geometry":{"coordinates":[0.746827,52.412648],"type":"Point"},"properties":{"amenity":"waste_basket","osm_id":"4835285022"},"type":"Feature"},
	{"geometry":{"coordinates":[0.74694,52.413047],"type":"Point"},"properties":{"amenity":"waste_basket","osm_id":"4835285023"},"type":"Feature"},
	{"geometry":{"coordinates":[0.747869,52.411265],"type":"Point"},"properties":{"amenity":"waste_basket","osm_id":"4835286421","tag":{"bdc:name":"SPRING WALK","operator":"Breckland District Council","waste":"dog_excrement"}},"type":"Feature"},
	{"geometry":{"coordinates":[0.747783,52.412089],"type":"Point"},"properties":{"amenity":"waste_basket","osm_id":"4835286423"},"type":"Feature"},
	{"geometry":{"coordinates":[0.74781,52.411369],"type":"Point"},"properties":{"amenity":"waste_basket","osm_id":"4835286521","tag":{"bdc:name":"SPRING WALK","operator":"Breckland District Council"}},"type":"Feature"},
	{"geometry":{"coordinates":[0.747143,52.4133],"type":"Point"},"properties":{"amenity":"waste_basket","osm_id":"4835292521","tag":{"bdc:name":"RIVERSIDE WALK 2-10","operator":"Breckland District Council"}},"type":"Feature"},
	{"geometry":{"coordinates":[0.745074,52.415796],"type":"Point"},"properties":{"amenity":"waste_basket","osm_id":"4835296022"},"type":"Feature"},
	{"geometry":{"coordinates":[0.747255,52.41422],"type":"Point"},"properties":{"amenity":"waste_basket","osm_id":"4835302721","tag":{"bdc:name":"KING STREET NEAR BELL HOTEL","operator":"Breckland District Council"}},"type":"Feature"},
	{"geometry":{"coordinates":[0.747278,52.414313],"type":"Point"},"properties":{"amenity":"waste_basket","osm_id":"4835302722","tag":{"bdc:name":"KING STREET NEAR THOMAS PAINE STATUE","operator":"Breckland District Council"}},"type":"Feature"},
	{"geometry":{"coordinates":[0.744814,52.415614],"type":"Point"},"properties":{"amenity":"waste_basket","osm_id":"4835302723"},"type":"Feature"},
	{"geometry":{"coordinates":[0.750201,52.413604],"type":"Point"},"properties":{"amenity":"waste_basket","osm_id":"4835335121","tag":{"bdc:name":"KING STREET ST CUTHBERT'S CHURCH","operator":"Breckland District Council"}},"type":"Feature"},
	{"geometry":{"coordinates":[0.75051,52.412764],"type":"Point"},"properties":{"amenity":"waste_basket","osm_id":"4835335221","tag":{" OUTSIDE DAD'S ARMY MUSEUM":null,"bdc:name":"MARKET PLACE","operator":"Breckland District Council"}},"type":"Feature"},
	{"geometry":{"coordinates":[0.754851,52.411335],"type":"Point"},"properties":{"amenity":"waste_basket","osm_id":"4835354221","tag":{"bdc:name":"CASTLE PARK","operator":"Breckland District Council"}},"type":"Feature"},
	{"geometry":{"coordinates":[0.747417,52.413452],"type":"Point"},"properties":{"amenity":"waste_basket","osm_id":"4835656488","tag":{"bdc:name":"RIVERSIDE WALK 10-21","dog_waste":"yes","litter":"yes","operator":"Breckland District Council"}},"type":"Feature"},
	{"geometry":{"coordinates":[0.746702,52.413638],"type":"Point"},"properties":{"amenity":"waste_basket","osm_id":"4835656503","tag":{"bdc:name":"RIVERSIDE WALK 11","operator":"Breckland District Council"}},"type":"Feature"},
	{"geometry":{"coordinates":[0.746932,52.413555],"type":"Point"},"properties":{"amenity":"waste_basket","osm_id":"4835656504","tag":{"bdc:name":"RIVERSIDE WALK 13 -15","operator":"Breckland District Council"}},"type":"Feature"},
	{"geometry":{"coordinates":[0.762695,52.418448],"type":"Point"},"properties":{"amenity":"waste_basket","osm_id":"4940745687","tag":{"bdc:name":"PLAY AREA CLOVERFIELDS","operator":"Breckland District Council"}},"type":"Feature"},
	{"geometry":{"coordinates":[0.76812,52.414348],"type":"Point"},"properties":{"amenity":"waste_basket","osm_id":"4976582223","tag":{"bdc:name":"FOXGLOVE ROAD","operator":"Breckland District Council"}},"type":"Feature"},
	{"geometry":{"coordinates":[0.765907,52.413893],"type":"Point"},"properties":{"amenity":"waste_basket","osm_id":"4976582224","tag":{"bdc:name":"BERGAMOT CLOSE","operator":"Breckland District Council"}},"type":"Feature"},
	{"geometry":{"coordinates":[0.747522,52.41288],"type":"Point"},"properties":{"amenity":"waste_basket","osm_id":"5043011028","tag":{"bdc:name":"RIVERSIDE WALK OPP RIVERDALE","operator":"Breckland District Council"}},"type":"Feature"},
	{"geometry":{"coordinates":[0.748237,52.412465],"type":"Point"},"properties":{"amenity":"waste_basket","osm_id":"5043013324","tag":{" OUTSIDE PUMPING STATION":null,"bdc:name":"RIVERISIDE WALK","operator":"Breckland District Council"}},"type":"Feature"},
	{"geometry":{"coordinates":[0.749935,52.419297],"type":"Point"},"properties":{"amenity":"waste_basket","osm_id":"5103885024","tag":{"bdc:name":"CROXTON RD","operator":"Breckland District Council"}},"type":"Feature"},
	{"geometry":{"coordinates":[0.749902,52.419303],"type":"Point"},"properties":{"amenity":"waste_basket","osm_id":"5103885026","tag":{"bdc:name":"CROXTON RD","operator":"Breckland District Council","waste":"dog_excrement"}},"type":"Feature"},
	{"geometry":{"coordinates":[0.756442,52.412586],"type":"Point"},"properties":{"amenity":"waste_basket","osm_id":"5316197303","tag":{"bdc:name":"CASTLE PARK","operator":"Breckland District Council"}},"type":"Feature"},
	{"geometry":{"coordinates":[0.756543,52.4123],"type":"Point"},"properties":{"amenity":"waste_basket","osm_id":"5316197304","tag":{"bdc:name":"CASTLE PARK","operator":"Breckland District Council"}},"type":"Feature"},
	{"geometry":{"coordinates":[0.747459,52.416386],"type":"Point"},"properties":{"amenity":"waste_basket","osm_id":"5368459321","tag":{"bdc:name":"STATION RD JUNCTION OF NORWICH RD","operator":"Breckland District Council"}},"type":"Feature"},
	{"geometry":{"coordinates":[0.741938,52.418102],"type":"Point"},"properties":{"amenity":"waste_basket","osm_id":"5368596128","tag":{"bdc:name":"MONKSGATE","operator":"Breckland District Council"}},"type":"Feature"},
	{"geometry":{"coordinates":[0.753519,52.419366],"type":"Point"},"properties":{"amenity":"waste_basket","osm_id":"5387206446","tag":{"bdc:name":"GRENVILLE WAY","operator":"Breckland District Council"}},"type":"Feature"},
	{"geometry":{"coordinates":[0.754048,52.41908],"type":"Point"},"properties":{"amenity":"waste_basket","osm_id":"5387206463","tag":{"waste":"dog_excrement"}},"type":"Feature"},
	{"geometry":{"coordinates":[0.763311,52.419858],"type":"Point"},"properties":{"amenity":"waste_basket","osm_id":"5387207121","tag":{"bdc:name":"CLOVERFIELDS","operator":"Breckland District Council"}},"type":"Feature"},
	{"geometry":{"coordinates":[0.746184,52.40557],"type":"Point"},"properties":{"amenity":"waste_basket","osm_id":"5435526023","tag":{" CORNER OF BURY ROAD":null,"bdc:name":"NUNN'S BRIDGES ROAD","operator":"Breckland District Council"}},"type":"Feature"},
	{"geometry":{"coordinates":[0.740798,52.40932],"type":"Point"},"properties":{"amenity":"waste_basket","osm_id":"5435526024","tag":{"bdc:name":"ICKNELL WAY","operator":"Breckland District Council"}},"type":"Feature"},
	{"geometry":{"coordinates":[0.742751,52.415428],"type":"Point"},"properties":{"amenity":"waste_basket","osm_id":"5440257729","tag":{"bdc:name":"WATER MEADOWS","operator":"Breckland District Council"}},"type":"Feature"},
	{"geometry":{"coordinates":[0.761857,52.423788],"type":"Point"},"properties":{"amenity":"waste_basket","osm_id":"5493912617"},"type":"Feature"},
	{"geometry":{"coordinates":[0.759235,52.422608],"type":"Point"},"properties":{"amenity":"waste_basket","osm_id":"5493920767","tag":{"bdc:name":"WOODLANDS EST","operator":"Breckland District Council","waste":"dog_excrement"}},"type":"Feature"},
	{"geometry":{"coordinates":[0.759294,52.422745],"type":"Point"},"properties":{"amenity":"waste_basket","osm_id":"5493920768","tag":{"bdc:name":"WOODLANDS EST","operator":"Breckland District Council"}},"type":"Feature"},
	{"geometry":{"coordinates":[0.760386,52.423031],"type":"Point"},"properties":{"amenity":"waste_basket","osm_id":"5493920769","tag":{"bdc:name":"MOUNTBATTEN CLOSE","operator":"Breckland District Council","waste":"dog_excrement"}},"type":"Feature"},
	{"geometry":{"coordinates":[0.757068,52.42253],"type":"Point"},"properties":{"amenity":"waste_basket","osm_id":"5598951622","tag":{"bdc:name":"FAIRFIELDS PLAY AREA NEXT TO DRAKE PRIMARY SCHOOL","operator":"Breckland District Council","waste":"dog_excrement"}},"type":"Feature"},
	{"geometry":{"coordinates":[0.740432,52.415445],"type":"Point"},"properties":{"amenity":"waste_basket","osm_id":"5695861024","tag":{"bdc:name":"WATER MEADOWS","operator":"Breckland District Council"}},"type":"Feature"},
	{"geometry":{"coordinates":[0.741475,52.41045],"type":"Point"},"properties":{"amenity":"waste_basket","osm_id":"5904915945","tag":{"bdc:name":"NEWTOWN","operator":"Breckland District Council","waste":"dog_excrement"}},"type":"Feature"},
	{"geometry":{"coordinates":[0.741497,52.410465],"type":"Point"},"properties":{"amenity":"waste_basket","osm_id":"5904915948","tag":{"bdc:name":"NEWTOWN","operator":"Breckland District Council"}},"type":"Feature"},
	{"geometry":{"coordinates":[0.725763,52.415676],"type":"Point"},"properties":{"amenity":"waste_basket","osm_id":"5904943922","tag":{"waste":"dog_excrement"}},"type":"Feature"},
	{"geometry":{"coordinates":[0.725757,52.415627],"type":"Point"},"properties":{"amenity":"waste_basket","osm_id":"5904943923"},"type":"Feature"},
	{"geometry":{"coordinates":[0.76924,52.415921],"type":"Point"},"properties":{"amenity":"waste_basket","osm_id":"6268065253","tag":{"bdc:name":"CLOVERFIELDS","operator":"Breckland District Council"}},"type":"Feature"},
	{"geometry":{"coordinates":[0.74512,52.415053],"type":"Point"},"properties":{"amenity":"waste_basket","osm_id":"6373717387","tag":{"bdc:name":"MINSTERGATE","operator":"Breckland District Council"}},"type":"Feature"},
	{"geometry":{"coordinates":[0.740486,52.415129],"type":"Point"},"properties":{"amenity":"waste_basket","osm_id":"6373765785","tag":{"bdc:name":"HALING PATH","operator":"Breckland District Council","waste":"dog_excrement"}},"type":"Feature"},
	{"geometry":{"coordinates":[0.750889,52.41343],"type":"Point"},"properties":{"amenity":"waste_basket","osm_id":"6373765786","tag":{" IN FRONT OF CAR PARK":null,"bdc:name":"MARKET PLACE STREER","operator":"Breckland District Council"}},"type":"Feature"},
	{"geometry":{"coordinates":[0.743476,52.414614],"type":"Point"},"properties":{"amenity":"waste_basket","osm_id":"6373765885","tag":{"bdc:name":"HALING PATH","operator":"Breckland District Council"}},"type":"Feature"},
	{"geometry":{"coordinates":[0.750098,52.412769],"type":"Point"},"properties":{"amenity":"waste_basket","osm_id":"6373765886","tag":{"bdc:name":"RAYMOND ST","operator":"Breckland District Council"}},"type":"Feature"},
	{"geometry":{"coordinates":[0.750958,52.413162],"type":"Point"},"properties":{"amenity":"waste_basket","osm_id":"6373765888","tag":{" IN FRONT OF CAR PARK":null,"bdc:name":"MARKET PLACE STREER","operator":"Breckland District Council"}},"type":"Feature"},
	{"geometry":{"coordinates":[0.747894,52.411541],"type":"Point"},"properties":{"amenity":"waste_basket","osm_id":"6611852185"},"type":"Feature"},
	{"geometry":{"coordinates":[0.743862,52.421297],"type":"Point"},"properties":{"amenity":"waste_basket","osm_id":"6708448886"},"type":"Feature"},
	{"geometry":{"coordinates":[0.750198,52.416227],"type":"Point"},"properties":{"amenity":"recycling","osm_id":"6718702216","tag":{"operator":"The Firefighters Charity","recycling:clothes":"yes"}},"type":"Feature"},
	{"geometry":{"coordinates":[0.748436,52.412169],"type":"Point"},"properties":{"amenity":"waste_basket","osm_id":"6770330486","tag":{"bdc:name":"RIVERSIDE WALK NEXT TO CAR PARK SOUTH OF PUMPIN STATION","operator":"Breckland District Council"}},"type":"Feature"},
	{"geometry":{"coordinates":[0.748292,52.412535],"type":"Point"},"properties":{"amenity":"waste_basket","osm_id":"6770330786","tag":{"bdc:name":"RIVERSIDE WALK NEXT TO CAR PARK NORTH OF PUMPIN STATION","operator":"Breckland District Council","waste":"dog_excrement"}},"type":"Feature"},
	{"geometry":{"coordinates":[0.750665,52.413502],"type":"Point"},"properties":{"amenity":"waste_basket","osm_id":"6780860185","tag":{" ENTRANCE TO CAR PARK":null,"bdc:name":"MARKET PLACE","operator":"Breckland District Council"}},"type":"Feature"},
	{"geometry":{"coordinates":[0.734878,52.41557],"type":"Point"},"properties":{"amenity":"waste_basket","osm_id":"6800581814","tag":{"bdc:name":"MEADOWS RIVER AREA","operator":"Breckland District Council"}},"type":"Feature"},
	{"geometry":{"coordinates":[0.761572,52.418829],"type":"Point"},"properties":{"amenity":"waste_basket","osm_id":"6813865041","tag":{"bdc:name":"PLAY AREA CLOVERFIELDS","operator":"Breckland District Council","waste":"dog_excrement"}},"type":"Feature"},
	{"geometry":{"coordinates":[0.743816,52.415748],"type":"Point"},"properties":{"amenity":"waste_basket","osm_id":"6814076617","tag":{"bdc:name":"WATER MEADOWS","operator":"Breckland District Council"}},"type":"Feature"},
	{"geometry":{"coordinates":[0.767644,52.419012],"type":"Point"},"properties":{"amenity":"waste_basket","osm_id":"6814127090","tag":{"bdc:name":"CLOVERFIELDS","operator":"Breckland District Council"}},"type":"Feature"},
	{"geometry":{"coordinates":[0.747317,52.401864],"type":"Point"},"properties":{"amenity":"waste_basket","osm_id":"6814216939","tag":{"waste":"dog_excrement"}},"type":"Feature"},
	{"geometry":{"coordinates":[0.762926,52.425782],"type":"Point"},"properties":{"amenity":"waste_basket","osm_id":"6816154865","tag":{"bdc:name":"WOODLANDS EST","operator":"Breckland District Council"}},"type":"Feature"},
	{"geometry":{"coordinates":[0.744444,52.415564],"type":"Point"},"properties":{"amenity":"waste_basket","osm_id":"6845688323","tag":{"bdc:name":"MINSTERGATE","operator":"Breckland District Council"}},"type":"Feature"},
	{"geometry":{"coordinates":[0.741224,52.415889],"type":"Point"},"properties":{"amenity":"waste_basket","osm_id":"6845688326","tag":{"bdc:name":"WATER MEADOWS","operator":"Breckland District Council"}},"type":"Feature"},
	{"geometry":{"coordinates":[0.74022,52.416362],"type":"Point"},"properties":{"amenity":"waste_basket","osm_id":"6845688328","tag":{"bdc:name":"WATER MEADOWS","operator":"Breckland District Council"}},"type":"Feature"},
	{"geometry":{"coordinates":[0.756159,52.423017],"type":"Point"},"properties":{"amenity":"waste_basket","osm_id":"6845703178","tag":{"bdc:name":"FAIRFIELDS PLAY AREA NEXT TO DRAKE PRIMARY SCHOOL","operator":"Breckland District Council","waste":"dog_excrement"}},"type":"Feature"},
	{"geometry":{"coordinates":[0.761138,52.42105],"type":"Point"},"properties":{"amenity":"waste_basket","osm_id":"6845721749","tag":{"bdc:name":"CHURCHILL RD","operator":"Breckland District Council","waste":"dog_excrement"}},"type":"Feature"},
	{"geometry":{"coordinates":[0.746753,52.413236],"type":"Point"},"properties":{"amenity":"waste_basket","osm_id":"6892095685","tag":{"bdc:name":"RIVERSIDE CINEMA DEVELOPMENT","operator":"Breckland District Council","waste":"dog_excrement"}},"type":"Feature"},
	{"geometry":{"coordinates":[0.752366,52.408402],"type":"Point"},"properties":{"amenity":"waste_basket","osm_id":"6892220383","tag":{"bdc:name":"MILL LANE","operator":"Breckland District Council"}},"type":"Feature"},
	{"geometry":{"coordinates":[0.750411,52.406557],"type":"Point"},"properties":{"amenity":"waste_basket","osm_id":"6892240498","tag":{"waste":"dog_excrement"}},"type":"Feature"},
	{"geometry":{"coordinates":[0.750398,52.406382],"type":"Point"},"properties":{"amenity":"waste_basket","osm_id":"6892240499"},"type":"Feature"},
	{"geometry":{"coordinates":[0.745559,52.413847],"type":"Point"},"properties":{"amenity":"waste_basket","osm_id":"6900458085"},"type":"Feature"},
	{"geometry":{"coordinates":[0.726591,52.413868],"type":"Point"},"properties":{"amenity":"waste_basket","osm_id":"6901036050"},"type":"Feature"},
	{"geometry":{"coordinates":[0.726822,52.413821],"type":"Point"},"properties":{"amenity":"waste_basket","osm_id":"6901036053"},"type":"Feature"},
	{"geometry":{"coordinates":[0.741027,52.414567],"type":"Point"},"properties":{"amenity":"waste_basket","osm_id":"6901061885","tag":{"bdc:name":"CANONS CLOSE","operator":"Breckland District Council"}},"type":"Feature"},
	{"geometry":{"coordinates":[0.738162,52.415003],"type":"Point"},"properties":{"amenity":"waste_basket","osm_id":"6901062085","tag":{"bdc:name":"WATER MEADOWS","operator":"Breckland District Council","waste":"dog_excrement"}},"type":"Feature"},
	{"geometry":{"coordinates":[0.736434,52.41463],"type":"Point"},"properties":{"amenity":"waste_basket","osm_id":"6901062185","tag":{"bdc:name":"MEADOWS RIVER AREA","operator":"Breckland District Council","waste":"dog_excrement"}},"type":"Feature"},
	{"geometry":{"coordinates":[0.739452,52.418886],"type":"Point"},"properties":{"amenity":"waste_basket","osm_id":"6907043855","tag":{"waste":"dog_excrement"}},"type":"Feature"},
	{"geometry":{"coordinates":[0.764754,52.422401],"type":"Point"},"properties":{"amenity":"waste_basket","osm_id":"6912436953","tag":{"bdc:name":"DUNCAN CLOSE","operator":"Breckland District Council"}},"type":"Feature"},
	{"geometry":{"coordinates":[0.764512,52.422419],"type":"Point"},"properties":{"amenity":"waste_basket","osm_id":"6912436955","tag":{"bdc:name":"DUNCAN CLOSE","operator":"Breckland District Council","waste":"dog_excrement"}},"type":"Feature"},
	{"geometry":{"coordinates":[0.762521,52.423014],"type":"Point"},"properties":{"amenity":"waste_basket","osm_id":"6912436957","tag":{"OUTSIDE SHOPS":null,"bdc:name":"ADMIRALS WAY ","operator":"Breckland District Council"}},"type":"Feature"},
	{"geometry":{"coordinates":[0.762212,52.422839],"type":"Point"},"properties":{"amenity":"waste_basket","osm_id":"6912436958","tag":{"OUTSIDE SHOPS":null,"bdc:name":"ADMIRALS WAY ","operator":"Breckland District Council"}},"type":"Feature"},
	{"geometry":{"coordinates":[0.761601,52.421914],"type":"Point"},"properties":{"amenity":"waste_basket","osm_id":"6912436962","tag":{"bdc:name":"ADMIRALS WAY SCHOOL","operator":"Breckland District Council"}},"type":"Feature"},
	{"geometry":{"coordinates":[0.759128,52.420526],"type":"Point"},"properties":{"amenity":"waste_basket","osm_id":"6912436963","tag":{"bdc:name":"HOOD WAY","operator":"Breckland District Council","waste":"dog_excrement"}},"type":"Feature"},
	{"geometry":{"coordinates":[0.758813,52.419112],"type":"Point"},"properties":{"amenity":"waste_basket","osm_id":"6912436964","tag":{"bdc:name":"CHURCHILL RD","operator":"Breckland District Council"}},"type":"Feature"},
	{"geometry":{"coordinates":[0.753934,52.417059],"type":"Point"},"properties":{"amenity":"waste_basket","osm_id":"6912436967"},"type":"Feature"},
	{"geometry":{"coordinates":[0.748167,52.413705],"type":"Point"},"properties":{"amenity":"waste_basket","osm_id":"6912436972"},"type":"Feature"},
	{"geometry":{"coordinates":[0.748585,52.414004],"type":"Point"},"properties":{"amenity":"waste_basket","osm_id":"6912436974","tag":{" BETWEEN 27 AND 29":null,"bdc:name":"KINGS STREET","operator":"Breckland District Council"}},"type":"Feature"},
	{"geometry":{"coordinates":[0.749458,52.413893],"type":"Point"},"properties":{"amenity":"waste_basket","osm_id":"6912436977","tag":{" NEAR CHURCH":null,"bdc:name":"KING STREET","operator":"Breckland District Council"}},"type":"Feature"},
	{"geometry":{"coordinates":[0.749636,52.413849],"type":"Point"},"properties":{"amenity":"waste_basket","osm_id":"6912436978","tag":{"bdc:name":"KING STREET NEAR NO 10","operator":"Breckland District Council"}},"type":"Feature"},
	{"geometry":{"coordinates":[0.749679,52.413467],"type":"Point"},"properties":{"amenity":"waste_basket","osm_id":"6912436979","tag":{"bdc:name":"KING STREET BEHIND ST CUTHBERT'S CHURCH","operator":"Breckland District Council"}},"type":"Feature"},
	{"geometry":{"coordinates":[0.749582,52.413621],"type":"Point"},"properties":{"amenity":"waste_basket","osm_id":"6912436980","tag":{"bdc:name":"KING STREET ST CUTHBERT'S CHURCH","operator":"Breckland District Council"}},"type":"Feature"},
	{"geometry":{"coordinates":[0.749682,52.413738],"type":"Point"},"properties":{"amenity":"waste_basket","osm_id":"6912436983","tag":{"bdc:name":"KING STREET ST CUTHBERT'S CHURCH","operator":"Breckland District Council"}},"type":"Feature"},
	{"geometry":{"coordinates":[0.750441,52.413142],"type":"Point"},"properties":{"amenity":"waste_basket","osm_id":"6912436984","tag":{" OUTSIDE DAD'S ARMY MUSEUM":null,"bdc:name":"MARKET PLACE","operator":"Breckland District Council"}},"type":"Feature"},
	{"geometry":{"coordinates":[0.75528,52.414247],"type":"Point"},"properties":{"amenity":"waste_basket","osm_id":"6912447291","tag":{" COMMON":null,"bdc:name":"MELFORD BRIDGE ROAD","operator":"Breckland District Council","waste":"dog_excrement"}},"type":"Feature"},
	{"geometry":{"coordinates":[0.766363,52.414008],"type":"Point"},"properties":{"amenity":"waste_basket","osm_id":"6913760213","tag":{"bdc:name":"BERGAMOT CLOSE","operator":"Breckland District Council"}},"type":"Feature"},
	{"geometry":{"coordinates":[0.768124,52.414391],"type":"Point"},"properties":{"amenity":"waste_basket","osm_id":"6913760220","tag":{"bdc:name":"FOXGLOVE ROAD","operator":"Breckland District Council","waste":"dog_excrement"}},"type":"Feature"},
	{"geometry":{"coordinates":[0.743857,52.415697],"type":"Point"},"properties":{"amenity":"waste_basket","osm_id":"6918438096","tag":{"bdc:name":"WATER MEADOWS","operator":"Breckland District Council","waste":"dog_excrement"}},"type":"Feature"},
	{"geometry":{"coordinates":[0.735463,52.409323],"type":"Point"},"properties":{"amenity":"waste_basket","osm_id":"6918440240","tag":{"bdc:name":"ST MARTINS WAY","operator":"Breckland District Council"}},"type":"Feature"},
	{"geometry":{"coordinates":[0.735379,52.40929],"type":"Point"},"properties":{"amenity":"waste_basket","osm_id":"6918440241","tag":{"bdc:name":"ST MARTINS WAY","operator":"Breckland District Council","waste":"dog_excrement"}},"type":"Feature"},
	{"geometry":{"coordinates":[0.744435,52.414974],"type":"Point"},"properties":{"amenity":"waste_basket","osm_id":"6918440242","tag":{"bdc:name":"MINSTERGATE","operator":"Breckland District Council"}},"type":"Feature"},
	{"geometry":{"coordinates":[0.734249,52.418931],"type":"Point"},"properties":{"amenity":"waste_basket","osm_id":"6918676673","tag":{"bdc:name":"ABBEY SHOPS","operator":"Breckland District Council"}},"type":"Feature"},
	{"geometry":{"coordinates":[0.734007,52.418627],"type":"Point"},"properties":{"amenity":"waste_basket","osm_id":"6918676674","tag":{"bdc:name":"ABBEY SHOPS","operator":"Breckland District Council"}},"type":"Feature"},
	{"geometry":{"coordinates":[0.7341,52.417203],"type":"Point"},"properties":{"amenity":"waste_basket","osm_id":"6918808995","tag":{"waste":"dog_excrement"}},"type":"Feature"},
	{"geometry":{"coordinates":[0.735253,52.408902],"type":"Point"},"properties":{"amenity":"waste_basket","osm_id":"6920725632","tag":{"waste":"dog_excrement"}},"type":"Feature"},
	{"geometry":{"coordinates":[0.755135,52.410564],"type":"Point"},"properties":{"amenity":"waste_basket","osm_id":"6920764106","tag":{"bdc:name":"CASTLE PARK","operator":"Breckland District Council","waste":"dog_excrement"}},"type":"Feature"},
	{"geometry":{"coordinates":[0.749391,52.412792],"type":"Point"},"properties":{"amenity":"waste_basket","osm_id":"6926428962","tag":{" OUTSIDE LIBRARY":null,"bdc:name":"RAYMOND ST","operator":"Breckland District Council"}},"type":"Feature"},
	{"geometry":{"coordinates":[0.746296,52.414716],"type":"Point"},"properties":{"amenity":"waste_basket","osm_id":"6926428964","tag":{"bdc:name":"MINSTERGATE","operator":"Breckland District Council"}},"type":"Feature"},
	{"geometry":{"coordinates":[0.741987,52.418049],"type":"Point"},"properties":{"amenity":"waste_basket","osm_id":"6926428965","tag":{"bdc:name":"MONKSGATE","operator":"Breckland District Council","waste":"dog_excrement"}},"type":"Feature"},
	{"geometry":{"coordinates":[0.750232,52.420129],"type":"Point"},"properties":{"amenity":"waste_basket","osm_id":"6926428978","tag":{"bdc:name":"CROXTON RD","operator":"Breckland District Council"}},"type":"Feature"},
	{"geometry":{"coordinates":[0.752781,52.422861],"type":"Point"},"properties":{"amenity":"waste_basket","osm_id":"6926442788","tag":{"bdc:name":"CROXTON RD JUNCTION OF FAIRFIELDS","operator":"Breckland District Council"}},"type":"Feature"},
	{"geometry":{"coordinates":[0.753056,52.423492],"type":"Point"},"properties":{"amenity":"waste_basket","osm_id":"6926442793","tag":{"bdc:name":"CROXTON RD","operator":"Breckland District Council"}},"type":"Feature"},
	{"geometry":{"coordinates":[0.754528,52.425779],"type":"Point"},"properties":{"amenity":"waste_basket","osm_id":"6926442796","tag":{"bdc:name":"CROXTON RD SHOPS","operator":"Breckland District Council"}},"type":"Feature"},
	{"geometry":{"coordinates":[0.754936,52.426046],"type":"Point"},"properties":{"amenity":"waste_basket","osm_id":"6926442797","tag":{"bdc:name":"CROXTON RD","operator":"Breckland District Council"}},"type":"Feature"},
	{"geometry":{"coordinates":[0.756817,52.424959],"type":"Point"},"properties":{"amenity":"waste_basket","osm_id":"6934289880","tag":{"bdc:name":"WOODLANDS EST","operator":"Breckland District Council","waste":"dog_excrement"}},"type":"Feature"},
	{"geometry":{"coordinates":[0.755503,52.427043],"type":"Point"},"properties":{"amenity":"waste_basket","osm_id":"6934289881","tag":{" OUTSIDE THE THETFORD ACADEMY":null,"bdc:name":"CROXTON RD","operator":"Breckland District Council"}},"type":"Feature"},
	{"geometry":{"coordinates":[0.754419,52.426439],"type":"Point"},"properties":{"amenity":"waste_basket","osm_id":"6934289882","tag":{" NEXT TO CHURCH OF NAZARENE":null,"bdc:name":"ANNE GURNEY","operator":"Breckland District Council"}},"type":"Feature"},
	{"geometry":{"coordinates":[0.751051,52.42373],"type":"Point"},"properties":{"amenity":"waste_basket","osm_id":"6934289883","tag":{"bdc:name":"RICHARD EASTER EST","operator":"Breckland District Council"}},"type":"Feature"},
	{"geometry":{"coordinates":[0.750366,52.422578],"type":"Point"},"properties":{"amenity":"waste_basket","osm_id":"6934289884","tag":{"bdc:name":"RICHARD EASTER EST","operator":"Breckland District Council"}},"type":"Feature"},
	{"geometry":{"coordinates":[0.750274,52.421329],"type":"Point"},"properties":{"amenity":"waste_basket","osm_id":"6934290485","tag":{"bdc:name":"RICHARD EASTER EST","operator":"Breckland District Council"}},"type":"Feature"},
	{"geometry":{"coordinates":[0.749839,52.421091],"type":"Point"},"properties":{"amenity":"waste_basket","osm_id":"6934290486","tag":{"bdc:name":"SPORT CENTRE","operator":"Breckland District Council"}},"type":"Feature"},
	{"geometry":{"coordinates":[0.749407,52.421249],"type":"Point"},"properties":{"amenity":"waste_basket","osm_id":"6934290487","tag":{"bdc:name":"SPORT CENTRE","operator":"Breckland District Council"}},"type":"Feature"},
	{"geometry":{"coordinates":[0.748435,52.421542],"type":"Point"},"properties":{"amenity":"waste_basket","osm_id":"6934290488","tag":{"bdc:name":"SPORT CENTRE","operator":"Breckland District Council"}},"type":"Feature"},
	{"geometry":{"coordinates":[0.748421,52.421543],"type":"Point"},"properties":{"amenity":"waste_basket","osm_id":"6934290489","tag":{"bdc:name":"SPORT CENTRE","operator":"Breckland District Council","waste":"dog_excrement"}},"type":"Feature"},
	{"geometry":{"coordinates":[0.749214,52.420078],"type":"Point"},"properties":{"amenity":"waste_basket","osm_id":"6934290490"},"type":"Feature"},
	{"geometry":{"coordinates":[0.749252,52.419951],"type":"Point"},"properties":{"amenity":"waste_basket","osm_id":"6934290491"},"type":"Feature"},
	{"geometry":{"coordinates":[0.749294,52.416261],"type":"Point"},"properties":{"amenity":"waste_basket","osm_id":"6939761086"},"type":"Feature"},
	{"geometry":{"coordinates":[0.732864,52.401328],"type":"Point"},"properties":{"amenity":"waste_basket","osm_id":"6946467592","tag":{"bdc:name":"ELM RD/FIR RD","operator":"Breckland District Council","waste":"dog_excrement"}},"type":"Feature"},
	{"geometry":{"coordinates":[0.730575,52.401532],"type":"Point"},"properties":{"amenity":"waste_basket","osm_id":"6946467594","tag":{"bdc:name":"ELM RD/FIR RD","operator":"Breckland District Council"}},"type":"Feature"},
	{"geometry":{"coordinates":[0.732186,52.402505],"type":"Point"},"properties":{"amenity":"waste_basket","osm_id":"6946467596","tag":{"bdc:name":"ELM RD/FIR RD","operator":"Breckland District Council","waste":"dog_excrement"}},"type":"Feature"},
	{"geometry":{"coordinates":[0.732142,52.402496],"type":"Point"},"properties":{"amenity":"waste_basket","osm_id":"6946467597","tag":{"bdc:name":"ELM RD/FIR RD","operator":"Breckland District Council"}},"type":"Feature"},
	{"geometry":{"coordinates":[0.736736,52.404983],"type":"Point"},"properties":{"amenity":"waste_basket","osm_id":"6946467598","tag":{"bdc:name":"FULMERSTONE RD","operator":"Breckland District Council"}},"type":"Feature"},
	{"geometry":{"coordinates":[0.736794,52.404908],"type":"Point"},"properties":{"amenity":"waste_basket","osm_id":"6946467599","tag":{"bdc:name":"FULMERSTONE RD","operator":"Breckland District Council","waste":"dog_excrement"}},"type":"Feature"},
	{"geometry":{"coordinates":[0.743488,52.412263],"type":"Point"},"properties":{"amenity":"waste_basket","osm_id":"6946467601"},"type":"Feature"},
	{"geometry":{"coordinates":[0.742104,52.405662],"type":"Point"},"properties":{"amenity":"waste_basket","osm_id":"6946467602","tag":{"bdc:name":"STANIFORTH RD","operator":"Breckland District Council"}},"type":"Feature"},
	{"geometry":{"coordinates":[0.740482,52.405622],"type":"Point"},"properties":{"amenity":"waste_basket","osm_id":"6946467605","tag":{"bdc:name":"STANIFORTH RD","operator":"Breckland District Council"}},"type":"Feature"},
	{"geometry":{"coordinates":[0.739763,52.405466],"type":"Point"},"properties":{"amenity":"waste_basket","osm_id":"6946467606","tag":{"bdc:name":"STANIFORTH RD","operator":"Breckland District Council"}},"type":"Feature"},
	{"geometry":{"coordinates":[0.738152,52.405467],"type":"Point"},"properties":{"amenity":"waste_basket","osm_id":"6946467607","tag":{"bdc:name":"CHURCH PINE CLOSE","operator":"Breckland District Council"}},"type":"Feature"},
	{"geometry":{"coordinates":[0.737659,52.405024],"type":"Point"},"properties":{"amenity":"waste_basket","osm_id":"6946467608","tag":{"bdc:name":"PINE CLOSE SHOPS","operator":"Breckland District Council"}},"type":"Feature"},
	{"geometry":{"coordinates":[0.730269,52.402113],"type":"Point"},"properties":{"amenity":"waste_basket","osm_id":"6946467610","tag":{"bdc:name":"ELM RD/FIR RD","operator":"Breckland District Council","waste":"dog_excrement"}},"type":"Feature"},
	{"geometry":{"coordinates":[0.734065,52.411087],"type":"Point"},"properties":{"amenity":"waste_basket","osm_id":"6955884049"},"type":"Feature"},
	{"geometry":{"coordinates":[0.736939,52.411629],"type":"Point"},"properties":{"amenity":"waste_basket","osm_id":"6956162511","tag":{"bdc:name":"ST JOHNS BALL PARK","operator":"Breckland District Council"}},"type":"Feature"},
	{"geometry":{"coordinates":[0.736723,52.411512],"type":"Point"},"properties":{"amenity":"waste_basket","osm_id":"6956162512","tag":{"bdc:name":"ST JOHNS BALL PARK","operator":"Breckland District Council"}},"type":"Feature"},
	{"geometry":{"coordinates":[0.736859,52.411584],"type":"Point"},"properties":{"amenity":"waste_basket","osm_id":"6956162513","tag":{"bdc:name":"ST JOHNS BALL PARK","operator":"Breckland District Council"}},"type":"Feature"},
	{"geometry":{"coordinates":[0.736644,52.411578],"type":"Point"},"properties":{"amenity":"waste_basket","osm_id":"6956162514","tag":{"bdc:name":"ST JOHNS BALL PARK","operator":"Breckland District Council"}},"type":"Feature"},
	{"geometry":{"coordinates":[0.736604,52.411588],"type":"Point"},"properties":{"amenity":"waste_basket","osm_id":"6956162515","tag":{"bdc:name":"ST JOHNS BALL PARK","operator":"Breckland District Council","waste":"dog_excrement"}},"type":"Feature"},
	{"geometry":{"coordinates":[0.73562,52.412177],"type":"Point"},"properties":{"amenity":"waste_basket","osm_id":"6956162516","tag":{"waste":"dog_excrement"}},"type":"Feature"},
	{"geometry":{"coordinates":[0.730735,52.411701],"type":"Point"},"properties":{"amenity":"waste_basket","osm_id":"6956162518","tag":{"bdc:name":"ST JOHNS WAY","operator":"Breckland District Council","waste":"dog_excrement"}},"type":"Feature"},
	{"geometry":{"coordinates":[0.730278,52.409868],"type":"Point"},"properties":{"amenity":"waste_basket","osm_id":"6956162519","tag":{"bdc:name":"ST JOHNS WAY","operator":"Breckland District Council","waste":"dog_excrement"}},"type":"Feature"},
	{"geometry":{"coordinates":[0.733112,52.410626],"type":"Point"},"properties":{"amenity":"waste_basket","osm_id":"6956162520","tag":{"waste":"dog_excrement"}},"type":"Feature"},
	{"geometry":{"coordinates":[0.734968,52.411315],"type":"Point"},"properties":{"amenity":"waste_basket","osm_id":"6956162521"},"type":"Feature"},
	{"geometry":{"coordinates":[0.73499,52.411325],"type":"Point"},"properties":{"amenity":"waste_basket","osm_id":"6956162522","tag":{"waste":"dog_excrement"}},"type":"Feature"},
	{"geometry":{"coordinates":[0.735829,52.41152],"type":"Point"},"properties":{"amenity":"waste_basket","osm_id":"6956162523","tag":{"bdc:name":"CANNONS SHOPS","operator":"Breckland District Council"}},"type":"Feature"},
	{"geometry":{"coordinates":[0.735614,52.411365],"type":"Point"},"properties":{"amenity":"waste_basket","osm_id":"6956162524","tag":{"bdc:name":"CANNONS SHOPS","operator":"Breckland District Council","waste":"dog_excrement"}},"type":"Feature"},
	{"geometry":{"coordinates":[0.740103,52.410244],"type":"Point"},"properties":{"amenity":"waste_basket","osm_id":"6956162525","tag":{"waste":"dog_excrement"}},"type":"Feature"},
	{"geometry":{"coordinates":[0.754271,52.423329],"type":"Point"},"properties":{"amenity":"waste_basket","osm_id":"6978433198","tag":{"bdc:name":"FAIRFIELDS EST","operator":"Breckland District Council","waste":"dog_excrement"}},"type":"Feature"},
	{"geometry":{"coordinates":[0.756674,52.422406],"type":"Point"},"properties":{"amenity":"waste_basket","osm_id":"6978433199","tag":{"bdc:name":"FAIRFIELDS PLAY AREA NEXT TO DRAKE PRIMARY SCHOOL","operator":"Breckland District Council"}},"type":"Feature"},
	{"geometry":{"coordinates":[0.744891,52.419104],"type":"Point"},"properties":{"amenity":"waste_basket","osm_id":"6981775985","tag":{"operator":"Greater Anglia"}},"type":"Feature"},
	{"geometry":{"coordinates":[0.771956,52.422928],"type":"Point"},"properties":{"amenity":"waste_basket","osm_id":"6982346977","tag":{"operator":"Tesco"}},"type":"Feature"},
	{"geometry":{"coordinates":[0.756852,52.412316],"type":"Point"},"properties":{"amenity":"waste_basket","osm_id":"6982629790","tag":{"bdc:name":"CASTLE PARK","operator":"Breckland District Council"}},"type":"Feature"},
	{"geometry":{"coordinates":[0.756729,52.412001],"type":"Point"},"properties":{"amenity":"waste_basket","osm_id":"6982629794","tag":{"bdc:name":"CASTLE PARK","operator":"Breckland District Council"}},"type":"Feature"},
	{"geometry":{"coordinates":[0.756929,52.412053],"type":"Point"},"properties":{"amenity":"waste_basket","osm_id":"6982629795","tag":{"bdc:name":"CASTLE PARK","operator":"Breckland District Council","waste":"dog_excrement"}},"type":"Feature"},
	{"geometry":{"coordinates":[0.733687,52.418452],"type":"Point"},"properties":{"amenity":"waste_basket","osm_id":"6997476850","tag":{"bdc:name":"EXETER WAY","operator":"Breckland District Council"}},"type":"Feature"},
	{"geometry":{"coordinates":[0.733214,52.418878],"type":"Point"},"properties":{"amenity":"waste_basket","osm_id":"6997476851","tag":{"bdc:name":"EXETER WAY","operator":"Breckland District Council","waste":"dog_excrement"}},"type":"Feature"},
	{"geometry":{"coordinates":[0.734149,52.418813],"type":"Point"},"properties":{"amenity":"waste_basket","osm_id":"6997476852","tag":{"bdc:name":"ABBEY SHOPS","operator":"Breckland District Council"}},"type":"Feature"},
	{"geometry":{"coordinates":[0.734025,52.419715],"type":"Point"},"properties":{"amenity":"waste_basket","osm_id":"6997476853","tag":{"bdc:name":"CANTERBURY WAY","operator":"Breckland District Council","waste":"dog_excrement"}},"type":"Feature"},
	{"geometry":{"coordinates":[0.732605,52.421529],"type":"Point"},"properties":{"amenity":"waste_basket","osm_id":"6997476875","tag":{"waste":"dog_excrement"}},"type":"Feature"},
	{"geometry":{"coordinates":[0.731003,52.420063],"type":"Point"},"properties":{"amenity":"waste_basket","osm_id":"6997476879"},"type":"Feature"},
	{"geometry":{"coordinates":[0.754008,52.40789],"type":"Point"},"properties":{"amenity":"waste_basket","osm_id":"7042073385"},"type":"Feature"},
	{"geometry":{"coordinates":[0.743177,52.402151],"type":"Point"},"properties":{"amenity":"waste_basket","osm_id":"7042073485"},"type":"Feature"},
	{"geometry":{"coordinates":[0.742785,52.401949],"type":"Point"},"properties":{"amenity":"waste_basket","osm_id":"7042073585"},"type":"Feature"},
	{"geometry":{"coordinates":[0.746201,52.405537],"type":"Point"},"properties":{"amenity":"waste_basket","osm_id":"7042165672","tag":{" CORNER OF BURY ROAD":null,"bdc:name":"NUNN'S BRIDGES ROAD","operator":"Breckland District Council","waste":"dog_excrement"}},"type":"Feature"},
	{"geometry":{"coordinates":[0.771064,52.423678],"type":"Point"},"properties":{"amenity":"waste_basket","osm_id":"7058746277","tag":{"operator":"Tesco"}},"type":"Feature"},
	{"geometry":{"coordinates":[0.7459,52.408233],"type":"Point"},"properties":{"amenity":"waste_basket","osm_id":"7070262822","tag":{"bdc:name":"BURY RD L/B","operator":"Breckland District Council","waste":"dog_excrement"}},"type":"Feature"},
	{"geometry":{"coordinates":[0.746144,52.406868],"type":"Point"},"properties":{"amenity":"waste_basket","osm_id":"7070262823","tag":{"bdc:name":"BURY RD L/B","operator":"Breckland District Council","waste":"dog_excrement"}},"type":"Feature"},
	{"geometry":{"coordinates":[0.746399,52.40636],"type":"Point"},"properties":{"amenity":"waste_basket","osm_id":"7070262826","tag":{"bdc:name":"ST MICHEALS/ST BARNABUS","operator":"Breckland District Council","waste":"dog_excrement"}},"type":"Feature"},
	{"geometry":{"coordinates":[0.773391,52.420435],"type":"Point"},"properties":{"amenity":"waste_basket","osm_id":"7074535192","tag":{"bdc:name":"CLOVERFIELDS","operator":"Breckland District Council","waste":"dog_excrement"}},"type":"Feature"},
	{"geometry":{"coordinates":[0.747351,52.412508],"type":"Point"},"properties":{"amenity":"waste_basket","osm_id":"7094029085"},"type":"Feature"},
	{"geometry":{"coordinates":[0.735038,52.406243],"type":"Point"},"properties":{"amenity":"waste_basket","osm_id":"7115249266","tag":{"bdc:name":"KIMMS BELT FOREST","operator":"Breckland District Council","waste":"dog_excrement"}},"type":"Feature"},
	{"geometry":{"coordinates":[0.737514,52.405016],"type":"Point"},"properties":{"amenity":"waste_basket","osm_id":"7115249273","tag":{"bdc:name":"PINE CLOSE SHOPS","operator":"Breckland District Council"}},"type":"Feature"},
	{"geometry":{"coordinates":[0.737431,52.404232],"type":"Point"},"properties":{"amenity":"waste_basket","osm_id":"7149008024"},"type":"Feature"},
	{"geometry":{"coordinates":[0.744873,52.414975],"type":"Point"},"properties":{"amenity":"waste_basket","osm_id":"7159015541"},"type":"Feature"},
	{"geometry":{"coordinates":[0.721065,52.404597],"type":"Point"},"properties":{"amenity":"waste_basket","osm_id":"7159024810","tag":{"operator":"Sainsbury's"}},"type":"Feature"},
	{"geometry":{"coordinates":[0.721235,52.404484],"type":"Point"},"properties":{"amenity":"waste_basket","osm_id":"7159024813","tag":{"operator":"Sainsbury's"}},"type":"Feature"},
	{"geometry":{"coordinates":[0.757137,52.418838],"type":"Point"},"properties":{"amenity":"waste_basket","osm_id":"7167340373","tag":{"waste":"dog_excrement"}},"type":"Feature"},
	{"geometry":{"coordinates":[0.723052,52.405782],"type":"Point"},"properties":{"amenity":"waste_basket","osm_id":"7177072587"},"type":"Feature"},
	{"geometry":{"coordinates":[0.723431,52.405804],"type":"Point"},"properties":{"amenity":"waste_basket","osm_id":"7177171786"},"type":"Feature"},
	{"geometry":{"coordinates":[0.723694,52.40595],"type":"Point"},"properties":{"amenity":"waste_basket","osm_id":"7177174385"},"type":"Feature"},
	{"geometry":{"coordinates":[0.72362,52.405353],"type":"Point"},"properties":{"amenity":"waste_basket","osm_id":"7177174485"},"type":"Feature"},
	{"geometry":{"coordinates":[0.747886,52.416124],"type":"Point"},"properties":{"amenity":"waste_basket","osm_id":"7177174486"},"type":"Feature"},
	{"geometry":{"coordinates":[0.7374,52.404836],"type":"Point"},"properties":{"amenity":"waste_basket","osm_id":"7178924097"},"type":"Feature"},
	{"geometry":{"coordinates":[0.745404,52.419099],"type":"Point"},"properties":{"amenity":"waste_basket","osm_id":"7179470486"},"type":"Feature"},
	{"geometry":{"coordinates":[0.74698,52.414825],"type":"Point"},"properties":{"amenity":"waste_basket","osm_id":"7213855363"},"type":"Feature"},
	{"geometry":{"coordinates":[0.737987,52.413457],"type":"Point"},"properties":{"amenity":"waste_basket","osm_id":"7229012030"},"type":"Feature"},
	{"geometry":{"coordinates":[0.755499,52.421435],"type":"Point"},"properties":{"amenity":"waste_basket","osm_id":"7243481020"},"type":"Feature"},
	{"geometry":{"coordinates":[0.754618,52.420985],"type":"Point"},"properties":{"amenity":"waste_basket","osm_id":"7243481021"},"type":"Feature"},
	{"geometry":{"coordinates":[0.749464,52.426651],"type":"Point"},"properties":{"amenity":"waste_basket","osm_id":"7332883139","tag":{"waste":"dog_excrement"}},"type":"Feature"},
	{"geometry":{"coordinates":[0.758799,52.428429],"type":"Point"},"properties":{"amenity":"waste_basket","osm_id":"7356783435"},"type":"Feature"},
	{"geometry":{"coordinates":[0.740357,52.403561],"type":"Point"},"properties":{"amenity":"waste_basket","osm_id":"7356785695"},"type":"Feature"},
	{"geometry":{"coordinates":[0.749029,52.408866],"type":"Point"},"properties":{"amenity":"waste_basket","osm_id":"7388490409"},"type":"Feature"},
	{"geometry":{"coordinates":[0.736564,52.402056],"type":"Point"},"properties":{"amenity":"waste_basket","osm_id":"7390298045","tag":{"waste":"dog_excrement"}},"type":"Feature"},
	{"geometry":{"coordinates":[0.738406,52.406585],"type":"Point"},"properties":{"amenity":"waste_basket","osm_id":"7434817120","tag":{"waste":"dog_excrement"}},"type":"Feature"},
	{"geometry":{"coordinates":[0.739104,52.405117],"type":"Point"},"properties":{"amenity":"waste_basket","osm_id":"7434817146"},"type":"Feature"},
	{"geometry":{"coordinates":[0.752062,52.405587],"type":"Point"},"properties":{"amenity":"waste_basket","osm_id":"7446980485"},"type":"Feature"},
	{"geometry":{"coordinates":[0.760881,52.420984],"type":"Point"},"properties":{"amenity":"waste_basket","osm_id":"7473011612"},"type":"Feature"},
	{"geometry":{"coordinates":[0.731242,52.403292],"type":"Point"},"properties":{"amenity":"waste_basket","osm_id":"7484492600","tag":{"waste":"dog_excrement"}},"type":"Feature"},
	{"geometry":{"coordinates":[0.747399,52.414861],"type":"Point"},"properties":{"amenity":"waste_basket","osm_id":"7530040374"},"type":"Feature"},
	{"geometry":{"coordinates":[0.753208,52.427002],"type":"Point"},"properties":{"amenity":"waste_basket","osm_id":"7538709679","tag":{"waste":"dog_excrement"}},"type":"Feature"},
	{"geometry":{"coordinates":[0.733967,52.403362],"type":"Point"},"properties":{"amenity":"waste_basket","osm_id":"7572410443","tag":{"waste":"dog_excrement"}},"type":"Feature"},
	{"geometry":{"coordinates":[0.745444,52.415879],"type":"Point"},"properties":{"amenity":"waste_basket","osm_id":"7572606787"},"type":"Feature"},
	{"geometry":{"coordinates":[0.74648,52.407155],"type":"Point"},"properties":{"amenity":"waste_basket","osm_id":"7581075215","tag":{"waste":"dog_excrement"}},"type":"Feature"},
	{"geometry":{"coordinates":[0.760895,52.42764],"type":"Point"},"properties":{"amenity":"waste_basket","osm_id":"7633269164"},"type":"Feature"},
	{"geometry":{"coordinates":[0.763771,52.426042],"type":"Point"},"properties":{"amenity":"waste_basket","osm_id":"7633269165"},"type":"Feature"},
	{"geometry":{"coordinates":[0.769709,52.42316],"type":"Point"},"properties":{"amenity":"waste_basket","osm_id":"7692865085"},"type":"Feature"},
	{"geometry":{"coordinates":[0.751608,52.403857],"type":"Point"},"properties":{"amenity":"waste_basket","osm_id":"7755788096"},"type":"Feature"},
	{"geometry":{"coordinates":[0.751349,52.404236],"type":"Point"},"properties":{"amenity":"waste_basket","osm_id":"7755788097"},"type":"Feature"}
]
}
