{
"type": "FeatureCollection",
"lastupdate": "2020-07-24T00:48:03Z",
"features": [
	{"geometry":{"coordinates":[1.157664,52.060346],"type":"Point"},"properties":{"amenity":"recycling","osm_id":"670461858"},"type":"Feature"},
	{"geometry":{"coordinates":[1.157787,52.063427],"type":"Point"},"properties":{"amenity":"recycling","osm_id":"670461962"},"type":"Feature"},
	{"geometry":{"coordinates":[1.157327,52.05958],"type":"Point"},"properties":{"amenity":"recycling","osm_id":"670461974"},"type":"Feature"},
	{"geometry":{"coordinates":[1.15717,52.061277],"type":"Point"},"properties":{"amenity":"recycling","osm_id":"670462276"},"type":"Feature"},
	{"geometry":{"coordinates":[1.171846,52.05779],"type":"Point"},"properties":{"amenity":"recycling","name":"Bicycle Doctor","osm_id":"786103020","tag":{"addr:city":"Ipswich","addr:housenumber":"18","addr:postcode":"IP4 2RP","addr:street":"Bartholomew Street","designation":"Bicycle Doctor","recycling:bicycles":"yes","recycling_type":"centre","shop":"bicycle_repair","website":"http://www.bicycledoctor.gbr.fm"}},"type":"Feature"},
	{"geometry":{"coordinates":[1.144354,52.068624],"type":"Point"},"properties":{"amenity":"waste_basket","osm_id":"1933692796"},"type":"Feature"},
	{"geometry":{"coordinates":[1.144627,52.068676],"type":"Point"},"properties":{"amenity":"waste_basket","osm_id":"1933692816","tag":{"waste":"dog_excrement"}},"type":"Feature"},
	{"geometry":{"coordinates":[1.146387,52.069069],"type":"Point"},"properties":{"amenity":"waste_basket","osm_id":"1933692873","tag":{"waste":"dog_excrement"}},"type":"Feature"},
	{"geometry":{"coordinates":[1.152778,52.058082],"type":"Point"},"properties":{"amenity":"waste_basket","osm_id":"1995652185"},"type":"Feature"},
	{"geometry":{"coordinates":[1.152425,52.057805],"type":"Point"},"properties":{"amenity":"waste_basket","osm_id":"1995652229"},"type":"Feature"},
	{"geometry":{"coordinates":[1.158889,52.055528],"type":"Point"},"properties":{"amenity":"waste_basket","osm_id":"2195056433"},"type":"Feature"},
	{"geometry":{"coordinates":[1.153098,52.054459],"type":"Point"},"properties":{"amenity":"waste_basket","osm_id":"2360980651"},"type":"Feature"},
	{"geometry":{"coordinates":[1.152473,52.055102],"type":"Point"},"properties":{"amenity":"waste_basket","osm_id":"2361007184"},"type":"Feature"},
	{"geometry":{"coordinates":[1.152462,52.0551],"type":"Point"},"properties":{"amenity":"recycling","osm_id":"2361007186","tag":{"recycling:cans":"yes","recycling:paper":"yes","recycling:plastic_bottles":"yes"}},"type":"Feature"},
	{"geometry":{"coordinates":[1.152362,52.055188],"type":"Point"},"properties":{"amenity":"waste_basket","osm_id":"2361007187"},"type":"Feature"},
	{"geometry":{"coordinates":[1.152534,52.055419],"type":"Point"},"properties":{"amenity":"waste_basket","osm_id":"2361007190"},"type":"Feature"},
	{"geometry":{"coordinates":[1.156304,52.057317],"type":"Point"},"properties":{"amenity":"waste_basket","osm_id":"2484329889"},"type":"Feature"},
	{"geometry":{"coordinates":[1.150751,52.058768],"type":"Point"},"properties":{"amenity":"waste_basket","osm_id":"2484330011"},"type":"Feature"},
	{"geometry":{"coordinates":[1.150884,52.058544],"type":"Point"},"properties":{"amenity":"waste_basket","osm_id":"2484330017"},"type":"Feature"},
	{"geometry":{"coordinates":[1.155467,52.059067],"type":"Point"},"properties":{"amenity":"waste_basket","osm_id":"2536463231"},"type":"Feature"},
	{"geometry":{"coordinates":[1.153112,52.058533],"type":"Point"},"properties":{"amenity":"waste_basket","osm_id":"2536543089"},"type":"Feature"},
	{"geometry":{"coordinates":[1.14305,52.060119],"type":"Point"},"properties":{"amenity":"waste_basket","osm_id":"2893731433"},"type":"Feature"},
	{"geometry":{"coordinates":[1.155882,52.055949],"type":"Point"},"properties":{"amenity":"waste_basket","osm_id":"2956566333","tag":{"recycling:cans":"yes","recycling:paper":"yes","recycling:plastic_bottles":"yes"}},"type":"Feature"},
	{"geometry":{"coordinates":[1.154717,52.055869],"type":"Point"},"properties":{"amenity":"waste_basket","osm_id":"2956566334","tag":{"recycling:cans":"yes","recycling:paper":"yes","recycling:plastic_bottles":"yes"}},"type":"Feature"},
	{"geometry":{"coordinates":[1.15433,52.055865],"type":"Point"},"properties":{"amenity":"waste_basket","osm_id":"2956566344","tag":{"recycling:cans":"yes","recycling:paper":"yes","recycling:plastic_bottles":"yes"}},"type":"Feature"},
	{"geometry":{"coordinates":[1.14981,52.057151],"type":"Point"},"properties":{"amenity":"waste_basket","osm_id":"2971750133"},"type":"Feature"},
	{"geometry":{"coordinates":[1.14986,52.058839],"type":"Point"},"properties":{"amenity":"waste_basket","osm_id":"2986910162"},"type":"Feature"},
	{"geometry":{"coordinates":[1.150245,52.058716],"type":"Point"},"properties":{"amenity":"waste_basket","osm_id":"2986910166"},"type":"Feature"},
	{"geometry":{"coordinates":[1.152837,52.054778],"type":"Point"},"properties":{"amenity":"waste_basket","osm_id":"5702502767"},"type":"Feature"},
	{"geometry":{"coordinates":[1.213984,52.071392],"type":"Point"},"properties":{"amenity":"waste_basket","osm_id":"5961918852"},"type":"Feature"},
	{"geometry":{"coordinates":[1.181819,52.061478],"type":"Point"},"properties":{"amenity":"waste_basket","osm_id":"5972588869"},"type":"Feature"},
	{"geometry":{"coordinates":[1.181827,52.061574],"type":"Point"},"properties":{"amenity":"waste_basket","osm_id":"5972589911"},"type":"Feature"},
	{"geometry":{"coordinates":[1.181835,52.061688],"type":"Point"},"properties":{"amenity":"waste_basket","osm_id":"5972589912"},"type":"Feature"},
	{"geometry":{"coordinates":[1.21837,52.060354],"type":"Point"},"properties":{"amenity":"waste_basket","osm_id":"7089482816"},"type":"Feature"},
	{"geometry":{"coordinates":[1.218351,52.060209],"type":"Point"},"properties":{"amenity":"waste_basket","osm_id":"7089482819"},"type":"Feature"},
	{"geometry":{"coordinates":[1.211331,52.054621],"type":"Point"},"properties":{"amenity":"waste_basket","osm_id":"7090509723","tag":{"waste":"dog_excrement"}},"type":"Feature"},
	{"geometry":{"coordinates":[1.215601,52.058621],"type":"Point"},"properties":{"amenity":"waste_basket","osm_id":"7090509727","tag":{"waste":"dog_excrement"}},"type":"Feature"},
	{"geometry":{"coordinates":[1.217773,52.059455],"type":"Point"},"properties":{"amenity":"waste_basket","osm_id":"7090509729","tag":{"waste":"dog_excrement"}},"type":"Feature"},
	{"geometry":{"coordinates":[1.219578,52.057321],"type":"Point"},"properties":{"amenity":"waste_basket","osm_id":"7090509740"},"type":"Feature"},
	{"geometry":{"coordinates":[1.216818,52.055387],"type":"Point"},"properties":{"amenity":"waste_basket","osm_id":"7090509743"},"type":"Feature"},
	{"geometry":{"coordinates":[1.216915,52.055373],"type":"Point"},"properties":{"amenity":"waste_basket","osm_id":"7090509744"},"type":"Feature"},
	{"geometry":{"coordinates":[1.217034,52.055415],"type":"Point"},"properties":{"amenity":"waste_basket","osm_id":"7090509745"},"type":"Feature"},
	{"geometry":{"coordinates":[1.216957,52.055492],"type":"Point"},"properties":{"amenity":"waste_basket","osm_id":"7090509746"},"type":"Feature"},
	{"geometry":{"coordinates":[1.216835,52.05545],"type":"Point"},"properties":{"amenity":"waste_basket","osm_id":"7090509750"},"type":"Feature"},
	{"geometry":{"coordinates":[1.216836,52.055436],"type":"Point"},"properties":{"amenity":"waste_basket","osm_id":"7090509751"},"type":"Feature"},
	{"geometry":{"coordinates":[1.21566,52.054998],"type":"Point"},"properties":{"amenity":"waste_basket","osm_id":"7090509754"},"type":"Feature"}
]
}
