{
"type": "FeatureCollection",
"lastupdate": "2020-07-24T00:48:03Z",
"features": [
	{"geometry":{"coordinates":[1.368522,52.628082],"type":"Point"},"properties":{"amenity":"recycling","osm_id":"464375708","tag":{"recycling:glass_bottles":"yes","recycling:paper":"yes"}},"type":"Feature"},
	{"geometry":{"coordinates":[1.376846,52.625025],"type":"Point"},"properties":{"amenity":"waste_basket","osm_id":"471837122","tag":{"waste":"trash"}},"type":"Feature"},
	{"geometry":{"coordinates":[1.376926,52.625189],"type":"Point"},"properties":{"amenity":"waste_basket","osm_id":"471837123","tag":{"waste":"trash"}},"type":"Feature"},
	{"geometry":{"coordinates":[1.320281,52.623542],"type":"Point"},"properties":{"amenity":"recycling","name":"Cremorne Lane / Glendenning Road","osm_id":"514316250","tag":{"recycling:glass_bottles":"yes","recycling:paper":"yes","recycling:shoes":"yes","url":"http://www.norwich.gov.uk/intranet_docs/A-Z/Recycling/Recycling_Centres.pdf"}},"type":"Feature"},
	{"geometry":{"coordinates":[1.355291,52.634885],"type":"Point"},"properties":{"amenity":"recycling","name":"Thorpe Park, Laundry Lane","osm_id":"514316344","tag":{"recycling:glass_bottles":"yes","recycling:paper":"yes","url":"http://www.norwich.gov.uk/intranet_docs/A-Z/Recycling/Recycling_Centres.pdf"}},"type":"Feature"},
	{"geometry":{"coordinates":[1.336474,52.641255],"type":"Point"},"properties":{"amenity":"recycling","name":"Paine Road / Witard Road","osm_id":"514316351","tag":{"recycling:glass_bottles":"yes","recycling:shoes":"yes","recycling:textiles":"yes","url":"http://www.norwich.gov.uk/intranet_docs/A-Z/Recycling/Recycling_Centres.pdf"}},"type":"Feature"},
	{"geometry":{"coordinates":[1.359849,52.630861],"type":"Point"},"properties":{"amenity":"recycling","osm_id":"1361526694"},"type":"Feature"},
	{"geometry":{"coordinates":[1.341366,52.626122],"type":"Point"},"properties":{"amenity":"waste_basket","osm_id":"1968080088"},"type":"Feature"},
	{"geometry":{"coordinates":[1.340935,52.626127],"type":"Point"},"properties":{"amenity":"waste_basket","osm_id":"1968080093"},"type":"Feature"},
	{"geometry":{"coordinates":[1.340415,52.626147],"type":"Point"},"properties":{"amenity":"waste_basket","osm_id":"1968080094"},"type":"Feature"},
	{"geometry":{"coordinates":[1.319063,52.613975],"type":"Point"},"properties":{"amenity":"waste_basket","osm_id":"2820949925","tag":{"waste_basket":"dog_waste"}},"type":"Feature"},
	{"geometry":{"coordinates":[1.32357,52.635611],"type":"Point"},"properties":{"amenity":"waste_basket","osm_id":"3676222779"},"type":"Feature"},
	{"geometry":{"coordinates":[1.325139,52.637219],"type":"Point"},"properties":{"amenity":"waste_basket","osm_id":"4163515212"},"type":"Feature"},
	{"geometry":{"coordinates":[1.351696,52.620861],"type":"Point"},"properties":{"amenity":"waste_basket","osm_id":"4198478081","tag":{"waste":"dog_excrement"}},"type":"Feature"},
	{"geometry":{"coordinates":[1.351693,52.620872],"type":"Point"},"properties":{"amenity":"waste_basket","osm_id":"4198478086"},"type":"Feature"},
	{"geometry":{"coordinates":[1.359556,52.620978],"type":"Point"},"properties":{"amenity":"waste_basket","osm_id":"4198478110"},"type":"Feature"},
	{"geometry":{"coordinates":[1.321202,52.611383],"type":"Point"},"properties":{"amenity":"waste_basket","osm_id":"5144807145","tag":{"waste":"dog_excrement"}},"type":"Feature"},
	{"geometry":{"coordinates":[1.321097,52.611411],"type":"Point"},"properties":{"amenity":"waste_basket","osm_id":"5144807150"},"type":"Feature"},
	{"geometry":{"coordinates":[1.319691,52.60979],"type":"Point"},"properties":{"amenity":"waste_basket","osm_id":"5312132344","tag":{"waste":"dog_excrement"}},"type":"Feature"},
	{"geometry":{"coordinates":[1.342454,52.62092],"type":"Point"},"properties":{"amenity":"waste_basket","osm_id":"6087714523","tag":{"waste":"dog_excrement"}},"type":"Feature"},
	{"geometry":{"coordinates":[1.328949,52.61458],"type":"Point"},"properties":{"amenity":"waste_basket","osm_id":"6087714524","tag":{"waste":"dog_excrement"}},"type":"Feature"},
	{"geometry":{"coordinates":[1.327331,52.612005],"type":"Point"},"properties":{"amenity":"waste_basket","osm_id":"6087714537","tag":{"waste":"dog_excrement"}},"type":"Feature"},
	{"geometry":{"coordinates":[1.377742,52.625043],"type":"Point"},"properties":{"amenity":"waste_basket","osm_id":"7572626649","tag":{"waste":"trash"}},"type":"Feature"},
	{"geometry":{"coordinates":[1.379003,52.624811],"type":"Point"},"properties":{"amenity":"waste_basket","osm_id":"7572626650","tag":{"waste":"trash"}},"type":"Feature"},
	{"geometry":{"coordinates":[1.378555,52.624893],"type":"Point"},"properties":{"amenity":"waste_basket","osm_id":"7572626651","tag":{"waste":"trash"}},"type":"Feature"},
	{"geometry":{"coordinates":[1.378843,52.624422],"type":"Point"},"properties":{"amenity":"recycling","osm_id":"7572632307","tag":{"recycling:cans":"yes","recycling:cardboard":"yes","recycling:glass":"yes","recycling:glass_bottles":"yes","recycling:paper":"yes","recycling:plastic_bottles":"yes","recycling_type":"container"}},"type":"Feature"},
	{"geometry":{"coordinates":[1.378877,52.624417],"type":"Point"},"properties":{"amenity":"waste_basket","osm_id":"7572632308","tag":{"waste":"trash"}},"type":"Feature"},
	{"geometry":{"coordinates":[1.378814,52.624435],"type":"Point"},"properties":{"amenity":"recycling","osm_id":"7572632309","tag":{"recycling:glass":"yes","recycling:glass_bottles":"yes","recycling_type":"container"}},"type":"Feature"},
	{"geometry":{"coordinates":[1.379047,52.624393],"type":"Point"},"properties":{"amenity":"recycling","osm_id":"7572644808","tag":{"recycling:clothes":"yes","recycling:shoes":"yes","recycling_type":"container"}},"type":"Feature"}
]
}
