{
"type": "FeatureCollection",
"lastupdate": "2020-07-25T00:42:33Z",
"features": [
	{"geometry":{"coordinates":[-3.376377,51.609048],"type":"Point"},"properties":{"amenity":"waste_basket","osm_id":"7713742803","tag":{"waste":"dog_excrement"}},"type":"Feature"},
	{"geometry":{"coordinates":[-3.375123,51.609305],"type":"Point"},"properties":{"amenity":"waste_basket","osm_id":"7713742805","tag":{"waste":"trash"}},"type":"Feature"},
	{"geometry":{"coordinates":[-3.37487,51.609322],"type":"Point"},"properties":{"amenity":"waste_basket","osm_id":"7713742814","tag":{"waste":"trash"}},"type":"Feature"},
	{"geometry":{"coordinates":[-3.374981,51.608492],"type":"Point"},"properties":{"amenity":"waste_basket","osm_id":"7713742818","tag":{"waste":"trash"}},"type":"Feature"},
	{"geometry":{"coordinates":[-3.376613,51.608531],"type":"Point"},"properties":{"amenity":"waste_basket","osm_id":"7713742826","tag":{"waste":"dog_excrement"}},"type":"Feature"},
	{"geometry":{"coordinates":[-3.385924,51.610461],"type":"Point"},"properties":{"amenity":"waste_basket","osm_id":"7724850053","tag":{"waste":"trash"}},"type":"Feature"},
	{"geometry":{"coordinates":[-3.383415,51.61024],"type":"Point"},"properties":{"amenity":"waste_basket","osm_id":"7724850057","tag":{"waste":"dog_excrement"}},"type":"Feature"},
	{"geometry":{"coordinates":[-3.384825,51.610509],"type":"Point"},"properties":{"amenity":"waste_basket","osm_id":"7724850059","tag":{"waste":"dog_excrement"}},"type":"Feature"},
	{"geometry":{"coordinates":[-3.383753,51.610807],"type":"Point"},"properties":{"amenity":"waste_basket","osm_id":"7724850061","tag":{"waste":"trash"}},"type":"Feature"},
	{"geometry":{"coordinates":[-3.386374,51.610613],"type":"Point"},"properties":{"amenity":"waste_basket","osm_id":"7724850067","tag":{"waste":"trash"}},"type":"Feature"},
	{"geometry":{"coordinates":[-3.384411,51.611279],"type":"Point"},"properties":{"amenity":"waste_basket","osm_id":"7724850071","tag":{"waste":"trash"}},"type":"Feature"}
]
}
